place_id,state_abbr,lat,long,pop_estimate_2022,place_fips,sum_lev,url,lsadc,display_name,parent_id,address
6542a2e8a129cb65b879ffe4,AL,31.564724,-85.2591227,2358,124,160,https://cityofabbeville.org,25,City of Abbeville,65b98a2af5107303ca83c3f7,"101 E Washington St, Abbeville, AL 36310, USA"
6542a2e8a129cb65b879ffec,SC,34.178544,-82.3776868,4874,100,160,http://www.abbevillecitysc.com/,25,City of Abbeville,65a603fac769fa16f6595c6a,"Abbeville, SC 29620, USA"
6542a2e8a129cb65b879fff2,LA,29.9753954,-92.1271575,11186,100,160,https://cityofabbeville.net/,25,City of Abbeville,65a603f7c769fa16f6593132,"101 N State St, Abbeville, LA 70510, USA"
6542a2e8a129cb65b87a0009,MD,39.5158557,-76.17018,16254,125,160,https://www.aberdeenmd.gov/,25,City of Aberdeen,65a603f7c769fa16f65934fe,"60 N Parke St A, Aberdeen, MD 21001, USA"
6542a2e8a129cb65b87a000e,WA,46.9752047,-123.8113726,17013,100,160,https://www.aberdeenwa.gov/,25,City of Aberdeen,65a603fac769fa16f659684f,"200 E Market St, Aberdeen, WA 98520, USA"
6542a2e8a129cb65b87a000f,SD,45.4646777,-98.468104,28495,100,160,http://www.aberdeen.sd.us/,25,City of Aberdeen,65a603fac769fa16f6595e00,"123 S Lincoln St, Aberdeen, SD 57401, USA"
6542a2e8a129cb65b87a0023,TX,32.4545143,-99.7381473,125182,1000,160,https://abilenetx.gov,25,City of Abilene,65a603fac769fa16f6596394,"555 Walnut St, Abilene, TX 79601, USA"
6542a2e8a129cb65b87a0029,VA,36.7066646,-81.9716269,8376,148,160,http://www.abingdon-va.gov,43,Town of Abingdon,6542a36da129cb65b87b2b85,"133 W Main St, Abingdon, VA 24210, USA"
6542a2e8a129cb65b87a003e,VA,37.7659435,-75.7578073,33413,,50,http://www.co.accomack.va.us,6,Accomack County,65a603fac769fa16f6596672,"23296 Courthouse Ave # 105, Accomac, VA 23301, USA"
6542a2e8a129cb65b87a0047,IA,42.551695,-93.0522724,1599,190,160,https://www.ackleyiowa.net/,25,City of Ackley,65a603f6c769fa16f6592384,"258-298 State St, Ackley, IA 50601, USA"
6542a2e8a129cb65b87a005e,ID,43.4514767,-116.244376,494967,,50,https://adacounty.id.gov,6,Ada County,65a603f6c769fa16f65925df,
6542a2e8a129cb65b87a0073,OK,34.7662861,-96.666802,16481,200,160,https://adaok.com/,25,City of Ada,65a603f9c769fa16f6595549,"231 S Townsend Ave, Ada, OK 74820, USA"
6542a2e8a129cb65b87a0085,CO,39.8743252,-104.3318718,519572,,50,https://adcogov.org,6,Adams County,6542a312a129cb65b87a510c,"4430 S Adams County Pkwy, Brighton, CO 80601, USA"
6542a2e8a129cb65b87a00cc,AL,33.6023153,-86.9715269,4366,460,160,http://www.cityofadamsville.org,25,City of Adamsville,65a603f5c769fa16f65912e2,"4828 Main St, Adamsville, AL 35005, USA"
6542a2e8a129cb65b87a00f2,IL,41.9307823,-88.0089873,35702,243,160,http://addisonadvantage.org,47,Village of Addison,65a603f6c769fa16f6592761,
6542a2e8a129cb65b87a0106,CA,34.5809017,-117.4394577,38046,296,160,https://adelantoca.gov,25,City of Adelanto,65a603f5c769fa16f65918db,"11600 Air Expy, Adelanto, CA 92301, USA"
6542a2e8a129cb65b87a0137,MI,41.8987804,-84.0448289,20645,440,160,https://www.adriancity.com/,25,City of Adrian,65a603f7c769fa16f659386c,"135 E Maumee St, Adrian, MI 49221, USA"
6542a2e8a129cb65b87a0157,MA,42.0638908,-72.6529587,28692,840,160,http://www.agawam.ma.us/,25,City of Agawam Town,65a603f7c769fa16f65932ae,"36 Main St, Agawam, MA 01001, USA"
6542a2e8a129cb65b87a0169,CA,34.1489422,-118.7639301,20299,394,160,https://www.agourahillscity.org/,25,City of Agoura Hills,65a603f5c769fa16f65918c8,"30001 Ladyface Ct, Agoura Hills, CA 91301, USA"
6542a2e8a129cb65b87a017b,SC,33.5306772,-81.7273837,32025,550,160,http://www.cityofaikensc.gov/,25,City of Aiken,6542a2e8a129cb65b87a017f,"111 Chesterfield St S, Aiken, SC 29801, USA"
6542a2e8a129cb65b87a017f,SC,33.5500134,-81.632983,168808,,50,http://www.aikencountysc.gov/,6,Aiken County,6542a35ea129cb65b87b0bdc,"1930 University Pkwy, Aiken, SC 29801, USA"
6542a2e8a129cb65b87a0183,NY,41.0991558,-74.0979158,10166,408,160,https://www.airmont.org/,47,Village of Airmont,65a603f9c769fa16f6595043,
6542a2e8a129cb65b87a018c,WA,47.6459431,-117.5791969,10757,905,160,https://cawh.org/,25,City of Airway Heights,65a603fac769fa16f6596860,"13120 W 13th Ave, Airway Heights, WA 99001, USA"
6542a2e8a129cb65b87a01a7,OH,41.0804559,-81.5214295,190469,1000,160,http://www.akronohio.gov/,25,City of Akron,65a603f9c769fa16f65952dd,"166 S High St, Akron, OH 44308, USA"
6542a2e8a129cb65b87a01bd,AL,32.7396323,-86.8434593,5024279,,40,https://www.alabama.gov/,0,Alabama,,
6542a2e8a129cb65b87a01c0,AL,33.2443986,-86.8473723,33284,820,160,http://www.cityofalabaster.com,25,City of Alabaster,65a603f5c769fa16f65912e6,"1953 Municipal Way, Alabaster, AL 35007, USA"
6542a2e8a129cb65b87a01ce,CA,37.7419107,-122.2599139,78280,562,160,https://www.alamedaca.gov,25,City of Alameda,65a603f5c769fa16f65918b1,"2263 Santa Clara Ave, Alameda, CA 94501, USA"
6542a2e8a129cb65b87a01d3,TX,26.1810509,-98.1177003,19493,1576,160,https://alamotexas.org/,25,City of Alamo,65a603fac769fa16f6596327,"420 N Tower Rd, Alamo, TX 78516, USA"
6542a2e8a129cb65b87a01df,NM,32.8836158,-105.9636103,30898,1780,160,http://ci.alamogordo.nm.us/,25,City of Alamogordo,65a603f9c769fa16f6594f0f,"1376 E 9th St #5855, Alamogordo, NM 88310, USA"
6542a2e8a129cb65b87a01ea,AK,63.347356,-152.8397334,733391,,40,https://www.alaska.gov/,0,Alaska,,
6542a2e8a129cb65b87a01fb,CA,37.8906499,-122.3181164,20271,674,160,https://www.albanyca.org/,25,City of Albany,65a603f5c769fa16f65918b1,"1000 San Pablo Ave, Albany, CA 94706, USA"
6542a2e8a129cb65b87a01fe,GA,31.5781167,-84.1762242,69647,1052,160,https://www.albanyga.gov,25,City of Albany,65a603f6c769fa16f6592178,"222 Pine Ave, Albany, GA 31701, USA"
6542a2e8a129cb65b87a0206,NY,42.6657453,-73.7983532,99224,1000,160,https://www.albanyny.gov,25,City of Albany,65a603f9c769fa16f6595016,"24 Eagle St, Albany, NY 12207, USA"
6542a2e8a129cb65b87a020d,OR,44.6269277,-123.0967414,56472,1000,160,https://albanyoregon.gov/,25,City of Albany,65a603f9c769fa16f65957a3,"333 Broadalbin St SW, Albany, OR 97321, USA"
6542a2e8a129cb65b87a0238,NC,35.3600394,-80.1921349,16432,680,160,https://www.albemarlenc.gov,25,City of Albemarle,65a603f8c769fa16f65943f3,"144 N 2nd St, Albemarle, NC 28001, USA"
6542a2e8a129cb65b87a0239,VA,38.0241841,-78.5535056,112395,,50,http://www.albemarle.org,6,Albemarle County,65a603fac769fa16f6596672,
6542a2e8a129cb65b87a0243,MN,43.6542926,-93.3641484,18492,694,160,https://cityofalbertlea.org/,25,City of Albert Lea,65a603f8c769fa16f6593ac8,"221 E Clark St E, Albert Lea, MN 56007, USA"
6542a2e8a129cb65b87a0254,AL,34.2631303,-86.21066,22386,988,160,http://www.cityofalbertville.com,25,City of Albertville,65a603f5c769fa16f65912d0,"116 W Main St, Albertville, AL 35950, USA"
6542a2e8a129cb65b87a0291,TN,35.8095702,-83.9758571,10978,540,160,https://www.cityofalcoa-tn.gov/,25,City of Alcoa,65a603fac769fa16f6596077,"223 Associates Blvd, Alcoa, TN 37701, USA"
6542a2e8a129cb65b87a0299,MS,34.8865689,-88.5811091,34740,,50,https://www.alcorncounty.org,6,Alcorn County,65a603f8c769fa16f6593f94,"501 E Waldron St, Corinth, MS 38834, USA"
6542a2e8a129cb65b87a02c0,NM,35.1047797,-106.6468093,564559,2000,160,http://www.cabq.gov/,25,City of Albuquerque,65a603f9c769fa16f6594efc,"1 Civic Plz NW, Albuquerque, NM 87102, USA"
6542a2e8a129cb65b87a02e1,AL,32.9272402,-85.937122,14843,1132,160,https://www.alexandercityal.gov,25,City of Alexander City,65a603f5c769fa16f65912e8,"281 James D, Nabors Dr, Alexander City, AL 35010, USA"
6542a2e8a129cb65b87a02f6,KY,38.9678178,-84.3846006,10341,802,160,https://alexandriaky.org/,25,City of Alexandria,65b98a3df5107303ca83c40d,"8236 W Main St, Alexandria, KY 41001, USA"
6542a2e8a129cb65b87a02f8,LA,31.2934492,-92.4701887,45275,975,160,http://www.cityofalexandriala.com,25,City of Alexandria,65a603f7c769fa16f6593123,
6542a2e8a129cb65b87a0304,VA,38.8192511,-77.0836695,159467,1000,160,http://www.alexandriava.gov,25,City of Alexandria,,"301 King St, Alexandria, VA 22314, USA"
6542a2e8a129cb65b87a034e,CA,34.0835711,-118.1364436,82868,884,160,http://www.cityofalhambra.org/,25,City of Alhambra,65a603f5c769fa16f65918c8,"111 S 1st St, Alhambra, CA 91801, USA"
6542a2e8a129cb65b87a0355,TX,27.7556157,-98.0658117,17891,1852,160,https://www.cityofalice.org/,25,City of Alice,65a603fac769fa16f6596334,"500 E Main St, Alice, TX 78332, USA"
6542a2e8a129cb65b87a0363,CA,33.57921,-117.7288978,52176,947,160,https://avcity.org/,25,City of Aliso Viejo,65b98a2ef5107303ca83c3fd,"12 Journey, Aliso Viejo, CA 92656, USA"
6542a2e8a129cb65b87a0370,VA,37.7879048,-80.008669,15223,,50,https://www.co.alleghany.va.us/,6,Alleghany County,65a603fac769fa16f6596672,"9212 Winterberry Ave # C, Covington, VA 24426, USA"
6542a2e8a129cb65b87a0372,PA,40.4697574,-79.9804515,1250578,,50,http://www.alleghenycounty.us,6,Allegheny County,65a603f9c769fa16f6595966,"436 Grant St #202, Pittsburgh, PA 15219, USA"
6542a2e8a129cb65b87a0389,TX,33.1097362,-96.6730316,104627,1924,160,http://www.cityofallen.org,25,City of Allen,65a603fac769fa16f65962e2,"305 Century Pkwy, Allen, TX 75013, USA"
6542a2e8a129cb65b87a0390,MI,42.2594735,-83.2103905,28638,1380,160,http://www.cityofallenpark.org/,25,City of Allen Park,65a603f7c769fa16f6593892,"15915 Southfield Rd, Allen Park, MI 48101, USA"
6542a2e8a129cb65b87a03ae,SC,32.9797573,-81.3632651,8039,,50,https://www.allendalecounty.com/,6,Allendale County,6542a35ea129cb65b87b0bdc,"Memorial Ave N, Allendale, SC 29810, USA"
6542a2e8a129cb65b87a03af,SC,33.0080468,-81.3091643,2694,955,160,https://townofallendale.sc.gov/,43,Town of Allendale,6542a2e8a129cb65b87a03ae,
6542a2eaa129cb65b87a03e1,OH,40.9111711,-81.119827,21672,1420,160,https://www.cityofalliance.com/,25,City of Alliance,65a603f9c769fa16f65952c2,"504 E Main St, Alliance, OH 44601, USA"
6542a2eaa129cb65b87a03e4,PA,40.5936476,-75.4783928,125845,2000,160,http://www.allentownpa.gov/,25,City of Allentown,65a603f9c769fa16f6595982,"435 Hamilton St, Allentown, PA 18101, USA"
6542a2eaa129cb65b87a03fd,WI,44.472257,-88.0262368,14156,1150,160,https://www.villageofallouezwi.gov/,47,Village of Allouez,65a603fbc769fa16f6596c8d,"1900 Libal St, Allouez, WI 54301, USA"
6542a2eaa129cb65b87a0447,MI,45.0744747,-83.4435713,10197,1740,160,https://www.alpena.mi.us/,25,City of Alpena,65a603f7c769fa16f659383c,"208 N 1st Ave #1, Alpena, MI 49707, USA"
6542a2eaa129cb65b87a0466,UT,40.4629347,-111.772437,10251,540,160,https://www.alpineut.gov,25,City of Alpine,65a603fac769fa16f6596547,"20 N Main St, Alpine, UT 84004, USA"
6542a2eaa129cb65b87a04a7,FL,28.6610215,-81.3946805,46231,950,160,http://www.altamonte.org/,25,City of Altamonte Springs,65a603f6c769fa16f6591eb3,"201-211 Newburyport Ave, Altamonte Springs, FL 32701, USA"
6542a2eaa129cb65b87a04bc,IL,38.9038978,-90.1512038,25676,1114,160,https://www.cityofaltonil.gov/,25,City of Alton,65a603f6c769fa16f6592780,"101 E 3rd St, Alton, IL 62002, USA"
6542a2eaa129cb65b87a04d0,IA,41.6463533,-93.4786108,19565,1630,160,https://www.altoona-iowa.com/,25,City of Altoona,65a603f6c769fa16f65923af,"900 Venbury Dr Suite A, Altoona, IA 50009, USA"
6542a2eaa129cb65b87a04d5,PA,40.5080517,-78.4011136,43963,2184,160,http://www.altoonapa.gov/,25,City of Altoona,65a603f9c769fa16f659597a,"1301 12th St, Altoona, PA 16601, USA"
6542a2eaa129cb65b87a04df,TX,26.288775,-98.3105809,18198,2212,160,https://www.alton-tx.gov/,25,City of Alton,65a603fac769fa16f6596327,"509 S Alton Blvd, Alton, TX 78573, USA"
6542a2eaa129cb65b87a04eb,OK,34.6570606,-99.3090458,18729,1700,160,https://www.altusok.gov/,25,City of Altus,65a603f9c769fa16f659552b,"509 S Main St, Altus, OK 73521, USA"
6542a2eaa129cb65b87a04ff,TX,29.424772,-95.2244323,27098,2272,160,http://www.alvin-tx.gov/,25,City of Alvin,65a603fac769fa16f65962c9,"216 W Sealy St, Alvin, TX 77511, USA"
6542a2eaa129cb65b87a0516,TX,35.1989213,-101.8316473,200393,3000,160,https://www.amarillo.gov,25,City of Amarillo,65a603fac769fa16f6596373,"601 S Buchanan St, Amarillo, TX 79101, USA"
6542a2eaa129cb65b87a0544,VA,37.3319271,-77.9774619,13265,,50,https://www.ameliacova.com/,6,Amelia County,65a603fac769fa16f6596672,"16360 Dunn Rd # 103, Amelia Court House, VA 23002, USA"
6542a2eaa129cb65b87a054d,CA,38.1790331,-122.2596023,21837,1640,160,https://www.americancanyon.gov,25,City of American Canyon,65a603f5c769fa16f65918d0,"4381 Broadway, American Canyon, CA 94503, USA"
6542a2eaa129cb65b87a0551,UT,40.3778768,-111.7950737,33337,1310,160,https://www.americanfork.gov/,25,City of American Fork,65a603fac769fa16f6596547,"31 Church St, American Fork, UT 84003, USA"
6542a2eaa129cb65b87a055e,IA,42.025281,-93.6210872,66427,1855,160,http://www.cityofames.org/,25,City of Ames,65a603f6c769fa16f65923df,"515 Clark Ave, Ames, IA 50010, USA"
6542a2eaa129cb65b87a0569,MA,42.8512771,-70.9557921,17366,1260,160,https://www.amesburyma.gov/,25,City of Amesbury Town,65a603f7c769fa16f65932ae,"62 Friend St, Amesbury, MA 01913, USA"
6542a2eaa129cb65b87a0570,OH,41.4053292,-82.2317251,12681,1798,160,https://amherstohio.org/,25,City of Amherst,65a603f9c769fa16f65952bf,"206 S Main St, Amherst, OH 44001, USA"
6542a2eaa129cb65b87a0583,VA,37.6293036,-79.1546672,31307,,50,http://www.countyofamherst.com,6,Amherst County,65a603fac769fa16f6596672,"153 Washington St, Amherst, VA 24521, USA"
6542a2eaa129cb65b87a05a5,MA,42.3635343,-72.5072913,39263,1370,160,https://www.amherstma.gov/,25,Town of Amherst (historical),65a603f7c769fa16f65932ae,"4 Boltwood Ave, Amherst, MA 01002, USA"
6542a2eaa129cb65b87a05bc,NY,42.9416277,-74.1905662,18219,2066,160,https://www.amsterdamny.gov/,25,City of Amsterdam,65a603f9c769fa16f6595031,"61 Church St, Amsterdam, NY 12010, USA"
6542a2eaa129cb65b87a05c4,CA,33.8555018,-117.7586572,346824,2000,160,http://www.anaheim.net/,25,City of Anaheim,65b98a2ef5107303ca83c3fd,"200 S Anaheim Blvd, Anaheim, CA 92805, USA"
6542a2eaa129cb65b87a05c5,WA,48.4887249,-122.62398,17637,1990,160,https://www.cityofanacortes.org/,25,City of Anacortes,65a603fac769fa16f659685c,"904 6th St, Anacortes, WA 98221, USA"
6542a2eaa129cb65b87a05e1,AL,31.3094363,-86.4780311,8805,1708,160,http://cityofandalusia.com,25,City of Andalusia,65a603f5c769fa16f65912c9,"505 E 3 Notch St, Andalusia, AL 36420, USA"
6542a2eaa129cb65b87a05e9,CA,40.4497548,-122.2950698,11323,2042,160,https://ci.anderson.ca.us/,25,City of Anderson,65a603f5c769fa16f6591920,"1887 Howard St, Anderson, CA 96007, USA"
6542a2eaa129cb65b87a05eb,IN,40.0897656,-85.6894485,54788,1468,160,http://www.cityofanderson.com/,25,City of Anderson,65a603f7c769fa16f65929e9,"120 E 8th St, Anderson, IN 46016, USA"
6542a2eaa129cb65b87a05f0,SC,34.5211663,-82.6473257,28106,1360,160,http://www.cityofandersonsc.com/,25,City of Anderson,6542a2eaa129cb65b87a0660,"401 S Main St, Anderson, SC 29624, USA"
6542a2eaa129cb65b87a05fa,AK,61.1742503,-149.2843294,291247,3000,160,http://www.muni.org/,37,Municipality of Anchorage,65a603f5c769fa16f65911ce,"632 W 6th Ave, Anchorage, AK 99501, USA"
6542a2eaa129cb65b87a061d,KS,37.6871655,-97.1307531,14892,1800,160,https://www.andoverks.gov,25,City of Andover,65a603f7c769fa16f6592c3b,"1609 E Central Ave, Andover, KS 67002, USA"
6542a2eaa129cb65b87a0640,TX,32.3213357,-102.5518463,13487,3216,160,https://www.cityofandrews.org/,25,City of Andrews,65a603fac769fa16f65962b9,"111 Logsdon St, Andrews, TX 79714, USA"
6542a2eaa129cb65b87a0660,SC,34.521235,-82.6386029,203718,,50,http://www.andersoncountysc.org/,6,Anderson County,6542a35ea129cb65b87b0bdc,"2404 N Main St, Anderson, SC 29621, USA"
6542a2eaa129cb65b87a0661,TX,29.1717742,-95.4293113,19429,3264,160,https://www.angleton.tx.us/,25,City of Angleton,65a603fac769fa16f65962c9,"121 S Velasco St, Angleton, TX 77515, USA"
6542a2eaa129cb65b87a067c,IA,41.728724,-93.6025211,67887,2305,160,http://www.ankenyiowa.gov,25,City of Ankeny,65a603f6c769fa16f65923af,"410 W 1st St, Ankeny, IA 50023, USA"
6542a2eaa129cb65b87a0683,MI,42.2761471,-83.7308596,123851,3000,160,https://www.a2gov.org,25,City of Ann Arbor,65a603f7c769fa16f6593893,"301 E Huron St, Ann Arbor, MI 48104, USA"
6542a2eaa129cb65b87a06a8,AL,33.6734685,-85.8108912,21564,1852,160,https://www.annistonal.gov/,25,City of Anniston,65b98e47c8974c409c5c61ce,"4309 McClellan Blvd, Anniston, AL 36201, USA"
6542a2eaa129cb65b87a06ac,MD,38.9916174,-76.5608941,588261,,50,http://www.aacounty.org/,6,Anne Arundel County,65a603f7c769fa16f65934f6,"2660 Riva Dr # 3, Annapolis, MD 21401, USA"
6542a2eaa129cb65b87a0763,VA,37.3707253,-78.8109404,16119,,50,https://www.appomattoxcountyva.gov/,6,Appomattox County,65a603fac769fa16f6596672,"153 Morton Ln, Appomattox, VA 24522, USA"
6542a2eaa129cb65b87a0782,AL,34.3323868,-86.5011665,8461,2116,160,https://www.arabcity.org,25,City of Arab,65a603f5c769fa16f65912b6,"740 N Main St, Arab, AL 35016, USA"
6542a2eca129cb65b87a07ec,AL,34.9878376,-86.8290225,1321,2260,160,http://www.townofardmorealabama.com,43,Town of Ardmore,65a603f5c769fa16f65912dd,"26494 1st St, Ardmore, AL 35739, USA"
6542a2eca129cb65b87a083e,AL,33.6910177,-86.5052809,4368,2320,160,,43,Town of Argo,65a603f5c769fa16f65912e5,"100 Blackjack Rd, Trussville, AL 35173, USA"
6542a2eca129cb65b87a084a,AZ,34.2039362,-111.6063449,7151502,,40,https://az.gov,0,Arizona,,
6542a2eca129cb65b87a087b,VA,38.8783374,-77.1007034,238643,,50,https://www.arlingtonva.us,6,Arlington County,65a603fac769fa16f6596672,"2100 Clarendon Blvd, Arlington, VA 22201, USA"
6542a2eca129cb65b87a0965,AL,31.1852844,-85.2362356,2246,2836,160,,43,Town of Ashford,65a603f5c769fa16f65912df,"525 N Broadway St, Ashford, AL 36312, USA"
6542a2eca129cb65b87a096d,NC,35.5709722,-82.5527255,94589,2140,160,https://www.ashevillenc.gov,25,City of Asheville,65a603f8c769fa16f65943a9,
6542a2eca129cb65b87a0983,AL,33.2698922,-85.8337064,1984,2860,160,,43,Town of Ashland,65a603f5c769fa16f65912ae,"83183 AL-9, Ashland, AL 36251, USA"
6542a2eca129cb65b87a09a0,VA,37.760417,-77.4724138,7565,3368,160,https://www.ashlandva.gov,43,Town of Ashland,6542a323a129cb65b87a8880,"121 Thompson St, Ashland, VA 23005, USA"
6542a2eca129cb65b87a09d4,AL,33.8351967,-86.2700148,2346,2908,160,http://www.cityofashville.org,25,City of Ashville,65a603f5c769fa16f65912e5,"211 8th St, Ashville, AL 35953, USA"
6542a2eca129cb65b87a0a18,AL,34.7790209,-86.9507986,25406,2956,160,https://athensalabama.us/,25,City of Athens,65a603f5c769fa16f65912dd,"200 W Hobbs St, Athens, AL 35611, USA"
6542a2eca129cb65b87a0a65,GA,33.7629088,-84.4226745,498715,4000,160,http://www.atlantaga.gov/,25,City of Atlanta,65a603f6c769fa16f659212d,"55 Trinity Ave SW, Atlanta, GA 30303, USA"
6542a2eca129cb65b87a0a95,AL,31.1240665,-87.4577975,8391,3004,160,http://www.cityofatmore.com/,25,City of Atmore,65a603f5c769fa16f65912e0,"201 E Louisville Ave, Atmore, AL 36502, USA"
6542a2eca129cb65b87a0ae6,AL,32.607722,-85.4895446,76143,3076,160,http://www.auburnalabama.org/,25,City of Auburn,65b98a1df5107303ca83c3e4,"144 Tichenor Ave, Auburn, AL 36830, USA"
6542a2eca129cb65b87a0b64,GA,33.3614863,-82.0749982,206607,,50,https://www.augustaga.gov,6,Richmond County,65a603f6c769fa16f65920df,"2830 Central Ave, Augusta, GA 30909, USA"
6542a2eca129cb65b87a0b78,CO,39.7036326,-104.720088,386261,4000,160,https://www.auroragov.org/,25,City of Aurora,65a603f5c769fa16f6591b0b,"15151 E Alameda Pkwy, Aurora, CO 80012, USA"
6542a2eda129cb65b87a0bd2,TX,30.3011573,-97.7526951,961855,5000,160,https://www.austintexas.gov,25,City of Austin,65a603fac769fa16f659631f,"301 W 2nd St, Austin, TX 78701, USA"
6542a2eda129cb65b87a0c7b,SC,34.0002296,-79.2071174,974,3430,160,https://www.townofaynor.net/,43,Town of Aynor,6542a329a129cb65b87a9379,"600 S Main St, Aynor, SC 29511, USA"
6542a2eda129cb65b87a0d11,CA,35.3535928,-119.0369206,403455,3526,160,http://www.bakersfieldcity.us/,25,City of Bakersfield,65a603f5c769fa16f65918bf,"1600 Truxtun Ave, Bakersfield, CA 93306, USA"
6542a2f1a129cb65b87a1261,IL,41.8942937,-87.6454546,5275541,,50,http://www.cookcountyil.gov/,6,Cook County,65a603f6c769fa16f6592747,"69 W Washington St #2220, Chicago, IL 60602, USA"
6542a2f7a129cb65b87a1bc1,CA,38.0513667,-122.7463958,262321,,50,https://www.marincounty.gov/,6,Marin County,6542a30ba129cb65b87a3f9e,"3501 Civic Center Dr # 325, San Rafael, CA 94903, USA"
6542a2f9a129cb65b87a260b,OH,39.4256625,-84.1699402,242337,,50,https://www.co.warren.oh.us/,6,Warren County,6542a34fa129cb65b87adb62,
6542a2fca129cb65b87a283c,MD,39.3000324,-76.6104761,585708,4000,160,http://www.baltimorecity.gov/,25,City of Baltimore,,"100 Holliday St, Baltimore, MD 21202, USA"
6542a2fca129cb65b87a2847,SC,33.2030211,-81.0531607,13311,,50,https://www.bambergcountysc.gov/,6,Bamberg County,6542a35ea129cb65b87b0bdc,"Bamberg, SC 29003, USA"
6542a2fca129cb65b87a293f,SC,33.2416332,-81.3661435,4652,4060,160,https://www.cityofbarnwell.com/,25,City of Barnwell,6542a2fca129cb65b87a2940,"130 Main St, Barnwell, SC 29812, USA"
6542a2fca129cb65b87a2940,SC,33.2605516,-81.4342278,20589,,50,https://www.barnwellcountysc.us/,6,Barnwell County,6542a35ea129cb65b87b0bdc,
6542a2fca129cb65b87a2aa7,AL,30.8944358,-87.7913063,8107,4660,160,https://cityofbayminetteal.gov,25,City of Bay Minette,65a603f5c769fa16f65912b3,"301 D'Olive St, Bay Minette, AL 36507, USA"
6542a2fca129cb65b87a2ad3,AL,30.407586,-88.2632709,2204,4684,160,http://cityofbayoulabatre.com,25,City of Bayou La Batre,65a603f5c769fa16f65912d1,"13785 S Wintzell Ave, Bayou La Batre, AL 36509, USA"
6542a2ffa129cb65b87a2b73,SC,32.358112,-80.6894218,187117,,50,https://www.beaufortcountysc.gov/,6,Beaufort County,6542a35ea129cb65b87b0bdc,"100 Ribaut Rd, Beaufort, SC 29902, USA"
6542a2ffa129cb65b87a2b74,SC,32.4580854,-80.7225433,13607,4690,160,https://www.cityofbeaufort.org/,25,City of Beaufort,6542a2ffa129cb65b87a2b73,"1911 Boundary St, Beaufort, SC 29902, USA"
6542a2ffa129cb65b87a2c2f,VA,37.3122568,-79.5272234,79462,,50,http://www.bedfordcountyva.gov,6,Bedford County,65a603fac769fa16f6596672,
6542a2ffa129cb65b87a2c37,VA,37.3362723,-79.517716,6657,5544,160,http://www.bedfordva.gov,43,Town of Bedford,6542a2ffa129cb65b87a2c2f,"Town of bedford muncipal Building, 215 E Main St Apt 110, Bedford, VA 24523, USA"
6542a2ffa129cb65b87a2e0a,SC,34.5233652,-82.4936177,4335,5365,160,https://cityofbeltonsc.com/,25,City of Belton,6542a2eaa129cb65b87a0660,"306 Anderson St, Belton, SC 29627, USA"
6542a2ffa129cb65b87a2e83,SC,34.628218,-79.6859584,7020,5680,160,http://www.bennettsvillesc.com/,25,City of Bennettsville,6542a33ca129cb65b87aba13,"501 E Main St, Bennettsville, SC 29512, USA"
6542a302a129cb65b87a2f50,SC,33.2077,-79.9536554,229861,,50,https://berkeleycountysc.gov,6,Berkeley County,6542a35ea129cb65b87b0bdc,"1003 US-52, Moncks Corner, SC 29461, USA"
6542a302a129cb65b87a2fcc,AL,33.6667018,-87.609311,1216,5932,160,http://townofberryalabama.org,43,Town of Berry,65a603f5c769fa16f65912bd,"30 School Ave, Berry, AL 35546, USA"
6542a302a129cb65b87a2fd9,VA,39.1499271,-77.9831876,4574,6968,160,http://www.berryvilleva.gov,43,Town of Berryville,6542a30fa129cb65b87a4bc4,"Berryville, VA 22611, USA"
6542a302a129cb65b87a300b,AL,33.3708576,-86.9715222,26019,5980,160,http://www.bessemeral.org/,25,City of Bessemer,65a603f5c769fa16f65912e2,"1700 3rd Ave N, Bessemer, AL 35020, USA"
6542a302a129cb65b87a309a,MI,42.5225426,-83.2403404,10584,8160,160,https://www.villagebeverlyhills.com/,47,Village of Beverly Hills,65a603f7c769fa16f659387e,"18500 13 Mile Rd, Beverly Hills, MI 48025, USA"
6542a302a129cb65b87a30b7,CA,34.07923,-118.4024374,32701,6308,160,https://www.beverlyhills.org/,25,City of Beverly Hills,65a603f5c769fa16f65918c8,"455 N Rexford Dr, Beverly Hills, CA 90210, USA"
6542a302a129cb65b87a3126,VA,36.8620823,-82.7769049,5254,7480,160,http://www.bigstonegap.org,43,Town of Big Stone Gap,6542a374a129cb65b87b3944,"505 E 5th St S, Big Stone Gap, VA 24219, USA"
6542a302a129cb65b87a31b6,AL,33.5271744,-86.7970356,200733,7000,160,http://www.birminghamal.gov/,25,City of Birmingham,65a603f5c769fa16f65912e2,
6542a302a129cb65b87a31e7,SC,34.22007,-80.2473698,3024,6310,160,https://cityofbishopvillesc.com/city-hall,25,City of Bishopville,6542a334a129cb65b87aa9ee,"135 E Church St, Bishopville, SC 29010, USA"
6542a302a129cb65b87a3250,VA,37.2312641,-80.4267452,44826,7784,160,https://www.blacksburg.gov,43,Town of Blacksburg,6542a343a129cb65b87ac7d5,"300 S Main St, Blacksburg, VA 24060, USA"
6542a305a129cb65b87a32d9,VA,37.1306124,-81.1258532,6270,,50,https://www.blandcountyva.gov,6,Bland County,65a603fac769fa16f6596672,"612 Main St, Bland, VA 24315, USA"
6542a305a129cb65b87a33b5,AL,34.0758377,-86.5839177,1826,7456,160,https://blountsvilleal.com,43,Town of Blountsville,65a603f5c769fa16f65912c6,"10017 Lee St W, Blountsville, AL 35031, USA"
6542a305a129cb65b87a342d,VA,37.2352251,-81.2746595,5096,8152,160,http://www.bluefieldva.org,43,Town of Bluefield,6542a368a129cb65b87b1a75,"112 Huffard Dr, Bluefield, VA 24605, USA"
6542a305a129cb65b87a3470,SC,34.2092466,-80.9952926,4772,7255,160,http://www.townofblythewoodsc.gov/,43,Town of Blythewood,6542a31ca129cb65b87a6e7d,"Hoffman House, 171 Langford Rd, Blythewood, SC 29016, USA"
6542a305a129cb65b87a3475,AL,34.1990204,-86.1551515,10107,7912,160,https://www.cityofboaz.org/,25,City of Boaz,65a603f5c769fa16f65912d0,"112 N Broad St, Boaz, AL 35957, USA"
6542a305a129cb65b87a34aa,ID,43.6002334,-116.2298,235684,8830,160,http://www.cityofboise.org/,25,City of Boise City,6542a2e8a129cb65b87a005e,"150 N Capitol Blvd, Boise, ID 83702, USA"
6542a305a129cb65b87a3597,MA,42.3385513,-71.018253,675647,7000,160,https://www.boston.gov/,25,City of Boston,65a603f7c769fa16f65932ae,"1 City Hall Square, Boston, MA 02201, USA"
6542a305a129cb65b87a35af,VA,37.5654822,-79.7975457,33596,,50,https://www.botetourtva.gov,6,Botetourt County,65a603fac769fa16f6596672,"57 S Center Dr, Daleville, VA 24083, USA"
6542a305a129cb65b87a35b8,CO,40.0245328,-105.2527552,108250,7850,160,https://bouldercolorado.gov/,25,City of Boulder,65a603f5c769fa16f6591b10,"3170 Broadway, Boulder, CO 80304, USA"
6542a306a129cb65b87a380a,AL,32.9448933,-87.1720877,2972,9136,160,http://www.cityofbrentalabama.com,25,City of Brent,65a603f5c769fa16f65912c5,
6542a306a129cb65b87a3811,AL,31.1091749,-87.0765833,5276,9208,160,http://www.cityofbrewton.org,25,City of Brewton,65a603f5c769fa16f65912e0,
6542a306a129cb65b87a3883,VA,38.3884912,-78.9644518,6596,9656,160,https://bridgewater.town,43,Town of Bridgewater,6542a359a129cb65b87af998,"201 Green St, Bridgewater, VA 22812, USA"
6542a306a129cb65b87a389d,MI,42.5297049,-83.7845453,7446,10620,160,http://www.brightoncity.org/,25,City of Brighton,65a603f7c769fa16f659386d,"200 N 1st St, Brighton, MI 48116, USA"
6542a306a129cb65b87a38c6,AL,34.0256705,-87.7690468,845,9424,160,https://brilliantal.org,43,Town of Brilliant,65b98e57c8974c409c5c61e2,"1275 Main St, Brilliant, AL 35548, USA"
6542a306a129cb65b87a38fb,VA,36.6169541,-82.1575641,17219,9816,160,https://www.bristolva.org/,25,City of Bristol,,"300 Lee St Suite 202, Bristol, VA 24201, USA"
6542a306a129cb65b87a3946,VA,38.6084852,-78.8013657,4170,10040,160,http://www.town.broadway.va.us,43,Town of Broadway,6542a359a129cb65b87af998,"116 Broadway Ave, Broadway, VA 22815, USA"
6542a306a129cb65b87a3a4b,AL,33.6346166,-86.9063142,1253,9736,160,http://www.brooksidealabama.com,43,Town of Brookside,65a603f5c769fa16f65912e2,"2711 Municipal Dr, Brookside, AL 35036, USA"
6542a306a129cb65b87a3a72,AL,33.2398424,-87.331488,2504,9808,160,,43,Town of Brookwood,65a603f5c769fa16f65912eb,"15689 AL-216, Brookwood, AL 35444, USA"
6542a307a129cb65b87a3b30,AL,31.7176386,-85.8175502,2073,10240,160,https://brundidge.org,25,City of Brundidge,65a603f5c769fa16f65912d7,"200 N Main St, Brundidge, AL 36010, USA"
6542a307a129cb65b87a3b4e,VA,36.7642043,-77.8614832,15849,,50,https://www.brunswickco.com/,6,Brunswick County,65a603fac769fa16f6596672,"228 N Main St, Lawrenceville, VA 23868, USA"
6542a307a129cb65b87a3baf,VA,37.2681198,-82.0381508,20355,,50,https://buchanancountyvirginia.gov/,6,Buchanan County,65a603fac769fa16f6596672,
6542a307a129cb65b87a3be3,VA,37.573928,-78.5291687,16824,,50,https://www.buckinghamcountyva.org/,6,Buckingham County,65a603fac769fa16f6596672,"13380 W James Anderson Hwy, Buckingham, VA 23921, USA"
6542a307a129cb65b87a3d82,SC,33.5210735,-81.8646549,3105,10270,160,https://www.burnettown.com/,43,Town of Burnettown,6542a2e8a129cb65b87a017f,
6542a30ba129cb65b87a3f4f,AL,33.1223194,-86.7456439,16494,11416,160,https://cityofcalera.org/,25,City of Calera,65a603f5c769fa16f65912e6,
6542a30ba129cb65b87a3f69,SC,33.6747804,-80.7803468,14119,,50,https://calhouncounty.sc.gov/,6,Calhoun County,6542a35ea129cb65b87b0bdc,"102 Courthouse Dr #108, St Matthews, SC 29135, USA"
6542a30ba129cb65b87a3f9e,CA,37.1551773,-119.5434183,39538223,,40,https://www.ca.gov/,0,California,,
6542a30ba129cb65b87a4059,SC,34.2589305,-80.6092024,7788,10855,160,http://www.cityofcamden.org/,25,City of Camden,6542a32fa129cb65b87a9fec,
6542a30ba129cb65b87a40d4,VA,37.2101515,-79.0954282,55696,,50,https://www.co.campbell.va.us/,6,Campbell County,65a603fac769fa16f6596672,
6542a30da129cb65b87a42da,VA,38.0280328,-77.3537363,30887,,50,http://www.co.caroline.va.us,6,Caroline County,65a603fac769fa16f6596672,"119 Ennis St, Bowling Green, VA 22427, USA"
6542a30da129cb65b87a4312,VA,36.7319632,-80.7278307,29155,,50,https://carrollcountyva.gov/,6,Carroll County,65a603fac769fa16f6596672,"605-1 Pine St, Hillsville, VA 24343, USA"
6542a30da129cb65b87a447f,AL,31.2996776,-87.0291292,486,12496,160,http://townofberryalabama.org,43,Town of Castleberry,65a603f5c769fa16f65912c8,"1738 E Cleveland Ave, Castleberry, AL 36432, USA"
6542a30da129cb65b87a4505,SC,33.9504976,-81.0398065,13781,12655,160,https://www.cityofcayce-sc.gov/,25,City of Cayce,6542a336a129cb65b87aac22,"1800 12th St, Cayce, SC 29033, USA"
6542a30da129cb65b87a4531,AL,34.2214223,-85.5885654,1845,12760,160,http://www.cedarbluff-al.org,43,Town of Cedar Bluff,65b98e58c8974c409c5c61e4,"3420 Spring St, Cedar Bluff, AL 35959, USA"
6542a30da129cb65b87a45da,AL,33.6439031,-86.6845668,16406,13264,160,https://www.cityofcenterpoint.org/,25,City of Center Point,65a603f5c769fa16f65912e2,"2209 Center Point Pkwy, Center Point, AL 35215, USA"
6542a30ea129cb65b87a46c6,SC,34.723733,-82.7796537,5247,13015,160,http://www.cityofcentral.org/,43,Town of Central,6542a355a129cb65b87ae783,"1067 W Main St, Central, SC 29630, USA"
6542a30ea129cb65b87a46ca,AL,34.1530593,-85.6716834,3587,13648,160,http://www.cityofcentre.com,25,City of Centre,65b98e58c8974c409c5c61e4,"401 E Main St, Centre, AL 35960, USA"
6542a30ea129cb65b87a46e1,AL,32.958967,-87.1320431,2800,13672,160,http://www.cityofcentre.com,25,City of Centreville,65a603f5c769fa16f65912c5,"1270 Walnut St, Centreville, AL 35042, USA"
6542a30ea129cb65b87a475b,AZ,33.2827655,-111.8518187,275987,12000,160,http://www.chandleraz.gov,25,City of Chandler,6542a33ca129cb65b87ab927,"175 S Arizona Ave, Chandler, AZ 85225, USA"
6542a30ea129cb65b87a478e,SC,34.1652505,-81.3393417,1809,13150,160,http://www.chapinsc.com/,43,Town of Chapin,6542a336a129cb65b87aac22,"157 Columbia Ave, Chapin, SC 29036, USA"
6542a30ea129cb65b87a47bc,VA,37.3610537,-77.05417,6773,,50,https://www.charlescityva.us/,6,Charles City County,65a603fac769fa16f6596672,"Government and school board administartion building, 10900 Courthouse Rd, Charles City, VA 23030, USA"
6542a30ea129cb65b87a47ca,SC,32.828017,-79.9728961,150227,13330,160,https://www.charleston-sc.gov/,25,City of Charleston,6542a30ea129cb65b87a47d5,"80 Broad St, Charleston, SC 29401, USA"
6542a30ea129cb65b87a47d5,SC,32.8004582,-79.94248,408235,,50,http://www.charlestoncounty.org/,6,Charleston County,6542a35ea129cb65b87b0bdc,"4045 Bridge View Dr, North Charleston, SC 29405, USA"
6542a30ea129cb65b87a4816,VA,38.0376579,-78.4853806,46553,14968,160,https://www.charlottesville.gov/,25,City of Charlottesville,,"605 E Main St, Charlottesville, VA 22902, USA"
6542a30ea129cb65b87a481c,VA,37.0090421,-78.6585682,11529,,50,https://www.charlottecountyva.gov/,6,Charlotte County,65a603fac769fa16f6596672,"250 Legrande Ave A, Charlotte Court House, VA 23923, USA"
6542a30ea129cb65b87a4858,AL,31.4691454,-88.2460188,1104,14008,160,https://chatom.org,43,Town of Chatom,65b98a36f5107303ca83c405,"44 W Front St, Chatom, AL 36518, USA"
6542a30ea129cb65b87a489a,AL,33.326887,-86.6295188,14982,14104,160,https://www.cityofchelsea.com/,25,City of Chelsea,65a603f5c769fa16f65912e6,"11611 Chelsea Rd, Chelsea, AL 35043, USA"
6542a30ea129cb65b87a48ca,SC,34.6978945,-79.9139687,5040,13600,160,http://www.cheraw.com/,43,Town of Cheraw,6542a30ea129cb65b87a4983,"200 Market St, Cheraw, SC 29520, USA"
6542a30ea129cb65b87a48db,SC,35.0497962,-81.6076469,56216,,50,http://cherokeecountysc.gov/,6,Cherokee County,6542a35ea129cb65b87b0bdc,"110 Railroad Ave, Gaffney, SC 29340, USA"
6542a30ea129cb65b87a491b,VA,36.6793761,-76.3017884,249422,16000,160,http://www.cityofchesapeake.net,25,City of Chesapeake,,"306 Cedar Rd, Chesapeake, VA 23322, USA"
6542a30ea129cb65b87a4949,SC,34.7050202,-81.2132076,5269,14095,160,http://www.chestersc.org/,25,City of Chester,6542a30ea129cb65b87a494e,"100 West End St, Chester, SC 29706, USA"
6542a30ea129cb65b87a494e,SC,34.6893424,-81.1612488,32294,,50,https://www.chestercountysc.gov/,6,Chester County,6542a35ea129cb65b87b0bdc,"1476 J A Cochran Bypass, Chester, SC 29706, USA"
6542a30ea129cb65b87a4983,SC,34.6370178,-80.1592269,43273,,50,http://www.chesterfieldcountysc.com/,6,Chesterfield County,6542a35ea129cb65b87b0bdc,"178 W Main St, Chesterfield, SC 29709, USA"
6542a30ea129cb65b87a4984,VA,37.3784338,-77.5858474,364548,,50,http://www.chesterfield.gov/,6,Chesterfield County,65a603fac769fa16f6596672,"9901 Lori Rd, Chesterfield, VA 23832, USA"
6542a30ea129cb65b87a498a,SC,34.7329682,-80.0779075,1357,14140,160,https://www.chesterfield-sc.com/,43,Town of Chesterfield,6542a30ea129cb65b87a4983,"112 Main St, Chesterfield, SC 29709, USA"
6542a30ea129cb65b87a49dc,IL,41.8370453,-87.6849386,2746388,14000,160,https://www.chicago.gov,25,City of Chicago,65a603f6c769fa16f6592761,"121 N La Salle St # 107, Chicago, IL 60602, USA"
6542a30ea129cb65b87a4a08,AL,33.2925489,-86.3408438,4754,14464,160,http://www.childersburg.org,25,City of Childersburg,65a603f5c769fa16f65912e9,
6542a30fa129cb65b87a4a32,AL,30.7714495,-88.0796971,6457,14392,160,https://cityofchickasaw.org,25,City of Chickasaw,65a603f5c769fa16f65912d1,
6542a30fa129cb65b87a4a9d,VA,37.1406627,-80.4045125,23348,16608,160,https://www.christiansburg.org/,43,Town of Christiansburg,6542a343a129cb65b87ac7d5,"100 E Main St, Christiansburg, VA 24073, USA"
6542a30fa129cb65b87a4af8,OH,39.140183,-84.5058289,309317,15000,160,http://www.cincinnati-oh.gov,25,City of Cincinnati,6542a323a129cb65b87a876f,"801 Plum St, Cincinnati, OH 45202, USA"
6542a30fa129cb65b87a4b18,AL,31.0972688,-88.2498429,3946,15064,160,http://cityofcitronelle.com,25,City of Citronelle,65a603f5c769fa16f65912d1,"19135 Main St, Citronelle, AL 36522, USA"
6542a30fa129cb65b87a4b2e,AL,32.8455725,-86.6194937,8768,15136,160,https://www.clantonal.gov/,25,City of Clanton,65a603f5c769fa16f65912ab,"505 2nd Ave N, Clanton, AL 35045, USA"
6542a30fa129cb65b87a4b79,SC,33.6646821,-80.2178886,31144,,50,http://www.clarendoncountygov.org/,6,Clarendon County,6542a35ea129cb65b87b0bdc,
6542a30fa129cb65b87a4bc4,VA,39.1153068,-77.9907479,14783,,50,https://www.clarkecounty.gov/,6,Clarke County,65a603fac769fa16f6596672,"101 Chalmers Ct # B, Berryville, VA 22611, USA"
6542a30fa129cb65b87a4c42,AL,33.6965832,-86.6081819,10291,15256,160,https://clayalabama.org/,25,City of Clay,65a603f5c769fa16f65912e2,"2441 Old Springville Rd, Birmingham, AL 35215, USA"
6542a30fa129cb65b87a4c93,AL,31.236925,-85.7214778,466,15304,160,https://clayalabama.org,43,Town of Clayhatchee,65a603f5c769fa16f65912b7,"Daleville, AL 36322, USA"
6542a30fa129cb65b87a4cb2,AL,31.8822767,-85.4604536,2265,15376,160,https://clayalabama.org,43,Town of Clayton,65a603f5c769fa16f65912c4,"45 Reed Ave, Clayton, AL 36016, USA"
6542a30fa129cb65b87a4d5b,SC,34.6838262,-82.8124067,17681,14950,160,https://clemsoncity.org/,25,City of Clemson,6542a2eaa129cb65b87a0660,"1250 Tiger Blvd # 1, Clemson, SC 29631, USA"
6542a312a129cb65b87a4e39,SC,34.4781713,-81.8629675,7633,15295,160,http://www.cityofclintonsc.com/,25,City of Clinton,6542a334a129cb65b87aa896,"211 N Broad St A, Clinton, SC 29325, USA"
6542a312a129cb65b87a4ebc,SC,35.1135755,-81.219813,6671,15355,160,http://www.cloversc.org,43,Town of Clover,6542a375a129cb65b87b3cd2,
6542a312a129cb65b87a4f60,GA,33.9399286,-84.5741213,766149,,50,http://www.cobbcounty.org,6,Cobb County,65a603f6c769fa16f65920df,"1792 County Services Pkwy, Marietta, GA 30008, USA"
6542a312a129cb65b87a4fda,AL,33.2437518,-87.6813292,904,16312,160,http://townofcoker.com,43,Town of Coker,65a603f5c769fa16f65912eb,"11549 Eisenhower Dr, Coker, AL 35452, USA"
6542a312a129cb65b87a509a,SC,32.8350184,-80.6552438,38604,,50,http://www.colletoncounty.org,6,Colleton County,6542a35ea129cb65b87b0bdc,"109 Benson St, Walterboro, SC 29488, USA"
6542a312a129cb65b87a50f7,VA,38.2644068,-76.9937289,3908,18400,160,http://www.colonialbeachva.net,43,Town of Colonial Beach,6542a370a129cb65b87b32e8,"315 Douglas Ave, Colonial Beach, VA 22443, USA"
6542a312a129cb65b87a510c,CO,38.9937669,-105.5087122,5773714,,40,https://co.colorado.gov/,0,Colorado,,
6542a312a129cb65b87a5112,CO,38.8672553,-104.760749,478961,16000,160,https://coloradosprings.gov/,25,City of Colorado Springs,65a603f5c769fa16f6591b1e,"107 N Nevada Ave # 300, Colorado Springs, CO 80903, USA"
6542a312a129cb65b87a5136,SC,34.0405186,-80.9060995,136632,16000,160,https://columbiasc.gov/,25,City of Columbia,6542a336a129cb65b87aac22,"1737 Main St, Columbia, SC 29201, USA"
6542a312a129cb65b87a5181,GA,32.510197,-84.874946,206922,19000,160,https://www.columbusga.gov,25,City of Columbus,65a603f6c769fa16f6592149,"Schwob School of Music, 100 E 10th St, Columbus, GA 31901, USA"
6542a312a129cb65b87a5198,OH,39.9855308,-82.985594,905748,18000,160,https://www.columbus.gov,25,City of Columbus,65a603f9c769fa16f65952e2,"90 W Broad St, Columbus, OH 43215, USA"
6542a313a129cb65b87a52f9,SC,33.8386652,-79.042966,24849,16405,160,https://www.conwaysc.gov/,25,City of Conway,6542a329a129cb65b87a9379,"229 N Main St, Conway, SC 29526, USA"
6542a313a129cb65b87a54da,AL,31.0540333,-85.2995597,1048,17824,160,http://www.cottonwoodalabama.com,43,Town of Cottonwood,65a603f5c769fa16f65912df,"12769 Cottonwood Rd, Cottonwood, AL 36320, USA"
6542a313a129cb65b87a5517,AL,33.8207245,-86.7194667,311,17968,160,http://mycountyline.org,43,Town of County Line,65a603f5c769fa16f65912c6,
6542a313a129cb65b87a555c,VA,37.7810603,-79.9854337,5737,19728,160,https://covington.va.us,25,City of Covington,,
6542a313a129cb65b87a558b,SC,35.0186168,-81.8041208,2023,17260,160,https://www.townofcowpens.com/,43,Town of Cowpens,6542a35fa129cb65b87b0ddd,"5332 N Main St, Cowpens, SC 29330, USA"
6542a313a129cb65b87a55b2,VA,37.4736031,-80.2310507,4892,,50,http://craigcountyva.gov,6,Craig County,65a603fac769fa16f6596672,
6542a314a129cb65b87a565b,AL,31.7303106,-86.3200384,13194,,50,https://www.crenshawcountyalonline.com/,6,Crenshaw County,6542a2e8a129cb65b87a01bd,"29 S Glenwood Ave # 202, Luverne, AL 36049, USA"
6542a314a129cb65b87a56a1,AL,30.8742491,-88.0095357,1936,18304,160,http://www.cityofcreola.org,25,City of Creola,65a603f5c769fa16f65912d1,"9615 Old Hwy 43, Creola, AL 36525, USA"
6542a314a129cb65b87a5735,AL,34.2826972,-85.9997368,1830,18856,160,https://crossvillealabama.com,43,Town of Crossville,65a603f5c769fa16f65912b9,"14521 AL-68, Crossville, AL 35962, USA"
6542a314a129cb65b87a57d2,AL,34.1768698,-86.8406556,18213,18976,160,https://cullmanal.gov/,25,City of Cullman,65a603f5c769fa16f65912b6,"204 2nd Ave NE, Cullman, AL 35055, USA"
6542a314a129cb65b87a57db,VA,38.4859303,-77.9564758,52552,,50,https://web.culpepercounty.gov/,6,Culpeper County,65a603fac769fa16f6596672,"1014 S Main St, Culpeper, VA 22701, USA"
6542a314a129cb65b87a57dc,VA,38.4702917,-77.9997639,20062,20752,160,https://www.culpeperva.gov/,43,Town of Culpeper,6542a314a129cb65b87a57db,"400 S Main St #105, Culpeper, VA 22701, USA"
6542a314a129cb65b87a58d3,AL,32.8261139,-85.7762009,3084,19336,160,https://cityofdadevilleal.org,25,City of Dadeville,65a603f5c769fa16f65912e8,"216 S Broadnax St, Dadeville, AL 36853, USA"
6542a314a129cb65b87a58ff,AL,31.2915332,-85.7117111,4866,19360,160,http://www.dalevilleal.com/,25,City of Daleville,65a603f5c769fa16f65912b7,"740 S Daleville Ave, Daleville, AL 36322, USA"
6542a314a129cb65b87a590e,TX,32.7933334,-96.7665128,1304379,19000,160,https://dallascityhall.com,25,City of Dallas,65a603fac769fa16f65962f2,
6542a315a129cb65b87a59c1,MA,42.5741744,-70.9505165,28087,16250,60,https://www.danversma.gov/,43,Town of Danvers,,"1 Sylvan St, Danvers, MA 01923, USA"
6542a315a129cb65b87a59ca,VA,36.5833337,-79.4080707,42590,21344,160,http://www.danville-va.gov,25,City of Danville,,
6542a315a129cb65b87a59ee,AL,30.6277019,-87.8839916,27462,19648,160,http://www.daphneal.com,25,City of Daphne,65a603f5c769fa16f65912b3,"1705 Main St, Daphne, AL 36526, USA"
6542a315a129cb65b87a5a24,SC,34.3014136,-79.8669831,6149,18565,160,https://www.cityofdarlington.com/,25,City of Darlington,6542a315a129cb65b87a5a2f,"400 Pearl St, Darlington, SC 29532, USA"
6542a315a129cb65b87a5a2f,SC,34.3321854,-79.9621155,62905,,50,http://www.darcosc.com/,6,Darlington County,6542a35ea129cb65b87b0bdc,"1 Public Square #210, Darlington, SC 29532, USA"
6542a315a129cb65b87a5a4c,AL,30.2509134,-88.1712682,1778,19744,160,http://www.townofdauphinisland.org,43,Town of Dauphin Island,65a603f5c769fa16f65912d1,"1011 Bienville Blvd, Dauphin Island, AL 36528, USA"
6542a315a129cb65b87a5a50,IA,41.5568204,-90.6039479,101724,19000,160,https://www.davenportiowa.com/,25,City of Davenport,65a603f6c769fa16f65923d9,"226 W 4th St, Davenport, IA 52801, USA"
6542a315a129cb65b87a5b85,AL,34.5729952,-86.9899008,57938,20104,160,http://www.cityofdecatural.com,25,City of Decatur,65a603f5c769fa16f65912dd,"402 Lee St NE, Decatur, AL 35601, USA"
6542a315a129cb65b87a5d5c,AL,32.4997443,-87.826678,7162,20296,160,https://demopolisal.gov,25,City of Demopolis,65a603f5c769fa16f65912cf,"211 N Walnut Ave, Demopolis, AL 36732, USA"
6542a316a129cb65b87a5dae,CO,39.7618502,-104.8811054,715522,20000,160,https://denvergov.org/,25,City of Denver,65a603f5c769fa16f6591b19,"1437 Bannock St, Denver, CO 80202, USA"
6542a316a129cb65b87a5e0a,IA,41.5725898,-93.6102428,214133,21000,160,https://www.dsm.city/,25,City of Des Moines,65a603f6c769fa16f65923af,"400 Robert D. Ray Dr, Des Moines, IA 50309, USA"
6542a316a129cb65b87a5e2d,MI,42.3830375,-83.1022365,639111,22000,160,https://detroitmi.gov/,25,City of Detroit,65a603f7c769fa16f6593892,"2 Woodward Ave #1340, Detroit, MI 48226, USA"
6542a316a129cb65b87a5eb8,VA,37.1367011,-82.3492199,14124,,50,https://www.dickensonva.org/,6,Dickenson County,65a603fac769fa16f6596672,"818 Happy Valley Dr, Clintwood, VA 24228, USA"
6542a316a129cb65b87a5eef,SC,34.4245181,-79.3675387,6384,19420,160,http://www.cityofdillonsc.us,25,City of Dillon,6542a316a129cb65b87a5ef1,"501 S 1st Ave, Dillon, SC 29536, USA"
6542a316a129cb65b87a5ef1,SC,34.3901723,-79.3749638,28292,,50,https://www.dilloncountysc.org/,6,Dillon County,6542a35ea129cb65b87b0bdc,"109 S 3rd Ave, Dillon, SC 29536, USA"
6542a316a129cb65b87a5f1a,VA,37.0734984,-77.6354922,27947,,50,http://www.dinwiddieva.us,6,Dinwiddie County,65a603fac769fa16f6596672,"14010 Boydton Plank Rd, Dinwiddie, VA 23841, USA"
6542a316a129cb65b87a5fee,AL,33.7281156,-87.0812917,2297,21136,160,https://cityofdora.com,25,City of Dora,65a603f5c769fa16f65912ea,"Dora Municipal Park, 1445 Sharon Blvd, Dora, AL 35062, USA"
6542a316a129cb65b87a6000,SC,33.0821859,-80.4046966,161540,,50,https://www.dorchestercountysc.gov/,6,Dorchester County,6542a35ea129cb65b87b0bdc,"201 Johnston St, St George, SC 29477, USA"
6542a316a129cb65b87a6020,AL,31.2336983,-85.4068225,71072,21184,160,http://www.dothan.org,25,City of Dothan,65a603f5c769fa16f65912df,"126 N St Andrews St, Dothan, AL 36303, USA"
6542a316a129cb65b87a6028,AL,34.1496478,-87.3894471,1119,21280,160,https://townofdoublesprings.municipalimpact.com,43,Town of Double Springs,65a603f5c769fa16f65912ec,"21 Main St, Double Springs, AL 35553, USA"
6542a316a129cb65b87a603e,GA,33.7012421,-84.7673139,144237,,50,https://www.douglascountyga.gov/,6,Douglas County,65a603f6c769fa16f65920df,"8700 Hospital Dr, Douglasville, GA 30134, USA"
6542a316a129cb65b87a6062,AL,34.1682576,-86.3233857,761,21328,160,http://www.douglasal.com,43,Town of Douglas,65a603f5c769fa16f65912d0,"64 AL-168, Horton, AL 35980, USA"
6542a317a129cb65b87a61cf,SC,34.3347734,-82.3903301,1219,21040,160,https://duewestsc.com/,43,Town of Due West,65a603fac769fa16f6595c6a,"103 N Main St, Due West, SC 29639, USA"
6542a317a129cb65b87a61eb,VA,38.5673478,-77.3224211,5679,23760,160,http://www.dumfriesva.gov,43,Town of Dumfries,65a603fac769fa16f65966bc,"17735 Dumfries Rd, Dumfries, VA 22026, USA"
6542a317a129cb65b87a6220,SC,34.9324263,-82.1436879,4041,21265,160,https://www.townofduncansc.com/,43,Town of Duncan,6542a35fa129cb65b87b0ddd,"153 W Main St, Duncan, SC 29334, USA"
6542a317a129cb65b87a62d9,NC,35.9800505,-78.9009765,283506,19000,160,https://www.durhamnc.gov,25,City of Durham,65a603f8c769fa16f65943b4,"101 City Hall Plaza, Durham, NC 27701, USA"
6542a317a129cb65b87a63b2,SC,34.8173327,-82.5844118,22921,21985,160,https://www.cityofeasley.com/,25,City of Easley,6542a355a129cb65b87ae783,"205 N 1st St, Easley, SC 29640, USA"
6542a317a129cb65b87a63dd,AL,31.0914404,-87.055345,2293,22216,160,http://www.cityofbrewton.org,25,City of East Brewton,65a603f5c769fa16f65912e0,
6542a317a129cb65b87a6486,MI,42.7489125,-84.4824417,47741,24120,160,http://www.cityofeastlansing.com/,25,City of East Lansing,65a603f7c769fa16f6593851,"410 Abbot Rd, East Lansing, MI 48823, USA"
6542a318a129cb65b87a65d9,AL,32.6402222,-86.0410625,1193,22816,160,http://www.townofeclectic.com,43,Town of Eclectic,6542a31ba129cb65b87a6a23,"145 Main St, Eclectic, AL 36024, USA"
6542a318a129cb65b87a6674,SC,33.7764976,-81.9682452,25657,,50,http://www.edgefieldcounty.sc.gov/,6,Edgefield County,6542a35ea129cb65b87b0bdc,"124 Courthouse Square, Edgefield, SC 29824, USA"
6542a318a129cb65b87a6675,SC,33.7871898,-81.9280399,2322,22795,160,https://edgefieldcounty.sc.gov/,43,Town of Edgefield,6542a318a129cb65b87a6674,"402 Main St, Edgefield, SC 29824, USA"
6542a318a129cb65b87a66c7,SC,32.4987191,-80.3134875,1033,23020,160,http://www.townofedistobeach.com/,43,Town of Edisto Beach,6542a312a129cb65b87a509a,"2414 Murray St, Edisto Island, SC 29438, USA"
6542a318a129cb65b87a676f,TX,31.8477804,-106.4311055,678815,24000,160,http://www.elpasotexas.gov/,25,City of El Paso,65a603fac769fa16f6596315,"300 N Campbell St, El Paso, TX 79901, USA"
6542a318a129cb65b87a6792,AL,31.417218,-86.0771151,3508,23296,160,https://www.elbaal.gov,25,City of Elba,65a603f5c769fa16f65912b1,"200 Buford St, Elba, AL 36323, USA"
6542a31ba129cb65b87a6a23,AL,32.597229,-86.1427347,87977,,50,http://www.elmoreco.org/,6,Elmore County,6542a2e8a129cb65b87a01bd,"8917 US-231 Suite 600, Wetumpka, AL 36092, USA"
6542a31ba129cb65b87a6b3f,VA,36.696182,-77.5359753,5766,25808,160,http://www.ci.emporia.va.us,25,City of Emporia,,"201 S Main St, Emporia, VA 23847, USA"
6542a31ba129cb65b87a6bb2,AL,31.3268985,-85.8440213,28711,24184,160,https://www.enterpriseal.gov/,25,City of Enterprise,65a603f5c769fa16f65912b7,"501 S Main St, Enterprise, AL 36330, USA"
6542a31ba129cb65b87a6c69,VA,37.936389,-76.9337475,10599,,50,https://www.essexva.gov,6,Essex County,65a603fac769fa16f6596672,"202 S Church Ln, Tappahannock, VA 22560, USA"
6542a31ba129cb65b87a6c9c,SC,32.7538609,-81.241189,1821,23830,160,https://townofestill.sc.gov/,43,Town of Estill,65a603fac769fa16f6595c83,"Estill, SC 29918, USA"
6542a31ba129cb65b87a6cea,AL,31.9099374,-85.1527087,12882,24568,160,https://www.eufaulaalabama.com/,25,City of Eufaula,65a603f5c769fa16f65912c4,"205 E Barbour St, Eufaula, AL 36027, USA"
6542a31ba129cb65b87a6d3e,IL,42.0463909,-87.6943525,78110,24582,160,http://www.cityofevanston.org/,25,City of Evanston,6542a2f1a129cb65b87a1261,"2100 Ridge Ave, Evanston, IL 60201, USA"
6542a31ca129cb65b87a6e43,VA,38.8531833,-77.2990252,24146,26496,160,https://www.fairfaxva.gov/,25,City of Fairfax,,"10455 Armstrong St, Fairfax, VA 22030, USA"
6542a31ca129cb65b87a6e46,VA,38.8295203,-77.2732524,1150309,,50,http://www.fairfaxcounty.gov,6,Fairfax County,65a603fac769fa16f6596672,
6542a31ca129cb65b87a6e5e,AL,33.4747785,-86.9194129,10000,25120,160,https://cityoffairfieldal.org/,25,City of Fairfield,65a603f5c769fa16f65912e2,"4701 Gary Ave, Fairfield, AL 35064, USA"
6542a31ca129cb65b87a6e7d,SC,34.3956685,-81.1270007,20948,,50,https://www.fairfieldsc.com/,6,Fairfield County,6542a35ea129cb65b87b0bdc,"350 Columbia Rd, Winnsboro, SC 29180, USA"
6542a31ca129cb65b87a6eab,AL,30.52092,-87.879122,22477,25240,160,http://www.fairhopeal.gov,25,City of Fairhope,65a603f5c769fa16f65912b3,"161 N Section St, Fairhope, AL 36532, USA"
6542a31ca129cb65b87a6f8a,VA,38.884722,-77.1756027,14658,27200,160,https://fallschurchva.gov/,25,City of Falls Church,,
6542a31ca129cb65b87a704e,VA,37.2961154,-78.4004468,7473,27440,160,http://www.FarmvilleVA.com,43,Town of Farmville,65a603fac769fa16f659668c,"116 N Main St, Farmville, VA 23901, USA"
6542a31ca129cb65b87a7072,VA,38.7440956,-77.8215005,72972,,50,http://www.fauquiercounty.gov,6,Fauquier County,65a603fac769fa16f6596672,"10 Hotel St, Warrenton, VA 20186, USA"
6542a31ca129cb65b87a7081,AL,33.6942153,-87.831169,4285,25840,160,http://fayetteal.org,25,City of Fayette,65a603f5c769fa16f65912bd,"203 Temple Ave N, Fayette, AL 35555, USA"
6542a31ca129cb65b87a70f2,MI,42.8302525,-83.7517388,16843,27780,60,https://www.fentontownship.org/,49,Charter Township of Fenton,65a603f7c769fa16f6593858,"16199 Grandview Dr, Fenton, MI 48430, USA"
6542a31da129cb65b87a71f6,WI,42.9857823,-89.4253343,29609,25950,160,http://www.fitchburgwi.gov/,25,City of Fitchburg,65a603fbc769fa16f6596c8f,"5520 Lacy Rd, Fitchburg, WI 53711, USA"
6542a31da129cb65b87a7291,AL,34.8303226,-87.6661386,40184,26896,160,https://florenceal.org,25,City of Florence,65a603f5c769fa16f65912da,"110 W College St, Florence, AL 35630, USA"
6542a31da129cb65b87a72a8,SC,34.1779101,-79.7901041,39899,25810,160,https://www.cityofflorence.com/,25,City of Florence,6542a31da129cb65b87a72b2,"4308 Khale Street, Florence, SC 29501, USA"
6542a31da129cb65b87a72b2,SC,34.0285346,-79.7102329,137059,,50,https://www.florenceco.org/,6,Florence County,6542a35ea129cb65b87b0bdc,"180 N Irby St, Florence, SC 29501, USA"
6542a31da129cb65b87a72c6,FL,28.3989775,-82.5143005,21538187,,40,https://www.myflorida.com/,0,Florida,,
6542a31da129cb65b87a72f2,VA,36.9314331,-80.3502662,15476,,50,https://www.floydcova.gov/,6,Floyd County,65a603fac769fa16f6596672,"202 E Main St upper level, Floyd, VA 24091, USA"
6542a31da129cb65b87a7307,AL,30.3970092,-87.6642111,20335,26992,160,https://cityoffoley.org,25,City of Foley,65a603f5c769fa16f65912b3,"407 E Laurel Ave, Foley, AL 36535, USA"
6542a31da129cb65b87a7314,SC,32.6692835,-79.9605766,2078,26035,160,https://www.cityoffollybeach.com/,25,City of Folly Beach,6542a30ea129cb65b87a47d5,
6542a31da129cb65b87a731e,VA,37.830584,-78.2834938,27249,,50,http://www.fluvannacounty.org,6,Fluvanna County,65a603fac769fa16f6596672,
6542a31da129cb65b87a737f,SC,34.0331199,-80.9731603,10617,26305,160,https://www.forestacres.net/,25,City of Forest Acres,6542a358a129cb65b87af59c,"5209 N Trenholm Rd, Columbia, SC 29206, USA"
6542a31da129cb65b87a7415,NC,36.1324661,-80.2569608,382590,,50,http://www.forsyth.cc,6,Forsyth County,65a603f8c769fa16f659439e,"201 N Chestnut St, Winston-Salem, NC 27101, USA"
6542a31da129cb65b87a7465,SC,35.0059974,-80.9400001,24521,26890,160,https://fortmillsc.gov/,43,Town of Fort Mill,6542a375a129cb65b87b3cd2,"200 Tom Hall St, Fort Mill, SC 29715, USA"
6542a31da129cb65b87a7472,AL,34.4573293,-85.6894469,14877,27616,160,https://fortpayne.org/,25,City of Fort Payne,65a603f5c769fa16f65912b9,"200 Gault Ave S #1, Fort Payne, AL 35967, USA"
6542a31da129cb65b87a74af,TX,32.7815183,-97.346746,918915,27000,160,https://www.fortworthtexas.gov,25,City of Fort Worth,65a603fac769fa16f659636e,"200 Texas St, Fort Worth, TX 76102, USA"
6542a31fa129cb65b87a751b,SC,34.6987778,-82.2013495,10416,27070,160,https://www.fountaininn.org/,25,City of Fountain Inn,6542a334a129cb65b87aa896,"200 N Main St, Fountain Inn, SC 29644, USA"
6542a31fa129cb65b87a759d,MI,43.3328316,-83.7391291,4987,30200,160,http://www.frankenmuthcity.com/,25,City of Frankenmuth,65a603f7c769fa16f659388b,"240 W Genesee St, Frankenmuth, MI 48734, USA"
6542a31fa129cb65b87a7600,VA,36.6840142,-76.9413956,8180,29600,160,http://www.franklinva.com,25,City of Franklin,,"207 W 2nd Ave, Franklin, VA 23851, USA"
6542a31fa129cb65b87a762a,VA,36.9911862,-79.8827149,54477,,50,http://www.franklincountyva.gov,6,Franklin County,65a603fac769fa16f6596672,"1255 Franklin St, Rocky Mount, VA 24151, USA"
6542a31fa129cb65b87a76e8,VA,39.2036601,-78.2638291,91419,,50,http://www.fcva.us,6,Frederick County,65a603fac769fa16f6596672,"107 N Kent St, Winchester, VA 22601, USA"
6542a31fa129cb65b87a76f5,VA,38.2992718,-77.4866583,27982,29744,160,http://www.fredericksburgva.gov,25,City of Fredericksburg,,"715 Princess Anne St, Fredericksburg, VA 22401, USA"
6542a31fa129cb65b87a7817,TX,33.1554266,-96.8225959,200509,27684,160,http://www.friscotexas.gov,25,City of Frisco,65a603fac769fa16f65962e2,"6101 Frisco Square Blvd, Frisco, TX 75034, USA"
6542a31fa129cb65b87a783c,VA,38.9249525,-78.1834257,15011,29968,160,https://www.frontroyalva.com/,43,Town of Front Royal,6542a36da129cb65b87b2a9b,"102 E Main St, Front Royal, VA 22630, USA"
6542a31fa129cb65b87a7896,AL,33.617363,-86.8014361,9876,28552,160,https://fultondale.com,25,City of Fultondale,65a603f5c769fa16f65912e2,"1210 Old Walker Chapel Rd, Fultondale, AL 35068, USA"
6542a31fa129cb65b87a78bc,AL,34.4489572,-85.905167,967,28672,160,,43,Town of Fyffe,65a603f5c769fa16f65912b9,"514 Campbell St, Fyffe, AL 35971, USA"
6542a31fa129cb65b87a78c4,AL,34.0065967,-86.0160783,33945,28696,160,http://www.cityofgadsden.com,25,City of Gadsden,65a603f5c769fa16f65912bc,"90 Broad St, Gadsden, AL 35901, USA"
6542a31fa129cb65b87a78db,FL,29.6806943,-82.3491748,141085,25175,160,https://www.gainesvillefl.gov/,25,City of Gainesville,65a603f6c769fa16f6591e70,"200 E University Ave, Gainesville, FL 32601, USA"
6542a31fa129cb65b87a78f7,VA,36.6656397,-80.9143083,6720,30208,160,http://www.galaxva.com,25,City of Galax,,
6542a320a129cb65b87a79cb,AL,33.6765865,-86.8098439,16044,29056,160,https://www.cityofgardendale.com/,25,City of Gardendale,65a603f5c769fa16f65912e2,"925 Main St, Gardendale, AL 35071, USA"
6542a320a129cb65b87a7aae,SC,33.8179679,-81.0997489,1608,28780,160,http://gastonsc.org,43,Town of Gaston,6542a336a129cb65b87aac22,"131 N Carlisle St, Gaston, SC 29053, USA"
6542a320a129cb65b87a7abe,NC,35.2933443,-81.1772556,227943,,50,https://gastongov.com,6,Gaston County,65a603f8c769fa16f659439e,"128 W Main Ave, Gastonia, NC 28052, USA"
6542a320a129cb65b87a7b29,AL,31.0448857,-85.876818,4245,29464,160,https://www.genevaal.gov,25,City of Geneva,65a603f5c769fa16f65912bf,"517 S Commerce St, Geneva, AL 36340, USA"
6542a320a129cb65b87a7ba2,SC,33.4175309,-79.2963325,63404,,50,https://www.gtcounty.org/,6,Georgetown County,6542a35ea129cb65b87b0bdc,"716 Prince St, Georgetown, SC 29440, USA"
6542a320a129cb65b87a7c9a,VA,37.3180719,-80.698321,16787,,50,https://virginiasmtnplayground.com/,6,Giles County,65a603fac769fa16f6596672,"203 N Main St, Pearisburg, VA 24134, USA"
6542a321a129cb65b87a7dbc,AL,33.9483393,-85.9336056,5372,29992,160,https://cityofglencoe.org/,25,City of Glencoe,65a603f5c769fa16f65912bc,"201 Chastain Blvd W, Glencoe, AL 35905, USA"
6542a321a129cb65b87a7dca,IL,42.1344886,-87.7631783,8849,29652,160,http://www.villageofglencoe.org/,47,Village of Glencoe,6542a2f1a129cb65b87a1261,"675 Village Ct #1609, Glencoe, IL 60022, USA"
6542a321a129cb65b87a7e7f,VA,37.4035413,-76.5235051,38711,,50,https://gloucesterva.gov/,6,Gloucester County,65a603fac769fa16f6596672,
6542a321a129cb65b87a7f23,VA,37.7188141,-77.9176263,24727,,50,https://www.goochlandva.us/,6,Goochland County,65a603fac769fa16f6596672,"1800 Sandy Hook Rd, Goochland, VA 23063, USA"
6542a321a129cb65b87a7f24,AL,34.1103299,-86.8661784,2483,30496,160,http://goodhopeal.com,25,City of Good Hope,65a603f5c769fa16f65912b6,"135 Municipal Dr, Cullman, AL 35057, USA"
6542a321a129cb65b87a7f65,AL,33.0607127,-86.0524864,1291,30640,160,,43,Town of Goodwater,65a603f5c769fa16f65912c7,"55 N Main St, Goodwater, AL 35072, USA"
6542a321a129cb65b87a7f75,SC,32.994906,-80.009245,45946,29815,160,http://www.cityofgoosecreek.com/,25,City of Goose Creek,6542a302a129cb65b87a2f50,"519 N Goose Creek Blvd, Goose Creek, SC 29445, USA"
6542a321a129cb65b87a7f7e,AL,33.3222863,-87.9036812,1628,30736,160,http://www.townofgordo.org,43,Town of Gordo,65b98e4fc8974c409c5c61d8,"25207 US-82, Gordo, AL 35466, USA"
6542a321a129cb65b87a7f8b,AL,31.1436055,-85.0925038,294,30760,160,http://www.townofgordo.org,43,Town of Gordon,65a603f5c769fa16f65912df,"692 Tifton Rd, Gordon, AL 36343, USA"
6542a321a129cb65b87a7f98,AL,32.1591791,-86.7042347,245,30808,160,http://www.townofgordo.org,43,Town of Gordonville,65a603f5c769fa16f65912de,"494 Wall St, Gordonville, AL 36040, USA"
6542a322a129cb65b87a80d7,MI,42.961156,-85.6555701,198917,34000,160,https://www.grandrapidsmi.gov/,25,City of Grand Rapids,65a603f7c769fa16f6593867,
6542a322a129cb65b87a819b,AL,34.5181726,-86.2604297,1039,31096,160,http://www.grantal.org,43,Town of Grant,65a603f5c769fa16f65912d0,"4766 Main St, Grant, AL 35747, USA"
6542a322a129cb65b87a8270,VA,36.6522288,-81.215324,15333,,50,https://www.graysoncountyva.gov/,6,Grayson County,65a603fac769fa16f6596672,"129 State Rte T 1101, Independence, VA 24348, USA"
6542a322a129cb65b87a8275,AL,33.633756,-86.9413975,1950,31384,160,https://graysvillecity.nexbillpayonline.com,25,City of Graysville,65a603f5c769fa16f65912e2,"246 S Main St, Graysville, AL 35073, USA"
6542a322a129cb65b87a8298,SC,34.5721311,-80.9053042,1951,30490,160,https://www.greatfallssc.org/,43,Town of Great Falls,6542a30ea129cb65b87a494e,"810 Dearborn St, Great Falls, SC 29055, USA"
6542a322a129cb65b87a8375,VA,38.2979805,-78.4701629,20552,,50,https://www.greenecountyva.gov/,6,Greene County,65a603fac769fa16f6596672,"40 Celt Rd, Stanardsville, VA 22973, USA"
6542a322a129cb65b87a840d,VA,36.6803363,-77.5602774,11391,,50,https://www.greensvillecountyva.gov/,6,Greensville County,65a603fac769fa16f6596672,"1781 Greensville County Cir, Emporia, VA 23847, USA"
6542a322a129cb65b87a8421,AL,31.8430722,-86.6369515,7374,31912,160,https://www.greenvilleal.gov/,25,City of Greenville,6542a307a129cb65b87a3e22,"119 E Commerce St, Greenville, AL 36037, USA"
6542a322a129cb65b87a8438,SC,34.8369021,-82.362997,70720,30850,160,http://www.greenvillesc.gov,25,City of Greenville,6542a322a129cb65b87a844f,"206 S Main St, Greenville, SC 29601, USA"
6542a322a129cb65b87a844f,SC,34.8926452,-82.3720772,525534,,50,https://www.greenvillecounty.org/,6,Greenville County,6542a35ea129cb65b87b0bdc,
6542a322a129cb65b87a846a,SC,34.1954089,-82.1536663,22545,30895,160,https://www.cityofgreenwoodsc.com/,25,City of Greenwood,6542a322a129cb65b87a8475,"City Of Greenwood Municipal Building, 520 Monument St, Greenwood, SC 29646, USA"
6542a322a129cb65b87a8475,SC,34.1557959,-82.1278759,69351,,50,https://www.greenwoodcounty-sc.gov,6,Greenwood County,6542a35ea129cb65b87b0bdc,"125 Willard Rd, Greenwood, SC 29649, USA"
6542a322a129cb65b87a84a8,SC,34.9304068,-82.2375855,35308,30985,160,http://www.cityofgreer.org/,25,City of Greer,6542a322a129cb65b87a844f,
6542a323a129cb65b87a8501,TX,30.5432314,-95.988082,29268,,50,https://grimescountytexas.gov,6,Grimes County,6542a368a129cb65b87b1b2a,"270 FM 149, Anderson, TX 77830, USA"
6542a323a129cb65b87a85bf,AL,33.9832195,-87.9023629,2195,32224,160,http://www.guinal.org,25,City of Guin,65b98e57c8974c409c5c61e2,"7500 US-43, Guin, AL 35563, USA"
6542a323a129cb65b87a85c5,AL,30.2758365,-87.7012579,15014,32272,160,https://www.gulfshoresal.gov/,25,City of Gulf Shores,65a603f5c769fa16f65912b3,"1905 W 1st St, Gulf Shores, AL 36542, USA"
6542a323a129cb65b87a86b6,VA,36.766461,-78.9396142,34022,,50,https://www.halifaxcountyva.gov,6,Halifax County,65a603fac769fa16f6596672,"70 S Main St, Halifax, VA 24558, USA"
6542a323a129cb65b87a876f,OH,39.1969272,-84.5441868,830639,,50,http://www.hamilton-co.org,6,Hamilton County,6542a34fa129cb65b87adb62,
6542a323a129cb65b87a8816,SC,32.931084,-80.0015825,20325,32065,160,https://www.cityofhanahan.com/,25,City of Hanahan,6542a302a129cb65b87a2f50,"1255 Yeamans Hall Rd, Hanahan, SC 29410, USA"
6542a323a129cb65b87a8880,VA,37.7602149,-77.4913168,109979,,50,http://www.hanovercounty.gov/,6,Hanover County,65a603fac769fa16f6596672,"7516 County Complex Rd, Hanover, VA 23069, USA"
6542a324a129cb65b87a8a44,VA,38.4362547,-78.8733028,51814,35624,160,https://www.harrisonburgva.gov,25,City of Harrisonburg,,
6542a324a129cb65b87a8ae0,SC,34.3660033,-80.0832614,7446,32560,160,http://www.hartsvillesc.gov/,25,City of Hartsville,6542a315a129cb65b87a5a2f,"100 E Carolina Ave, Hartsville, SC 29550, USA"
6542a324a129cb65b87a8bd4,HI,19.8281671,-155.4950421,1455271,,40,https://portal.ehawaii.gov/,0,Hawaii,,
6542a324a129cb65b87a8bd5,HI,19.5977643,-155.5024434,200629,,50,https://www.hawaiicounty.gov/,6,Hawaii County,6542a324a129cb65b87a8bd4,"25 Aupuni St, Hilo, HI 96720, USA"
6542a328a129cb65b87a8c99,MI,42.4619261,-83.0976927,14983,37420,160,https://www.hazelpark.org,25,City of Hazel Park,65a603f7c769fa16f659387e,"111 E 9 Mile Rd, Hazel Park, MI 48030, USA"
6542a328a129cb65b87a8df3,VA,37.4375205,-77.300333,334389,,50,https://henrico.gov,6,Henrico County,65a603fac769fa16f6596672,"3820 Nine Mile Rd, Richmond, VA 23223, USA"
6542a328a129cb65b87a8dfd,VA,36.6206119,-79.9806618,50948,,50,http://www.henrycountyva.gov/,6,Henry County,65a603fac769fa16f6596672,"3300 Kings Mountain Rd, Martinsville, VA 24112, USA"
6542a328a129cb65b87a8e6f,VA,38.9704119,-77.3870725,24655,36648,160,http://www.herndon-va.gov,43,Town of Herndon,6542a31ca129cb65b87a6e46,"777 Lynn St #105, Herndon, VA 20170, USA"
6542a329a129cb65b87a9083,SC,32.190307,-80.7384343,37661,34045,160,http://www.hiltonheadislandsc.gov,43,Town of Hilton Head Island,6542a2ffa129cb65b87a2b73,"1 Town Center Ct, Hilton Head Island, SC 29928, USA"
6542a329a129cb65b87a91c4,SC,33.3244402,-80.4130622,1298,34360,160,https://hollyhill.sc.gov/,43,Town of Holly Hill,6542a34fa129cb65b87adda1,"Peake St, Holly Hill, SC 29059, USA"
6542a329a129cb65b87a91e9,SC,32.7512512,-80.2019277,5339,34495,160,http://www.townofhollywood.org,43,Town of Hollywood,6542a30ea129cb65b87a47d5,"5150 SC-165, Hollywood, SC 29449, USA"
6542a329a129cb65b87a928d,SC,34.4476194,-82.3949569,3686,34810,160,https://honeapathsc.com/,43,Town of Honea Path,6542a2eaa129cb65b87a0660,"204 S Main St, Honea Path, SC 29654, USA"
6542a329a129cb65b87a9319,VA,37.2910098,-77.2989443,23033,38424,160,https://www.hopewellva.gov/,25,City of Hopewell,,"300 N Main St, Hopewell, VA 23860, USA"
6542a329a129cb65b87a9379,SC,33.9092694,-78.9766749,351029,,50,https://www.horrycountysc.gov/,6,Horry County,6542a35ea129cb65b87b0bdc,"1301 2nd Ave, Conway, SC 29526, USA"
6542a32aa129cb65b87a95b4,AL,34.7822752,-86.5325989,215006,37000,160,https://www.huntsvilleal.gov,25,City of Huntsville,65a603f5c769fa16f65912dd,"308 Fountain Cir SW, Huntsville, AL 35801, USA"
6542a32aa129cb65b87a9725,IN,39.9013136,-86.2919129,6785528,,40,http://in.gov/,0,Indiana,,
6542a32aa129cb65b87a972f,IN,39.7766644,-86.1459355,887642,36003,160,http://www.indy.gov/,,City of Indianapolis (balance),65a603f7c769fa16f65929ea,"200 E Washington St G30, Indianapolis, IN 46204, USA"
6542a32aa129cb65b87a978f,SC,35.0461341,-82.0898083,2990,35755,160,https://www.cityofinman.org/,25,City of Inman,6542a35fa129cb65b87b0ddd,"20 S Main St, Inman, SC 29349, USA"
6542a32aa129cb65b87a97ee,IA,42.0700243,-93.4933473,3190369,,40,https://www.iowa.gov/,0,Iowa,,
6542a32ba129cb65b87a98dd,SC,32.8039438,-79.7523529,4347,36115,160,http://www.iop.net/,25,City of Isle of Palms,6542a30ea129cb65b87a47d5,"1207 Palm Blvd, Isle of Palms, SC 29451, USA"
6542a32ba129cb65b87a98df,VA,36.9014184,-76.7075688,38606,,50,http://www.co.isle-of-wight.va.us,6,Isle of Wight County,65a603fac769fa16f6596672,"17090 Monument Cir #138, Isle of Wight, VA 23397, USA"
6542a32ba129cb65b87a9954,MS,32.315834,-90.2128502,153701,36000,160,http://www.jacksonms.gov/,25,City of Jackson,65a603f8c769fa16f6593fae,"219 S President St, Jackson, MS 39201, USA"
6542a32ba129cb65b87a9983,SC,33.328575,-81.7920146,1521,36205,160,http://www.jackson-sc.gov/,43,Town of Jackson,6542a2e8a129cb65b87a017f,"106 Main St, Jackson, SC 29831, USA"
6542a32ba129cb65b87a9a40,VA,37.3248367,-76.7778878,78254,,50,http://www.jamescitycountyva.gov,6,James City County,65a603fac769fa16f6596672,"Building E, 101 Mounts Bay Rd, Williamsburg, VA 23185, USA"
6542a32ba129cb65b87a9a44,SC,32.7361218,-79.9371837,11621,36430,160,https://www.jamesislandsc.us/,43,Town of James Island,6542a30ea129cb65b87a47d5,"1122 Dills Bluff Rd, Charleston, SC 29412, USA"
6542a32ba129cb65b87a9acb,SC,32.43059,-81.021627,28791,,50,http://www.jaspercountysc.gov,6,Jasper County,6542a35ea129cb65b87b0bdc,"651 Grays Hwy, Ridgeland, SC 29936, USA"
6542a32ba129cb65b87a9bfc,NJ,40.7114174,-74.0647599,292449,36000,160,https://www.jerseycitynj.gov/,25,City of Jersey City,65a603f9c769fa16f6594cae,"280 Grove St, Jersey City, NJ 07302, USA"
6542a32fa129cb65b87a9c8e,SC,33.8142395,-79.444288,1378,37105,160,https://www.cityofjohnsonville.com/,25,City of Johnsonville,6542a31da129cb65b87a72b2,
6542a32fa129cb65b87a9e03,KS,38.4985464,-98.3834298,2937880,,40,https://portal.kansas.gov,0,Kansas,,
6542a32fa129cb65b87a9f70,WI,42.5858816,-87.8763984,169151,,50,http://www.kenoshacounty.org,6,Kenosha County,6542a374a129cb65b87b3924,"1010 56th St, Kenosha, WI 53140, USA"
6542a32fa129cb65b87a9fec,SC,34.3383561,-80.5908847,65403,,50,http://www.kershaw.sc.gov/,6,Kershaw County,6542a35ea129cb65b87b0bdc,"515 Walnut St, Camden, SC 29020, USA"
6542a331a129cb65b87aa053,SC,32.6164419,-80.0605945,2013,38162,160,http://www.kiawahisland.org/,43,Town of Kiawah Island,6542a30ea129cb65b87a47d5,"4475 Betsy Kerrison Pkwy, Johns Island, SC 29455, USA"
6542a331a129cb65b87aa0f2,VA,37.7177719,-76.9055814,6608,,50,https://kingandqueenco.net,6,King and Queen County,65a603fac769fa16f6596672,"242 Allens Cir g, King and Queen Court House, VA 23085, USA"
6542a331a129cb65b87aa182,SC,33.6672305,-79.828661,3244,38590,160,https://kingstree.org/town-services/administration-finance/,43,Town of Kingstree,6542a371a129cb65b87b3638,"401 N Longstreet St, Kingstree, SC 29556, USA"
6542a331a129cb65b87aa33a,AL,32.8994267,-85.4007947,2684,40672,160,http://fayetteal.org,25,City of La Fayette,65a603f5c769fa16f65912a9,"50 Alabama Ave W, La Fayette, AL 36862, USA"
6542a333a129cb65b87aa4d1,SC,33.8677249,-79.7538846,5903,39310,160,https://lakecitysc.gov/,25,City of Lake City,6542a31da129cb65b87a72b2,"202 Kelley St, Lake City, SC 29560, USA"
6542a333a129cb65b87aa678,CO,39.6989385,-105.1175735,155984,43000,160,http://www.lakewood.org/,25,City of Lakewood,65a603f5c769fa16f6591b27,"480 S Allison Pkwy, Lakewood, CO 80226, USA"
6542a333a129cb65b87aa706,SC,34.7240348,-80.7793356,8460,39895,160,http://www.lancastercitysc.com/,25,City of Lancaster,65a603fac769fa16f6595c8c,"216 S Catawba St, Lancaster, SC 29720, USA"
6542a333a129cb65b87aa712,VA,37.7048433,-76.4126628,10919,,50,http://www.lancova.com,6,Lancaster County,65a603fac769fa16f6596672,"8311 Mary Ball Rd, Lancaster, VA 22503, USA"
6542a333a129cb65b87aa739,SC,35.175093,-82.1857266,2481,40075,160,https://cityoflandrumsc.com/,25,City of Landrum,6542a35fa129cb65b87b0ddd,"100 N Shamrock Ave, Landrum, SC 29356, USA"
6542a333a129cb65b87aa7a7,MI,42.7143412,-84.5608887,112644,46000,160,http://www.lansingmi.gov/,25,City of Lansing,65a603f7c769fa16f6593873,"124 W Michigan Ave, Lansing, MI 48933, USA"
6542a334a129cb65b87aa811,NV,36.2334989,-115.2640367,641903,40000,160,http://www.lasvegasnevada.gov/,25,City of Las Vegas,65a603f9c769fa16f6594fe2,"495 S Main St, Las Vegas, NV 89101, USA"
6542a334a129cb65b87aa896,SC,34.4836761,-82.0054976,67539,,50,https://laurenscounty.us/,6,Laurens County,6542a35ea129cb65b87b0bdc,"Barksdale Square Shopping Center, 100 Hillcrest Square # C, Laurens, SC 29360, USA"
6542a334a129cb65b87aa898,SC,34.5022471,-82.0207333,9335,40615,160,http://www.cityoflaurenssc.com/,25,City of Laurens,6542a334a129cb65b87aa896,"126 E Public Square, Laurens, SC 29360, USA"
6542a334a129cb65b87aa9ec,VA,36.7017206,-83.1301117,22173,,50,http://www.leecova.org/,6,Lee County,65a603fac769fa16f6596672,"33640 Main St Courthouse, Jonesville, VA 24263, USA"
6542a334a129cb65b87aa9ee,SC,34.1586401,-80.2512086,16531,,50,https://www.leecountysc.org/,6,Lee County,6542a35ea129cb65b87b0bdc,"123 S Main St, Bishopville, SC 29010, USA"
6542a334a129cb65b87aaa3b,VA,39.1062906,-77.5552437,48250,44984,160,http://www.leesburgva.gov,43,Town of Leesburg,6542a337a129cb65b87ab235,"25 W Market St, Leesburg, VA 20176, USA"
6542a336a129cb65b87aac13,VA,37.7823316,-79.4443196,7320,45512,160,http://www.lexingtonva.gov/,25,City of Lexington,,"300 E Washington St, Lexington, VA 24450, USA"
6542a336a129cb65b87aac22,SC,33.8992461,-81.2661183,293991,,50,https://lex-co.sc.gov/,6,Lexington County,6542a35ea129cb65b87b0bdc,"LEXINGTON COUNTY ADMINISTRATION BUILDING, 212 S Lake Dr # B02, Lexington, SC 29072, USA"
6542a336a129cb65b87aac24,SC,33.9928771,-81.2217971,23568,41335,160,https://www.lexsc.gov/,43,Town of Lexington,6542a336a129cb65b87aac22,"111 Maiden Ln, Lexington, SC 29072, USA"
6542a336a129cb65b87aac58,SC,34.7909626,-82.7014393,3366,41380,160,https://www.libertysc.com/,25,City of Liberty,6542a355a129cb65b87ae783,"206 W Front St, Liberty, SC 29657, USA"
6542a337a129cb65b87ab1eb,SC,34.0574757,-78.8884197,2449,42730,160,https://www.cityoflorissc.com/,25,City of Loris,6542a329a129cb65b87a9379,"401 Walnut St, Loris, SC 29569, USA"
6542a337a129cb65b87ab1f9,CA,34.0193936,-118.4108248,3898747,44000,160,https://lacity.gov,25,City of Los Angeles,65a603f5c769fa16f65918c8,"200 N Spring St, Los Angeles, CA 90012, USA"
6542a337a129cb65b87ab235,VA,39.0812,-77.6388976,420959,,50,http://www.loudoun.gov/,6,Loudoun County,65a603fac769fa16f6596672,"1 Harrison St SE, Leesburg, VA 20175, USA"
6542a337a129cb65b87ab23c,VA,37.9727041,-77.959795,37596,,50,https://www.louisacounty.gov/,6,Louisa County,65a603fac769fa16f6596672,"1 Woolfolk Ave, Louisa, VA 23093, USA"
6542a337a129cb65b87ab24e,LA,30.8634368,-91.7987173,4657757,,40,https://www.louisiana.gov,0,Louisiana,,
6542a338a129cb65b87ab3b0,VA,36.9455547,-78.2405281,11936,,50,https://lunenburgva.gov/,6,Lunenburg County,65a603fac769fa16f6596672,"11413 Courthouse Rd, Lunenburg, VA 23952, USA"
6542a338a129cb65b87ab3bc,VA,38.6648087,-78.4550292,4831,47528,160,http://www.townofluray.com,43,Town of Luray,65a603fac769fa16f65966b6,"Town Hall, 45 E Main St, Luray, VA 22835, USA"
6542a338a129cb65b87ab3d2,AL,31.7189412,-86.2690815,2765,44728,160,https://luverne.org,25,City of Luverne,6542a314a129cb65b87a565b,"22 E 5th St, Luverne, AL 36049, USA"
6542a338a129cb65b87ab3fe,SC,34.9679795,-82.1366978,6173,43315,160,http://www.lymansc.gov/,43,Town of Lyman,6542a35fa129cb65b87b0ddd,"81 Groce Rd, Lyman, SC 29365, USA"
6542a338a129cb65b87ab41f,VA,37.3990161,-79.1954582,79009,47672,160,http://www.lynchburgva.gov,25,City of Lynchburg,,"900 Church St, Lynchburg, VA 24504, USA"
6542a338a129cb65b87ab57f,WI,43.0878147,-89.4298563,269840,48000,160,http://www.cityofmadison.com,25,City of Madison,65a603fbc769fa16f6596c8f,"2120 Fish Hatchery Rd, Madison, WI 53713, USA"
6542a338a129cb65b87ab596,VA,38.4120586,-78.2769614,13837,,50,https://www.madisonco.virginia.gov/,6,Madison County,65a603fac769fa16f6596672,"302 Thrift Rd, Madison, VA 22727, USA"
6542a338a129cb65b87ab6f0,VA,38.7468077,-77.4826328,42772,48952,160,https://www.manassasva.gov,25,City of Manassas,,"9027 Center St, Manassas, VA 20110, USA"
6542a338a129cb65b87ab6f4,VA,38.7693983,-77.442323,17219,48968,160,https://www.manassasparkva.gov/,25,City of Manassas Park,,"100 Park Central Plaza, Manassas Park, VA 20111, USA"
6542a338a129cb65b87ab6f7,FL,27.4755558,-82.3931438,399710,,50,http://www.mymanatee.org,6,Manatee County,6542a31da129cb65b87a72c6,"1112 Manatee Ave W, Bradenton, FL 34205, USA"
6542a33ca129cb65b87ab7b4,SC,33.6933226,-80.2167614,3878,44350,160,http://www.cityofmanning.org/,25,City of Manning,6542a30fa129cb65b87a4b79,"29 W Boyce St, Manning, SC 29102, USA"
6542a33ca129cb65b87ab927,AZ,33.3451756,-112.4989296,4420568,,50,http://www.maricopa.gov/,6,Maricopa County,6542a2eca129cb65b87a084a,"100 W Washington St, Phoenix, AZ 85003, USA"
6542a33ca129cb65b87ab985,SC,34.1786584,-79.3956587,6448,44575,160,http://www.marionsc.gov/,25,City of Marion,6542a33ca129cb65b87ab9a8,"107 S Main St, Marion, SC 29571, USA"
6542a33ca129cb65b87ab9a8,SC,34.0836195,-79.3540014,29183,,50,http://www.marionsc.org/,6,Marion County,6542a35ea129cb65b87b0bdc,"2523 East Highway 76, 2523 US-76, Marion, SC 29571, USA"
6542a33ca129cb65b87ab9b7,VA,36.8373932,-81.5156636,5751,49464,160,http://www.marionva.org,43,Town of Marion,6542a35ea129cb65b87b0a83,"Municipal building, 138 W Main St, Marion, VA 24354, USA"
6542a33ca129cb65b87aba13,SC,34.60167,-79.6794351,26667,,50,https://marlborocounty.sc.gov/,6,Marlboro County,6542a35ea129cb65b87b0bdc,"205 E Market St, Bennettsville, SC 29512, USA"
6542a33ca129cb65b87aba5d,MI,46.5506978,-87.3958333,20629,51900,160,https://www.marquettemi.gov/,25,City of Marquette,65a603f7c769fa16f6593872,"Marquette City Hall, 300 W Baraga Ave, Marquette, MI 49855, USA"
6542a33ca129cb65b87abb27,VA,36.6835269,-79.8636475,13485,49784,160,https://www.martinsville-va.gov/,25,City of Martinsville,,
6542a33da129cb65b87abbe5,VA,37.4253479,-76.2688078,8533,,50,http://www.mathewscountyva.gov/,6,Mathews County,65a603fac769fa16f6596672,
6542a33da129cb65b87abc1a,SC,34.7806465,-82.3049525,24724,45115,160,https://cityofmauldin.org/,25,City of Mauldin,6542a322a129cb65b87a844f,"5 E Butler Rd, Mauldin, SC 29662, USA"
6542a33da129cb65b87abeb5,VA,36.6872563,-78.3689592,30319,,50,https://va-mecklenburgcounty.civicplus.com,6,Mecklenburg County,65a603fac769fa16f6596672,"76-134 Bank St, Boydton, VA 23917, USA"
6542a33da129cb65b87abec3,MA,42.4238438,-71.1092309,59659,39835,160,https://www.medfordma.org/,25,City of Medford,65a603f7c769fa16f65932ae,"85 George P Hassett Dr, Medford, MA 02155, USA"
6542a33da129cb65b87abf35,SC,32.6896589,-80.2575847,1390,45790,160,https://www.townofmeggettsc.org/,43,Town of Meggett,6542a30ea129cb65b87a47d5,"4776 SC-165, Hollywood, SC 29449, USA"
6542a33ea129cb65b87abfab,TN,35.1090176,-89.9665654,633104,48000,160,https://www.memphistn.gov/,25,City of Memphis,65a603fac769fa16f65960c0,"125 N Main St, Memphis, TN 38103, USA"
6542a33ea129cb65b87ac170,MI,44.8441768,-85.6604907,10077331,,40,https://www.michigan.gov,0,Michigan,,
6542a33ea129cb65b87ac1d4,VA,37.6069753,-76.5280819,10625,,50,https://www.co.middlesex.va.us/,6,Middlesex County,65a603fac769fa16f6596672,"877 General Puller Hwy, Saluda, VA 23149, USA"
6542a33ea129cb65b87ac302,MA,42.1586917,-71.5214188,30379,41165,60,https://www.milfordma.gov/,43,Town of Milford,,
6542a33fa129cb65b87ac4a0,WI,43.0633484,-87.9666952,577222,53000,160,https://www.milwaukee.gov/,25,City of Milwaukee,65a603fbc769fa16f6596cc6,"200 E Wells St, Milwaukee, WI 53202, USA"
6542a33fa129cb65b87ac660,SC,33.180703,-80.0071972,13297,47275,160,https://monckscornersc.gov/,43,Town of Moncks Corner,6542a302a129cb65b87a2f50,"1003 US-52, Moncks Corner, SC 29461, USA"
6542a343a129cb65b87ac7ca,MD,39.1373815,-77.2030633,1062061,,50,http://www.montgomerycountymd.gov/,6,Montgomery County,65a603f7c769fa16f65934f6,
6542a343a129cb65b87ac7d5,VA,37.1755376,-80.3877942,99721,,50,https://www.montgomerycountyva.gov/,6,Montgomery County,65a603fac769fa16f6596672,"755 Roanoke St, Christiansburg, VA 24073, USA"
6542a346a129cb65b87acbaf,SC,32.8083816,-79.8650382,90801,48535,160,http://www.tompsc.com,43,Town of Mount Pleasant,6542a30ea129cb65b87a47d5,"100 Ann Edwards Ln, Mt Pleasant, SC 29464, USA"
6542a346a129cb65b87accca,SC,34.2039757,-79.2536392,4026,48805,160,https://www.mullinssc.us/,25,City of Mullins,6542a33ca129cb65b87ab9a8,"614 W Marion St, Mullins, SC 29574, USA"
6542a346a129cb65b87acd9e,SC,33.7103895,-78.8860241,35682,49075,160,https://www.cityofmyrtlebeach.com/,25,City of Myrtle Beach,6542a329a129cb65b87a9379,"937 Broadway St, Myrtle Beach, SC 29577, USA"
6542a346a129cb65b87acdd2,CA,38.2978718,-122.3007407,79246,50258,160,http://www.cityofnapa.org/,25,City of Napa,65a603f5c769fa16f65918d0,"955 School St, Napa, CA 94559, USA"
6542a346a129cb65b87ace71,NY,40.7296118,-73.5894144,1395774,,50,http://www.nassaucountyny.gov/,6,Nassau County,65a603f9c769fa16f6595015,"1550 Franklin Ave, Mineola, NY 11501, USA"
6542a347a129cb65b87acf15,VA,37.7890795,-78.8834397,14775,,50,https://www.nelsoncounty-va.gov/,6,Nelson County,65a603fac769fa16f6596672,"84 Courthouse Square, Lovingston, VA 22949, USA"
6542a347a129cb65b87ad0b3,SC,33.4196102,-81.6824136,2210,49705,160,https://newellentonsc.com/,43,Town of New Ellenton,6542a2e8a129cb65b87a017f,"200 Main St, New Ellenton, SC 29809, USA"
6542a347a129cb65b87ad159,VA,37.5101601,-76.9993305,22945,,50,https://www.co.new-kent.va.us/,6,New Kent County,65a603fac769fa16f6596672,
6542a347a129cb65b87ad1bd,NM,34.4346843,-106.1316181,2117522,,40,https://www.nm.gov/,0,New Mexico,,
6542a347a129cb65b87ad1f6,OH,40.4864844,-81.4401512,17677,55216,160,http://www.newphilaoh.com/,25,City of New Philadelphia,65a603f9c769fa16f65952df,"150 E High Ave, New Philadelphia, OH 44663, USA"
6542a347a129cb65b87ad2a8,NY,40.6627117,-73.9386769,8804190,51000,160,https://www.nyc.gov,25,City of New York,65a603f9c769fa16f659503f,"City Hall Park, New York, NY 10007, USA"
6542a34aa129cb65b87ad2e2,SC,34.2822542,-81.6014605,10691,49570,160,https://www.cityofnewberry.com/,25,City of Newberry,6542a34aa129cb65b87ad2ef,
6542a34aa129cb65b87ad2ef,SC,34.2898805,-81.5996761,37719,,50,https://www.newberrycounty.gov/,6,Newberry County,6542a35ea129cb65b87b0bdc,"1330 College St, Newberry, SC 29108, USA"
6542a34aa129cb65b87ad3a4,VA,37.0761357,-76.5219802,186247,56000,160,http://www.nnva.gov,25,City of Newport News,,"2400 Washington Ave, Newport News, VA 23607, USA"
6542a34aa129cb65b87ad4a3,SC,34.1696886,-82.0238496,2076,50290,160,https://www.ninetysixsc.gov/?page_id=110,43,Town of Ninety Six,6542a322a129cb65b87a8475,"120 Main St E, Ninety Six, SC 29666, USA"
6542a34aa129cb65b87ad546,VA,36.9230149,-76.2446413,238005,57000,160,http://www.norfolk.gov,25,City of Norfolk,,"810 Union St, Norfolk, VA 23510, USA"
6542a34aa129cb65b87ad5ab,SC,33.5214108,-81.9547814,24379,50695,160,http://www.northaugustasc.gov/,25,City of North Augusta,6542a318a129cb65b87a6674,"100 Georgia Ave, North Augusta, SC 29841, USA"
6542a34aa129cb65b87ad616,SC,32.9178812,-80.065,114852,50875,160,http://www.northcharleston.org/,25,City of North Charleston,6542a30ea129cb65b87a47d5,"2500 City Hall Ln, North Charleston, SC 29406, USA"
6542a34ca129cb65b87ad6d5,SC,33.8024705,-78.7516273,18790,51280,160,https://www.nmb.us/,25,City of North Myrtle Beach,6542a329a129cb65b87a9379,"1018 2nd Ave S, North Myrtle Beach, SC 29582, USA"
6542a34ca129cb65b87ad7fe,VA,37.8569736,-76.3796872,11839,,50,https://www.co.northumberland.va.us/,6,Northumberland County,65a603fac769fa16f6596672,"72 Monument Pl, Heathsville, VA 22473, USA"
6542a34ca129cb65b87ad8cb,VA,37.1411668,-78.0538655,15642,,50,https://www.nottoway.org/,6,Nottoway County,65a603fac769fa16f6596672,"344 W Court House Rd, Nottoway Court House, VA 23955, USA"
6542a34ca129cb65b87ada04,FL,28.552076,-81.636676,3516,50525,160,http://oaklandfl.gov/,43,Town of Oakland,65a603f6c769fa16f6591ea0,"220 N Tubb St, Oakland, FL 34760, USA"
6542a34fa129cb65b87adac5,SC,34.7487656,-83.0615395,78607,,50,https://oconeesc.com,6,Oconee County,6542a35ea129cb65b87b0bdc,"415 S Pine St, Walhalla, SC 29691, USA"
6542a34fa129cb65b87adb38,UT,41.2283911,-111.9681469,87321,55980,160,http://www.ogdencity.com/,25,City of Ogden,65a603fac769fa16f659654b,"2549 S Washington Blvd, Ogden, UT 84401, USA"
6542a34fa129cb65b87adb62,OH,40.4149297,-82.7119975,11799448,,40,https://ohio.gov,0,Ohio,,
6542a34fa129cb65b87adb95,WV,40.100323,-80.6199004,42425,,50,https://www.ohiocountywv.gov/,6,Ohio County,65a603fac769fa16f6596b2c,"1500 Chapline St # 215, Wheeling, WV 26003, USA"
6542a34fa129cb65b87adbbf,OK,35.4670795,-97.5136565,681054,55000,160,http://www.okc.gov/,25,City of Oklahoma City,65a603f9c769fa16f6595543,"200 N Walker Ave, Oklahoma City, OK 73102, USA"
6542a34fa129cb65b87add82,VA,38.2493265,-78.0110923,36254,,50,http://orangecountyva.gov,6,Orange County,65a603fac769fa16f6596672,"112 W Main St, Orange, VA 22960, USA"
6542a34fa129cb65b87add88,VA,38.2478452,-78.1131865,4880,59496,160,http://www.townoforangeva.org,43,Town of Orange,6542a34fa129cb65b87add82,"Orange, VA 22960, USA"
6542a34fa129cb65b87add9f,SC,33.4917822,-80.8673878,13240,53080,160,https://www.orangeburg.sc.us/,25,City of Orangeburg,6542a34fa129cb65b87adda1,
6542a34fa129cb65b87adda1,SC,33.436135,-80.8029131,84223,,50,http://www.orangeburgcounty.org/,6,Orangeburg County,6542a35ea129cb65b87b0bdc,"1437 Amelia St #200, Orangeburg, SC 29115, USA"
6542a352a129cb65b87ae0d4,SC,34.9053737,-81.7637122,2274,53845,160,https://www.townofpacolet.com/,43,Town of Pacolet,6542a35fa129cb65b87b0ddd,"180 Montgomery Ave, Pacolet, SC 29372, USA"
6542a352a129cb65b87ae0fb,SC,34.7718922,-80.3892913,2456,54025,160,http://townofpageland.com/,43,Town of Pageland,6542a30ea129cb65b87a4983,"307 E McGregor St, Pageland, SC 29728, USA"
6542a352a129cb65b87ae157,FL,26.6491257,-80.4483542,1492191,,50,https://discover.pbcgov.org/,6,Palm Beach County,6542a31da129cb65b87a72c6,"14200 Okeechobee Blvd, Loxahatchee, FL 33470, USA"
6542a352a129cb65b87ae1dc,SC,33.9950213,-79.5706153,1061,54340,160,https://www.townofpamplico.com/,43,Town of Pamplico,6542a31da129cb65b87a72b2,
6542a354a129cb65b87ae3ad,VA,36.6671385,-80.286413,17608,,50,https://www.co.patrick.va.us/,6,Patrick County,65a603fac769fa16f6596672,"106 Rucker St #218, Stuart, VA 24171, USA"
6542a354a129cb65b87ae4e8,SC,34.6436477,-82.4600739,1344,55465,160,https://townofpelzer.us/,43,Town of Pelzer,6542a2eaa129cb65b87a0660,
6542a354a129cb65b87ae52d,SC,34.6422432,-82.7791119,3489,55645,160,http://www.townofpendleton.org/,43,Town of Pendleton,6542a2eaa129cb65b87a0660,"310 Greenville St, Pendleton, SC 29670, USA"
6542a355a129cb65b87ae6d5,VA,37.2047302,-77.3923681,33458,61832,160,http://www.petersburgva.gov/,25,City of Petersburg,,"135 N Union St, Petersburg, VA 23803, USA"
6542a355a129cb65b87ae71b,PA,40.0093755,-75.1333459,1603797,60000,160,http://www.phila.gov/,25,City of Philadelphia,65a603f9c769fa16f6595997,"1400 John F Kennedy Blvd, Philadelphia, PA 19107, USA"
6542a355a129cb65b87ae75e,AZ,33.5721544,-112.0901324,1608139,55000,160,http://www.phoenix.gov,25,City of Phoenix,6542a33ca129cb65b87ab927,"200 W Washington St, Phoenix, AZ 85003, USA"
6542a355a129cb65b87ae778,SC,34.885741,-82.7102018,3388,56140,160,https://www.cityofpickens.com/,25,City of Pickens,6542a355a129cb65b87ae783,"219 Pendleton St, Pickens, SC 29671, USA"
6542a355a129cb65b87ae783,SC,34.8853677,-82.7233774,131404,,50,http://www.co.pickens.sc.us/,6,Pickens County,6542a35ea129cb65b87b0bdc,"222 McDaniel Ave # B2, Pickens, SC 29671, USA"
6542a355a129cb65b87ae854,MI,42.4553967,-83.9410754,2415,64140,160,https://villageofpinckney.org/,47,Village of Pinckney,65a603f7c769fa16f659386d,"220 S Howell St, Pinckney, MI 48169, USA"
6542a355a129cb65b87ae8b3,SC,33.9023066,-81.0925912,2167,56950,160,http://www.townofpineridgesc.com/,43,Town of Pine Ridge,6542a336a129cb65b87aac22,"2757 Fish Hatchery Rd, West Columbia, SC 29172, USA"
6542a355a129cb65b87ae96d,PA,40.4397753,-79.9763331,302971,61000,160,http://www.pittsburghpa.gov,25,City of Pittsburgh,6542a2e8a129cb65b87a0372,"414 Grant St, Pittsburgh, PA 15219, USA"
6542a355a129cb65b87ae995,VA,36.8217206,-79.3985019,60501,,50,http://www.pittsylvaniacountyva.gov,6,Pittsylvania County,65a603fac769fa16f6596672,"1 Center St, Chatham, VA 24531, USA"
6542a356a129cb65b87aecad,VA,37.1283599,-76.3035337,12460,63768,160,https://www.ci.poquoson.va.us/,25,City of Poquoson,,
6542a356a129cb65b87aed3b,SC,32.3553711,-80.700252,14220,58030,160,https://www.portroyal.org/,43,Town of Port Royal,6542a2ffa129cb65b87a2b73,"700 Paris Ave, Port Royal, SC 29935, USA"
6542a356a129cb65b87aedbb,OR,45.5369506,-122.649971,652503,59000,160,https://www.portland.gov,25,City of Portland,65a603f9c769fa16f659579e,
6542a356a129cb65b87aedda,VA,36.8593388,-76.3569725,97915,64000,160,http://www.portsmouthva.gov,25,City of Portsmouth,,"801 Crawford St, Portsmouth, VA 23704, USA"
6542a357a129cb65b87aee93,VA,37.5494041,-77.9128553,30333,,50,http://www.powhatanva.gov,6,Powhatan County,65a603fac769fa16f6596672,"3834 Old Buckingham Rd, Powhatan, VA 23139, USA"
6542a357a129cb65b87aef8c,VA,37.2248813,-78.4329574,21849,,50,https://www.co.prince-edward.va.us/,6,Prince Edward County,65a603fac769fa16f6596672,
6542a357a129cb65b87aef8d,VA,37.1873255,-77.2209931,43010,,50,https://www.princegeorgecountyva.gov/,6,Prince George County,65a603fac769fa16f6596672,"6450 Administration Dr, Prince George, VA 23875, USA"
6542a357a129cb65b87af019,SC,34.2133723,-81.528386,1178,58705,160,http://www.prosperitysc.com/,43,Town of Prosperity,6542a34aa129cb65b87ad2ef,"305 N Main St, Prosperity, SC 29127, USA"
6542a357a129cb65b87af057,VA,37.0633853,-80.7134439,33800,,50,http://www.pulaskicounty.org/,6,Pulaski County,65a603fac769fa16f6596672,"143 3rd St NW #1, Pulaski, VA 24301, USA"
6542a357a129cb65b87af05c,VA,37.0527704,-80.7619186,8985,64880,160,http://www.pulaskitown.org,43,Town of Pulaski,6542a357a129cb65b87af057,"42 1st St NW, Pulaski, VA 24301, USA"
6542a357a129cb65b87af089,VA,39.1374984,-77.7113926,8929,65008,160,http://www.purcellvilleva.gov,43,Town of Purcellville,6542a337a129cb65b87ab235,"221 S. Nursery Ave., Purcellville, VA 20132, USA"
6542a357a129cb65b87af15d,VA,37.1201194,-80.5591473,16070,65392,160,https://www.radfordva.gov/,25,City of Radford,,"10 Robertson St, Radford, VA 24141, USA"
6542a357a129cb65b87af186,NC,35.8302035,-78.641493,467665,55000,160,https://raleighnc.gov,25,City of Raleigh,6542a36ca129cb65b87b2856,
6542a358a129cb65b87af254,VA,38.6845215,-78.1688241,7348,,50,http://rappahannockcountyva.gov,6,Rappahannock County,65a603fac769fa16f6596672,"3 Library Rd, Washington, VA 22747, USA"
6542a358a129cb65b87af279,SC,32.7762776,-80.2319478,2542,59020,160,http://www.townofravenel.com/,43,Town of Ravenel,6542a30ea129cb65b87a47d5,"5962 SC-165 #100, Ravenel, SC 29470, USA"
6542a358a129cb65b87af416,SC,34.8658052,-82.1106395,1634,59425,160,https://www.townofreidvillesc.com/,43,Town of Reidville,6542a35fa129cb65b87b0ddd,"7304 Reidville Rd, Reidville, SC 29375, USA"
6542a358a129cb65b87af59c,SC,34.0290952,-80.8980371,416147,,50,http://www.richlandcountysc.gov/,6,Richland County,6542a35ea129cb65b87b0bdc,"2020 Hampton St, Columbia, SC 29204, USA"
6542a358a129cb65b87af5f6,VA,37.0880225,-81.8104162,5261,66928,160,https://www.richlands-va.gov/,43,Town of Richlands,6542a368a129cb65b87b1a75,"200 Washington Square, Richlands, VA 24641, USA"
6542a359a129cb65b87af617,VA,37.531399,-77.4760085,226610,67000,160,https://rva.gov,25,City of Richmond,,"900 E Broad St, Richmond, VA 23219, USA"
6542a359a129cb65b87af625,VA,37.9428936,-76.7305609,8923,,50,http://www.co.richmond.va.us,6,Richmond County,65a603fac769fa16f6596672,"5860 Richmond Rd, Warsaw, VA 22572, USA"
6542a359a129cb65b87af696,SC,32.468844,-80.9211249,3758,60280,160,http://www.ridgelandsc.gov/,43,Town of Ridgeland,6542a32ba129cb65b87a9acb,"1 Town Sq, Ridgeland, SC 29936, USA"
6542a359a129cb65b87af6b3,SC,33.0900329,-80.3072332,1672,60370,160,https://ridgevillegov.com/,43,Town of Ridgeville,6542a316a129cb65b87a6000,"105 School St, Ridgeville, SC 29472, USA"
6542a359a129cb65b87af851,VA,37.278458,-79.9581739,100011,68000,160,https://www.roanokeva.gov,25,City of Roanoke,,"215 Church Ave SW # 456, Roanoke, VA 24011, USA"
6542a359a129cb65b87af8d9,NY,43.1699272,-77.6168907,211328,63000,160,http://www.cityofrochester.gov/,25,City of Rochester,65a603f9c769fa16f6595030,"30 Church St, Rochester, NY 14614, USA"
6542a359a129cb65b87af8dd,MI,42.6634835,-83.1591955,76300,69035,160,http://www.rochesterhills.org/,25,City of Rochester Hills,65a603f7c769fa16f659387e,"1000 Rochester Hills Dr, Rochester Hills, MI 48309, USA"
6542a359a129cb65b87af925,SC,34.9430917,-81.0206451,74372,61405,160,http://www.cityofrockhill.com/,25,City of Rock Hill,6542a375a129cb65b87b3cd2,"155 Johnston St, Rock Hill, SC 29730, USA"
6542a359a129cb65b87af94f,VA,37.8145174,-79.4477537,22650,,50,https://www.co.rockbridge.va.us/,6,Rockbridge County,65a603fac769fa16f6596672,"150 S Main St, Lexington, VA 24450, USA"
6542a359a129cb65b87af998,VA,38.5075848,-78.8853213,83757,,50,http://www.rockinghamcountyva.gov,6,Rockingham County,65a603fac769fa16f6596672,"20 E Gay St, Harrisonburg, VA 22802, USA"
6542a35aa129cb65b87afa14,VA,37.0043976,-79.8847624,4903,68496,160,http://www.rockymountva.org,43,Town of Rocky Mount,6542a31fa129cb65b87a762a,"345 Donald Ave, Rocky Mount, VA 24151, USA"
6542a35aa129cb65b87afdb7,VA,36.9334198,-82.0959342,25781,,50,https://www.russellcountyva.us,6,Russell County,65a603fac769fa16f6596672,"PO Box 1508, Lebanon, VA 24266, USA"
6542a35ba129cb65b87afeea,VA,37.2853329,-80.0552407,25346,70000,160,http://www.salemva.gov,25,City of Salem,,"114 N Broad St, Salem, VA 24153, USA"
6542a35ba129cb65b87aff85,UT,40.7769281,-111.9309915,199723,67000,160,https://www.slc.gov/,25,City of Salt Lake City,65a603fac769fa16f6596540,"451 S State St, Salt Lake City, UT 84111, USA"
6542a35ba129cb65b87affac,SC,34.0011724,-81.7716376,3122,63250,160,http://www.townofsaluda.com/,43,Town of Saluda,6542a35ba129cb65b87affad,"100 S Jefferson St, Saluda, SC 29138, USA"
6542a35ba129cb65b87affad,SC,34.0052784,-81.7279033,18862,,50,https://saludacounty.sc.gov/,6,Saluda County,6542a35ea129cb65b87b0bdc,"111 Law Enforcement Dr, Saluda, SC 29138, USA"
6542a35ba129cb65b87affc5,TX,29.4634081,-98.5242867,1434625,65000,160,https://www.sa.gov,25,City of San Antonio,65a603fac769fa16f65962e4,"100 Military Plaza #4, San Antonio, TX 78205, USA"
6542a35ba129cb65b87affdb,CA,32.814977,-117.1355615,1386932,66000,160,https://www.sandiego.gov,25,City of San Diego,6542a35ba129cb65b87affdd,"202 C St, San Diego, CA 92101, USA"
6542a35ba129cb65b87affdd,CA,33.0236041,-116.7761174,3298634,,50,https://www.sandiegocounty.gov/,6,San Diego County,6542a30ba129cb65b87a3f9e,"1600 Pacific Hwy #260, San Diego, CA 92101, USA"
6542a35ba129cb65b87affe8,CA,37.7272391,-123.0322294,873965,67000,160,https://www.sf.gov,25,City of San Francisco,65a603f5c769fa16f6591919,"1 Dr Carlton B Goodlett Pl, San Francisco, CA 94102, USA"
6542a35ba129cb65b87afff3,CA,37.2960112,-121.8145519,1013240,68000,160,http://www.sanjoseca.gov/,25,City of San Jose,65a603f5c769fa16f659191e,"200 E Santa Clara St, San Jose, CA 95113, USA"
6542a35ca129cb65b87b0307,VA,36.7127756,-82.6136238,21576,,50,https://www.scottcountyva.com/,6,Scott County,65a603fac769fa16f6596672,"267 E Willow St #101, Gate City, VA 24251, USA"
6542a35ca129cb65b87b0340,AZ,33.6842718,-111.8614483,241361,65000,160,http://www.scottsdaleaz.gov,25,City of Scottsdale,6542a33ca129cb65b87ab927,"City Hall, 3939 N Drinkwater Blvd, Scottsdale, AZ 85251, USA"
6542a35ca129cb65b87b0397,SC,32.5750134,-80.1820452,2050,64712,160,http://www.townofseabrookisland.org/,43,Town of Seabrook Island,6542a30ea129cb65b87a47d5,"2001 Seabrook Island Rd, Seabrook Island, SC 29455, USA"
6542a35ca129cb65b87b03d0,WA,47.6193387,-122.3515649,737015,63000,160,http://www.seattle.gov/,25,City of Seattle,65a603fac769fa16f6596852,"600 4th Ave, Seattle, WA 98104, USA"
6542a35ca129cb65b87b047e,SC,34.6810588,-82.9656036,8850,65095,160,http://www.seneca.sc.us/,25,City of Seneca,6542a34fa129cb65b87adac5,"621 N Townville St, Seneca, SC 29678, USA"
6542a35da129cb65b87b06b9,VA,38.856204,-78.5739867,44186,,50,https://www.shenandoahcountyva.gov/,6,Shenandoah County,65a603fac769fa16f6596672,"600 N Main St STE 102, Woodstock, VA 22664, USA"
6542a35da129cb65b87b0936,SC,34.7285375,-82.2563771,23354,66580,160,https://www.simpsonville.com/,25,City of Simpsonville,6542a322a129cb65b87a844f,"118 NE Main St, Simpsonville, SC 29681, USA"
6542a35ea129cb65b87b09ad,GA,34.984996,-83.3339935,482,71282,160,https://skyvalleyga.com,25,City of Sky Valley,65a603f6c769fa16f6592156,"3444 GA-246, Dillard, GA 30537, USA"
6542a35ea129cb65b87b0a36,VA,36.972412,-76.6141545,8533,73200,160,http://www.smithfieldva.gov,43,Town of Smithfield,6542a32ba129cb65b87a98df,"310 Institute St, Smithfield, VA 23430, USA"
6542a35ea129cb65b87b0a83,VA,36.8423183,-81.5397861,29800,,50,http://www.smythcounty.org,6,Smyth County,65a603fac769fa16f6596672,"75 W Main St, Marion, VA 24354, USA"
6542a35ea129cb65b87b0bc8,VA,36.7118251,-78.9133543,7966,73712,160,http://www.southboston.com,43,Town of South Boston,6542a323a129cb65b87a86b6,"455 Ferry St, South Boston, VA 24592, USA"
6542a35ea129cb65b87b0bdc,SC,33.8741776,-80.8542639,5118425,,40,https://sc.gov/,0,South Carolina,,
6542a35ea129cb65b87b0bfe,SC,33.9094801,-81.1375404,2377,67705,160,http://www.townofsouthcongaree.org/,43,Town of South Congaree,6542a336a129cb65b87aac22,"119 W Berry Rd, West Columbia, SC 29172, USA"
6542a35fa129cb65b87b0dda,SC,34.9456268,-81.925944,38732,68290,160,http://www.cityofspartanburg.org/,25,City of Spartanburg,6542a35fa129cb65b87b0ddd,"145 W Broad St, Spartanburg, SC 29306, USA"
6542a35fa129cb65b87b0ddd,SC,34.9320145,-81.9916236,327997,,50,http://www.spartanburgcounty.org/,6,Spartanburg County,6542a35ea129cb65b87b0bdc,"366 N Church St, Spartanburg, SC 29303, USA"
6542a35fa129cb65b87b0e83,VA,38.1824314,-77.6572264,140032,,50,http://www.spotsylvania.va.us,6,Spotsylvania County,65a603fac769fa16f6596672,"RICHARD E.HOLBERT MEMORIAL BUILDING, 9104 Courthouse Rd, Spotsylvania Courthouse, VA 22553, USA"
6542a362a129cb65b87b1223,VA,38.4230836,-77.4580475,156927,,50,http://staffordcountyva.gov,6,Stafford County,65a603fac769fa16f6596672,"1300 Courthouse Rd, Stafford, VA 22554, USA"
6542a362a129cb65b87b132a,VA,38.1579778,-79.0618761,25750,75216,160,https://www.ci.staunton.va.us/,25,City of Staunton,,"116 W Beverley St # 3, Staunton, VA 24401, USA"
6542a362a129cb65b87b14b8,MA,42.4742082,-71.0976654,23244,67665,60,https://www.stoneham-ma.gov/,43,Town of Stoneham,,
6542a362a129cb65b87b14e4,WI,42.9237688,-89.2225146,13173,77675,160,https://www.cityofstoughton.com/,25,City of Stoughton,65a603fbc769fa16f6596c8f,"207 S Forrest St, Stoughton, WI 53589, USA"
6542a362a129cb65b87b1531,VA,39.0033912,-78.3495426,7083,76000,160,http://www.strasburgva.com,43,Town of Strasburg,6542a35da129cb65b87b06b9,"174 E King St, Strasburg, VA 22657, USA"
6542a365a129cb65b87b1617,VA,36.6971573,-76.6347808,94324,76432,160,http://www.suffolkva.us,25,City of Suffolk,,"442 W Washington St, Suffolk, VA 23434, USA"
6542a365a129cb65b87b1687,SC,32.7709494,-79.8311365,1891,70090,160,https://sullivansisland.sc.gov/,43,Town of Sullivan's Island,6542a30ea129cb65b87a47d5,"2056 Middle St, Sullivan's Island, SC 29482, USA"
6542a365a129cb65b87b16d2,SC,33.0021419,-80.1795892,50915,70270,160,http://www.summervillesc.gov/,43,Town of Summerville,6542a316a129cb65b87a6000,"900 late vein, Summerville, SC 29483, USA"
6542a365a129cb65b87b173b,SC,33.940848,-80.3955428,43463,70405,160,https://www.sumtersc.gov/,25,City of Sumter,6542a365a129cb65b87b1740,"107 E Hampton Ave, Sumter, SC 29150, USA"
6542a365a129cb65b87b1740,SC,33.9161395,-80.3823757,105556,,50,http://www.sumtercountysc.org,6,Sumter County,6542a35ea129cb65b87b0bdc,"20 Magnolia St, Sumter, SC 29150, USA"
6542a365a129cb65b87b17cb,SC,33.6096513,-78.9775397,4155,70585,160,http://www.surfsidebeach.org/,43,Town of Surfside Beach,6542a329a129cb65b87a9379,"115 US-17 BUS, Surfside Beach, SC 29575, USA"
6542a365a129cb65b87b17e5,VA,37.1197611,-76.8801717,6561,,50,https://www.surrycountyva.gov,6,Surry County,65a603fac769fa16f6596672,"45 School St, Surry, VA 23883, USA"
6542a365a129cb65b87b1802,VA,36.9266454,-77.2597319,10829,,50,https://www.sussexcountyva.gov/,6,Sussex County,65a603fac769fa16f6596672,"20233 Thorton Square, Waverly, VA 23890, USA"
6542a368a129cb65b87b19e1,TX,32.7721191,-97.2912241,2110640,,50,https://www.tarrantcountytx.gov,6,Tarrant County,6542a368a129cb65b87b1b2a,
6542a368a129cb65b87b1a72,VA,37.1289382,-81.5065547,4486,77792,160,http://www.townoftazewell.org,43,Town of Tazewell,6542a368a129cb65b87b1a75,"211 Central Ave, Tazewell, VA 24651, USA"
6542a368a129cb65b87b1a75,VA,37.1253949,-81.5629237,40429,,50,http://tazewellcountyva.org,6,Tazewell County,65a603fac769fa16f6596672,"197 Main St, Tazewell, VA 24651, USA"
6542a368a129cb65b87b1a7e,SC,35.0345759,-81.0167196,12832,71417,160,https://www.tegacaysc.org/,25,City of Tega Cay,6542a375a129cb65b87b3cd2,"7725 Tega Cay Dr, Tega Cay, SC 29708, USA"
6542a368a129cb65b87b1b2a,TX,31.4347032,-99.2818238,29145505,,40,https://www.texas.gov/,0,Texas,,
6542a368a129cb65b87b1bf5,CO,39.9194198,-104.9428083,141867,77290,160,https://www.thorntonco.gov,25,City of Thornton,65a603f5c769fa16f6591b47,"9500 Civic Center Dr, Thornton, CO 80229, USA"
6542a36aa129cb65b87b1d4e,OH,41.664071,-83.5818608,270871,77000,160,http://www.toledo.oh.gov,25,City of Toledo,65a603f9c769fa16f65952c0,"401 S Erie St, Toledo, OH 43604, USA"
6542a36aa129cb65b87b1db0,UT,40.4677525,-113.1239786,72698,,50,https://tooeleco.gov,6,Tooele County,65a603fac769fa16f659652e,"47 S Main St, Tooele, UT 84074, USA"
6542a36aa129cb65b87b1ea6,SC,34.9599712,-82.4449725,7788,72430,160,http://www.travelersrestsc.com/,25,City of Travelers Rest,6542a322a129cb65b87a844f,
6542a36aa129cb65b87b1ea8,MI,44.754309,-85.6030111,15678,80340,160,https://www.traversecitymi.gov,25,City of Traverse City,65a603f7c769fa16f659385b,"1210 woodmere Ave, Traverse City, MI 49684, USA"
6542a36aa129cb65b87b1eaf,TX,30.2395128,-97.6912697,1290188,,50,http://www.traviscountytx.gov,6,Travis County,6542a368a129cb65b87b1b2a,
6542a36aa129cb65b87b1ffe,AZ,32.1530357,-110.8707734,542629,77000,160,http://www.tucsonaz.gov,25,City of Tucson,65a603f5c769fa16f6591794,"255 W Alameda St, Tucson, AZ 85701, USA"
6542a36ba129cb65b87b21d8,SC,34.7234613,-81.6248155,8174,73105,160,http://www.cityofunion.net/,25,City of Union,6542a36ba129cb65b87b2207,"101 Sharpe Ave, Union, SC 29379, USA"
6542a36ba129cb65b87b2207,SC,34.6903965,-81.6158961,27244,,50,https://gearupunionsc.com/,6,Union County,6542a35ea129cb65b87b0bdc,"210 W Main St, Union, SC 29379, USA"
6542a36ca129cb65b87b2528,SC,32.8520318,-81.0802276,1669,73600,160,https://www.varnvillesc.org/,43,Town of Varnville,65a603fac769fa16f6595c83,
6542a36ca129cb65b87b26b9,VA,38.8985761,-77.2583226,16473,81072,160,https://www.viennava.gov/,43,Town of Vienna,6542a31ca129cb65b87a6e46,"127 Center St S, Vienna, VA 22180, USA"
6542a36ca129cb65b87b272b,VA,37.2742363,-79.8881943,8059,81280,160,http://www.vintonva.gov,43,Town of Vinton,65a603fac769fa16f65966c0,"311 S Pollard St, Vinton, VA 24179, USA"
6542a36ca129cb65b87b276a,VA,36.7795254,-76.0291418,459470,82000,160,https://virginiabeach.gov/,25,City of Virginia Beach,,"1, Municipal Center Building 1, 2401 Courthouse Dr, Virginia Beach, VA 23456, USA"
6542a36ca129cb65b87b2856,NC,35.7898464,-78.650624,1129410,,50,https://www.wake.gov/,6,Wake County,65a603f8c769fa16f659439e,"301 S McDowell St 4th floor, Raleigh, NC 27601, USA"
6542a36da129cb65b87b29ac,SC,32.9009275,-80.6759439,5544,74275,160,http://www.walterborosc.org/,25,City of Walterboro,6542a312a129cb65b87a509a,"242 Hampton St, Walterboro, SC 29488, USA"
6542a36da129cb65b87b2a9b,VA,38.9082214,-78.207594,40727,,50,https://www.warrencountyva.gov,6,Warren County,65a603fac769fa16f6596672,"220 N Commerce Ave # 100, Front Royal, VA 22630, USA"
6542a36da129cb65b87b2adb,VA,38.7178169,-77.797316,10057,83136,160,https://www.warrentonva.gov/,43,Town of Warrenton,6542a31ca129cb65b87a7072,"21 Main St, Warrenton, VA 20186, USA"
6542a36da129cb65b87b2b7f,PA,40.2000054,-80.2521319,209349,,50,https://www.washingtoncopa.gov/,6,Washington County,65a603f9c769fa16f6595966,"100 W Beau St # 702, Washington, PA 15301, USA"
6542a36da129cb65b87b2b85,VA,36.7478138,-81.9503218,53935,,50,http://www.washcova.com/,6,Washington County,65a603fac769fa16f6596672,"1 Government Center Pl Suite A, Abingdon, VA 24210, USA"
6542a36da129cb65b87b2c89,MI,42.6619781,-83.387921,70565,84240,60,http://www.waterfordmi.gov/,49,Charter Township of Waterford,65a603f7c769fa16f659387e,
6542a36fa129cb65b87b2e6d,VA,38.0671571,-78.9014197,22196,83680,160,https://www.waynesboro.va.us/,25,City of Waynesboro,,
6542a36fa129cb65b87b302f,MI,42.5666956,-83.3870949,65888,85480,60,http://wbtownship.org/,49,Charter Township of West Bloomfield,65a603f7c769fa16f659387e,"4550 Walnut Lake Rd, West Bloomfield Township, MI 48323, USA"
6542a370a129cb65b87b3094,SC,33.9901302,-81.0993542,17416,75850,160,https://westcolumbiasc.gov/,25,City of West Columbia,6542a336a129cb65b87aac22,"200 N 12th St, West Columbia, SC 29169, USA"
6542a370a129cb65b87b32d1,SC,34.6665562,-83.0906578,2353,76165,160,https://westminstersc.org/,25,City of Westminster,6542a34fa129cb65b87adac5,"100 E Windsor St, Westminster, SC 29693, USA"
6542a370a129cb65b87b32e8,VA,38.109311,-76.8039326,18477,,50,https://www.westmoreland-county.org/,6,Westmoreland County,65a603fac769fa16f6596672,"111 Polk St, Montross, VA 22520, USA"
6542a370a129cb65b87b33a9,WA,48.8426531,-121.8364325,226847,,50,https://www.whatcomcounty.us/,6,Whatcom County,65a603fac769fa16f659683f,"311 Grand Ave #108, Bellingham, WA 98225, USA"
6542a371a129cb65b87b3571,KS,37.6906377,-97.3458362,397532,79000,160,https://www.wichita.gov,25,City of Wichita,65a603f7c769fa16f6592c85,"455 N Main, Wichita, KS 67202, USA"
6542a371a129cb65b87b362e,VA,37.269481,-76.7081925,15425,86160,160,https://www.williamsburgva.gov/,25,City of Williamsburg,,"401 Lafayette St, Williamsburg, VA 23185, USA"
6542a371a129cb65b87b3638,SC,33.6264617,-79.716474,31026,,50,https://www.williamsburgcounty.sc.gov/,6,Williamsburg County,6542a35ea129cb65b87b0bdc,"201 W Main St, Kingstree, SC 29556, USA"
6542a371a129cb65b87b3690,SC,33.4016631,-81.4218989,2877,77965,160,http://www.williston-sc.com/,43,Town of Williston,6542a2fca129cb65b87a2940,"154 Harley Rd, Williston, SC 29853, USA"
6542a371a129cb65b87b37b8,VA,39.1738688,-78.1763562,28120,86720,160,https://www.winchesterva.gov,25,City of Winchester,,"15 N Cameron St, Winchester, VA 22601, USA"
6542a374a129cb65b87b38aa,SC,34.371822,-81.0906582,3215,78460,160,http://www.townofwinnsboro.com/,43,Town of Winnsboro,6542a31ca129cb65b87a6e7d,"207 N Congress St, Winnsboro, SC 29180, USA"
6542a374a129cb65b87b38e5,NC,36.1028627,-80.2608286,249545,75000,160,https://www.cityofws.org,25,City of Winston-Salem,6542a31da129cb65b87a7415,"101 N Main St, Winston-Salem, NC 27101, USA"
6542a374a129cb65b87b3944,VA,36.9745607,-82.6215601,36130,,50,http://www.wisecounty.org,6,Wise County,65a603fac769fa16f6596672,"206 E Main St #223, Wise, VA 24293, USA"
6542a374a129cb65b87b3aac,SC,34.7424815,-82.0347773,4212,79090,160,http://www.cityofwoodruff.com/,25,City of Woodruff,6542a35fa129cb65b87b0ddd,"231 E Hayne St, Woodruff, SC 29388, USA"
6542a374a129cb65b87b3c2d,VA,36.9533853,-81.0884377,8265,88000,160,http://www.wytheville.org,43,Town of Wytheville,6542a374a129cb65b87b3c2f,"150 E Monroe St, Wytheville, VA 24382, USA"
6542a374a129cb65b87b3c2f,VA,36.8998674,-81.0830007,28290,,50,http://www.wytheco.org,6,Wythe County,65a603fac769fa16f6596672,"340 S 6th St, Wytheville, VA 24382, USA"
6542a375a129cb65b87b3ca1,SC,32.6948503,-80.8690474,1080,79450,160,https://www.townofyemassee.org/town-council,43,Town of Yemassee,65a603fac769fa16f6595c83,"101 Town Cir, Yemassee, SC 29945, USA"
6542a375a129cb65b87b3ccd,SC,34.9983468,-81.2330664,8503,79630,160,https://www.yorksc.gov,25,City of York,6542a375a129cb65b87b3cd2,"10 N Roosevelt St, York, SC 29745, USA"
6542a375a129cb65b87b3cd2,SC,34.9701875,-81.1831873,282090,,50,http://www.yorkcountygov.com/,6,York County,6542a35ea129cb65b87b0bdc,"1675 York Hwy, York, SC 29745, USA"
6542a375a129cb65b87b3cd3,VA,37.2209139,-76.395533,70045,,50,http://www.yorkcounty.gov,6,York County,65a603fac769fa16f6596672,"224 Ballard St, Yorktown, VA 23690, USA"
656df4359d400aa33296c756,dc,0,0,,,360,,,Veteran's Affairs,,
656df45c9d400aa33296c75c,dc,0,0,,,360,https://www.defense.gov/,,Department of Defense,,
656f55169d400aa33296cae8,nm,35.088,-106.618,,,360,https://unmhealth.org/,,University of New Mexico Health System,,
656f96d29d400aa33296cb7b,mi,0,0,,,360,https://www.beaumont.org/,,Beaumont Hospital,,
65721c289d400aa33296ccd3,MD,39.328889,-76.620278,37156,,970,https://www.jhu.edu/,33,Johns Hopkins,65a603f7c769fa16f65934f6,
657782a78effefcd4e75d1d1,CO,0,0,,,360,https://www.colorado.edu/,,University of Colorado,,
6578924c863f4bdbcc636123,CA,34.66375,-120.11076,,,360,https://www.dunnschool.org/,,Dunn School,,
657ca765e2846121258d9f36,OH,,,,,360,https://www.clevelandmetroparks.com/,,Cleveland Metro Parks,,
657cb1cbaef9f78aa4a96602,CA,0,0,10014009,,360,https://parks.lacounty.gov/,,Los Angeles County Parks,,
657cb6b1aef9f78aa4a98dbb,CO,,,,,360,https://apexprd.org/,,Apex Park and Recreation District,,"13150 W 72nd Ave, Arvada, CO 80005, USA"
657cb7afaef9f78aa4a990f0,CO,,,,,360,https://scfd.org/,,Denver Metro Scientific and Cultural Facilities District (SCFD),,
657cb7c9aef9f78aa4a990fb,CO,,,,,360,https://www.eaglevail.org/Metro-District,,Eagle-Vail Metropolitan District,,
657cc2a0aef9f78aa4a9ab29,FL,,,,,360,https://www.browardcenter.org/about/performing-arts-center-authority,,Performing Arts Center Authority,,
657cc308aef9f78aa4a9b024,FL,,,,,360,https://www.sl4recdistrict.com/,,Sunrise Lakes Phase 4 Rec District,,
657f98cdaf7027edb912d3ea,il,0,0,,,360,,,Champaign Park District,,
657f98f6af7027edb912d438,AL,,,,,360,,,Channahon Park District,,
657f993daf7027edb912d5b1,il,,,,,360,https://www.bloomingdaleparks.org/,,Bloomingdale Park District,,
657f99c0af7027edb912d68c,il,,,,,360,https://www.btpd.org/,,Bourbonnais Park District,,
6580ba5daf7027edb913ec78,CO,,,,,360,https://www.erbmrec.com/,,Eastern Rio Blanco Metro Recreation And Parks District,,
6580ba93af7027edb913ec83,CO,,,,,360,https://evrpd.colorado.gov/,,Estes Valley Recreation And Park District,,
6580baf7af7027edb913eccc,CO,,,,,360,https://www.evergreenrecreation.com/,,Evergreen Park And Recreation District,,
6580bb1caf7027edb913ed3c,CO,,,,,360,https://www.ifoothills.org/,,Foothills Park And Recreation District,,
6580bb3aaf7027edb913eda1,co,,,,,360,https://www.fraservalleyrec.org/,,Fraser Valley Metropolitan Recreation District,,
6596eb1b280c2e17d8276f0d,ca,,,,,360,https://www.bishops.com,,The Bishops School,,
6596ece9280c2e17d827a131,MI,42.2743764,-83.7351605,17026,2820,970,https://www.a2schools.org/,0,Ann Arbor Public Schools,6542a33ea129cb65b87ac170,"2555 S STATE ST, ANN ARBOR, MI, 48104"
65a603f5c769fa16f65911ce,AK,61.1742503,-149.2843294,291247,,50,http://www.muni.org/Pages/default.aspx,12,Anchorage Municipality,6542a2e8a129cb65b87a01ea,"632 W 6th Ave #850, Anchorage, AK 99501, USA"
65a603f5c769fa16f65911d0,AK,63.6820386,-150.0270164,1619,,50,http://www.denaliborough.org/,4,Denali Borough,6542a2e8a129cb65b87a01ea,"Healy Spur Rd, Healy, AK 99743, USA"
65a603f5c769fa16f65911d1,AK,58.3729099,-134.1784454,32255,,50,http://juneau.org/,3,Juneau City and Borough,6542a2e8a129cb65b87a01ea,"155 S Seward St, Juneau, AK 99801, USA"
65a603f5c769fa16f65911d2,AK,60.360766,-152.0526403,58799,,50,https://www.kpb.us/,4,Kenai Peninsula Borough,6542a2e8a129cb65b87a01ea,"144 N Binkley St, Soldotna, AK 99669, USA"
65a603f5c769fa16f65911d3,AK,55.4499378,-131.1066847,13948,,50,https://www.kgbak.us,4,Ketchikan Gateway Borough,6542a2e8a129cb65b87a01ea,
65a603f5c769fa16f65911d4,AK,57.7044003,-153.9183721,13101,,50,http://www.kodiakak.us/,4,Kodiak Island Borough,6542a2e8a129cb65b87a01ea,"710 Mill Bay Rd, Kodiak, AK 99615, USA"
65a603f5c769fa16f65911d6,AK,62.2656263,-149.5039935,107081,,50,https://matsugov.us,4,Matanuska-Susitna Borough,6542a2e8a129cb65b87a01ea,
65a603f5c769fa16f65911d7,AK,69.4493427,-153.4728302,11031,,50,http://www.north-slope.org/,4,North Slope Borough,6542a2e8a129cb65b87a01ea,"1274 Agvik St, Utqiagvik, AK 99723, USA"
65a603f5c769fa16f65911d8,AK,67.0050655,-160.0210864,7793,,50,http://www.nwabor.org/,4,Northwest Arctic Borough,6542a2e8a129cb65b87a01ea,"163 Lagoon St, Kotzebue, AK 99752, USA"
65a603f5c769fa16f65911d9,AK,64.6760436,-146.5481586,95655,,50,https://www.fnsb.gov/,4,Fairbanks North Star Borough,6542a2e8a129cb65b87a01ea,
65a603f5c769fa16f65911da,AK,57.1124581,-133.0085979,3398,,50,https://www.petersburgak.gov/,4,Petersburg Borough,6542a2e8a129cb65b87a01ea,"12 S Nordic Dr, Petersburg, AK 99833, USA"
65a603f5c769fa16f65911dc,AK,57.1932044,-135.3673965,8458,,50,http://www.cityofsitka.com/,3,Sitka City and Borough,6542a2e8a129cb65b87a01ea,"100 Lincoln St, Sitka, AK 99835, USA"
65a603f5c769fa16f65911e1,AK,56.1807793,-132.0267878,2127,,50,http://www.wrangell.com/,3,Wrangell City and Borough,6542a2e8a129cb65b87a01ea,"205 Brueger St, Wrangell, AK 99929, USA"
65a603f5c769fa16f65911e2,AK,57.4412574,-134.4783574,357,3440,160,https://cityofangoon.org/,25,City of Angoon,,"700 Aandeinaatt St, Angoon, AK 99820, USA"
65a603f5c769fa16f65911e7,AK,60.793905,-161.7963225,6325,6520,160,http://www.cityofbethel.org,25,City of Bethel,,"300 State Hwy, Bethel, AK 99559, USA"
65a603f5c769fa16f65911e8,AK,66.9069009,-151.5379942,23,6630,160,http://commerce.alaska.gov/dca/commdb/CIS.cfm?Comm_Boro_Name=Bettles,25,City of Bettles,,"Bettles, AK 99726, USA"
65a603f5c769fa16f65911f0,AK,51.9098894,-176.5980669,171,65,160,https://adak-ak.gov/,25,City of Adak,,"100 Mechanic Rd b122, Adak, AK 99546, USA"
65a603f5c769fa16f65911f5,AK,59.2889609,-158.6643428,211,1420,160,https://aleknagikak.gov/,25,City of Aleknagik,,"33 Main St, Aleknagik, AK 99555, USA"
65a603f5c769fa16f65911f6,AK,60.530138,-145.6420649,2609,17410,160,http://www.cityofcordova.net/,25,City of Cordova,,"601 1st St, Cordova, AK 99574, USA"
65a603f5c769fa16f6591204,AK,64.8365307,-147.6517447,32515,24230,160,http://www.fairbanksalaska.us/,25,City of Fairbanks,65a603f5c769fa16f65911d9,"800 Cushman St, Fairbanks, AK 99701, USA"
65a603f5c769fa16f659120f,AK,58.3729099,-134.1784454,32255,36400,160,https://juneau.org,53,City and Borough of Juneau,65a603f5c769fa16f65911d1,"155 S Seward St, Juneau, AK 99801, USA"
65a603f5c769fa16f6591215,AK,60.5622396,-151.2080602,7424,38420,160,https://www.kenai.city/,25,City of Kenai,65a603f5c769fa16f65911d2,"210 Fidalgo Ave # 200, Kenai, AK 99611, USA"
65a603f5c769fa16f6591216,AK,55.3571445,-131.6745523,8192,38970,160,https://www.ktn-ak.us/,25,City of Ketchikan,65a603f5c769fa16f65911d3,"334 Front St, Ketchikan, AK 99901, USA"
65a603f5c769fa16f659121a,AK,59.6475029,-151.5130952,5522,33140,160,https://www.cityofhomer-ak.gov/,25,City of Homer,65a603f5c769fa16f65911d2,"491 E Pioneer Ave, Homer, AK 99603, USA"
65a603f5c769fa16f659121d,AK,57.7911917,-152.4197123,5581,40950,160,http://www.city.kodiak.ak.us,25,City of Kodiak,65a603f5c769fa16f65911d4,"710 Mill Bay Rd # 110, Kodiak, AK 99615, USA"
65a603f5c769fa16f6591231,AK,64.5057413,-165.4152873,3699,54920,160,http://www.nomealaska.org/,25,City of Nome,,"102 Division St, Nome, AK 99762, USA"
65a603f5c769fa16f659123b,AK,61.5971678,-149.1146791,5888,58660,160,https://www.palmerak.org,25,City of Palmer,65a603f5c769fa16f65911d6,"231 Evergreen Ave, Palmer, AK 99645, USA"
65a603f5c769fa16f6591256,AK,57.1932044,-135.3673965,8458,70540,160,http://www.cityofsitka.com/,53,City and Borough of Sitka,65a603f5c769fa16f65911dc,
65a603f5c769fa16f6591257,AK,60.4853176,-151.0690145,4342,71640,160,http://soldotna.org/,25,City of Soldotna,65a603f5c769fa16f65911d2,"177 N Birch St, Soldotna, AK 99669, USA"
65a603f5c769fa16f6591266,AK,61.5811357,-149.46079,9054,83080,160,https://www.cityofwasilla.gov/,25,City of Wasilla,65a603f5c769fa16f65911d6,"290 E Herning Ave, Wasilla, AK 99654, USA"
65a603f5c769fa16f6591274,AK,62.2638959,-163.9540226,2035,3,970,http://www.lysd.org/,0,Lower Yukon School District,6542a2e8a129cb65b87a01ea,"100 Airport Rd, Mountain Village, AK, 99632"
65a603f5c769fa16f6591277,AK,55.0912911,-162.0418988,211,7,970,http://www.aebsd.org,0,Aleutians East Borough School District,6542a2e8a129cb65b87a01ea,"100 Mossberry Ln, Sand Point, AK, 99661"
65a603f5c769fa16f6591278,AK,60.9184381,-161.1902224,471,4,970,http://www.yupiit.org,0,Yupiit School District,6542a2e8a129cb65b87a01ea,"1st Main St, Akiachak, AK, 99551"
65a603f5c769fa16f6591279,AK,61.527331,-165.5889316,339,5,970,http://www.chevakschool.org,0,Kashunamiut School District,6542a2e8a129cb65b87a01ea,"985 KSD Way, Chevak, AK, 99563"
65a603f5c769fa16f659127a,AK,60.3117944,-162.7267784,3970,1,970,https://www.lksd.org/,0,Lower Kuskokwim School District,6542a2e8a129cb65b87a01ea,"1004 Ron Edwards Memorial Dr, Bethel, AK, 99559"
65a603f5c769fa16f659127c,AK,53.862224,-166.0507063,16,10,970,http://www.aleutregion.org,0,Aleutian Region School District,6542a2e8a129cb65b87a01ea,"118 E International Airport Rd, Anchorage, AK, 99518"
65a603f5c769fa16f659127d,AK,64.6939629,-164.2622162,1830,20,970,https://www.bssd.org/,0,Bering Strait School District,6542a2e8a129cb65b87a01ea,"225 Main St, Unalakleet, AK, 99684"
65a603f5c769fa16f659127e,AK,58.6833908,-156.7799575,121,30,970,http://www.bbbsd.net,0,Bristol Bay Borough School District,6542a2e8a129cb65b87a01ea,"# 2 School Rd N, Naknek, AK, 99633"
65a603f5c769fa16f6591280,AK,62.4400812,-144.9127936,400,70,970,http://www.crsd.us,0,Copper River School District,6542a2e8a129cb65b87a01ea,"1976 Aurora Dr, Glennallen, AK, 99588"
65a603f5c769fa16f6591281,AK,55.4741831,-133.1395238,668,90,970,https://www.ccsd.k12.ak.us/,0,Craig City School District,6542a2e8a129cb65b87a01ea,"100 School Rd, Craig, AK, 99921"
65a603f5c769fa16f6591283,AK,58.3508139,-134.508332,4338,210,970,https://www.juneauschools.org/,0,Juneau Borough School District,6542a2e8a129cb65b87a01ea,"1208 Glacier Ave, Juneau, AK, 99801"
65a603f5c769fa16f6591284,AK,64.0124057,-145.6485807,938,100,970,https://www.dgsd.us/,0,Delta/Greely School District,6542a2e8a129cb65b87a01ea,"1664 N Clearwater, Delta Junction, AK, 99737"
65a603f5c769fa16f6591285,AK,64.7385981,-156.8848626,7177,130,970,https://www.galenaalaska.org/,0,Galena City School District,6542a2e8a129cb65b87a01ea,"299 Antoski Ave, Galena, AK, 99741"
65a603f5c769fa16f6591286,AK,59.1025016,-135.5741155,262,270,970,http://www.hbsd.net,0,Haines Borough School District,6542a2e8a129cb65b87a01ea,"604 Haines Hwy, Haines, AK, 99827"
65a603f5c769fa16f6591287,AK,57.0799761,-135.3315649,1120,240,970,https://www.sitkaschools.org/,0,Sitka School District,6542a2e8a129cb65b87a01ea,"300 Kostrometinoff St, Sitka, AK, 99835"
65a603f5c769fa16f6591288,AK,55.3346813,-131.3465246,2074,150,970,https://www.kgbsd.org/,0,Ketchikan Gateway Borough School District,6542a2e8a129cb65b87a01ea,"2610 Fourth Ave, Ketchikan, AK, 99901"
65a603f5c769fa16f6591289,AK,61.1936786,-149.769073,43727,180,970,https://www.asdk12.org/,0,Anchorage School District,6542a2e8a129cb65b87a01ea,"5530 E Northern Lights Blvd, Anchorage, AK, 99504"
65a603f5c769fa16f659128a,AK,60.1631478,-151.1125558,8528,390,970,https://kpbsd.org/,0,Kenai Peninsula Borough School District,6542a2e8a129cb65b87a01ea,"148 N Binkley St, Soldotna, AK, 99669"
65a603f5c769fa16f659128b,AK,58.1082716,-135.4325987,112,300,970,http://www.hoonahschools.org,0,Hoonah City School District,6542a2e8a129cb65b87a01ea,"366 Garteeni Hwy, Hoonah, AK, 99829"
65a603f5c769fa16f659128d,AK,57.6164486,-157.0139608,334,485,970,http://www.lpsd.com,0,Lake and Peninsula Borough School District,6542a2e8a129cb65b87a01ea,"101 Jensen Dr, King Salmon, AK, 99613"
65a603f5c769fa16f6591290,AK,57.9041085,-153.042685,2228,480,970,https://www.kibsd.org/,0,Kodiak Island Borough School District,6542a2e8a129cb65b87a01ea,"722 Mill Bay Rd, Kodiak, AK, 99615"
65a603f5c769fa16f6591291,AK,55.1148206,-131.5559056,311,525,970,http://www.aisdk12.org,0,Annette Island School District,6542a2e8a129cb65b87a01ea,"89A 4th Ave, Metlakatla, AK, 99926"
65a603f5c769fa16f6591292,AK,64.8197565,-147.5464891,12703,600,970,https://www.k12northstar.org/,0,Fairbanks North Star Borough School District,6542a2e8a129cb65b87a01ea,"520 Fifth Ave, Fairbanks, AK, 99701"
65a603f5c769fa16f6591294,AK,64.5016626,-165.397496,719,570,970,https://www.nomeschools.org/,0,Nome School District,6542a2e8a129cb65b87a01ea,"Mile 3.5 Nome-Teller Hwy, Nome, AK, 99762"
65a603f5c769fa16f6591295,AK,61.7533643,-149.4304783,19705,510,970,https://www.matsuk12.us/,0,Matanuska-Susitna Borough School District,6542a2e8a129cb65b87a01ea,"501 N Gulkana St, Palmer, AK, 99645"
65a603f5c769fa16f6591297,AK,57.9575886,-136.2221666,12,630,970,https://pelicanschool.org,0,Pelican City School District,6542a2e8a129cb65b87a01ea,"14 Chum Way, Pelican, AK, 99832"
65a603f5c769fa16f6591298,AK,70.3083867,-153.6058444,2044,610,970,https://www.nsbsd.org/,0,North Slope Borough School District,6542a2e8a129cb65b87a01ea,"829 Aivik St, Utqiagvik, AK, 99723"
65a603f5c769fa16f6591299,AK,66.7633378,-161.3965588,1911,625,970,https://www.nwarctic.org/,0,Northwest Arctic Borough School District,6542a2e8a129cb65b87a01ea,"776 Third Ave, Kotzebue, AK, 99752"
65a603f5c769fa16f659129a,AK,59.4745757,-135.3008225,152,690,970,http://www.skagwayschool.org,0,Skagway School District,6542a2e8a129cb65b87a01ea,"1563 Main St, Skagway, AK, 99840"
65a603f5c769fa16f659129b,AK,56.9265161,-133.1208332,438,660,970,http://www.pcsd.us,0,Petersburg Borough School District,6542a2e8a129cb65b87a01ea,"201 Charles W St, Petersburg, AK, 99833"
65a603f5c769fa16f659129c,AK,57.1292352,-170.2661555,57,670,970,http://www.pribilofsd.org,0,Pribilof School District,6542a2e8a129cb65b87a01ea,"930 Tolstoi Blvd, St. Paul Island, AK, 99660"
65a603f5c769fa16f659129d,AK,62.0446413,-163.2202139,203,680,970,http://www.smcsd.us,0,St. Marys City School District,6542a2e8a129cb65b87a01ea,"1 Dixon Circle, Saint Mary's, AK, 99658"
65a603f5c769fa16f659129e,AK,53.8905724,-166.5390816,346,720,970,http://www.ucsd.net,0,Unalaska City School District,6542a2e8a129cb65b87a01ea,"55 E Broadway St, Unalaska, AK, 99685"
65a603f5c769fa16f659129f,AK,59.0455554,-158.9252487,631,710,970,https://www.swrsd.org/,0,Southwest Region School District,6542a2e8a129cb65b87a01ea,"574 Kenny Wren Rd, Dillingham, AK, 99576"
65a603f5c769fa16f65912a0,AK,55.6827733,-133.1623885,170,700,970,http://www.sisd.org,0,Southeast Island School District,6542a2e8a129cb65b87a01ea,"1010 Sandy Beach Rd, Thorne Bay, AK, 99919"
65a603f5c769fa16f65912a2,AK,58.0583367,-135.4093322,147,730,970,http://www.chathamsd.org,0,Chatham School District,6542a2e8a129cb65b87a01ea,"500 Big Dog Salmon Way, Angoon, AK, 99820"
65a603f5c769fa16f65912a3,AK,61.5637115,-158.7525402,318,760,970,http://www.kuspuk.org,0,Kuspuk School District,6542a2e8a129cb65b87a01ea,"100 Boundary Ave, Aniak, AK, 99557"
65a603f5c769fa16f65912a4,AK,59.7539767,-140.1793425,92,840,970,http://www.yakutatschools.org,0,Yakutat School District,6542a2e8a129cb65b87a01ea,"429 Forest Hwy, Yakutat, AK, 99689"
65a603f5c769fa16f65912a5,AK,66.3182351,-146.7954942,197,775,970,http://yfsd.org,0,Yukon Flats School District,6542a2e8a129cb65b87a01ea,"123 Hill St, Ft. Yukon, AK, 99740"
65a603f5c769fa16f65912a6,AL,32.1017589,-85.7172613,10357,,50,https://www.bullockal.com/,6,Bullock County,6542a2e8a129cb65b87a01bd,"1539 County Rd, Union Springs, AL 36089, USA"
65a603f5c769fa16f65912a7,AK,61.1231305,-146.3069548,653,780,970,http://www.valdezcityschools.org/,0,Valdez City School District,6542a2e8a129cb65b87a01ea,"1112 W Klutina, Valdez, AK, 99686"
65a603f5c769fa16f65912a9,AL,32.9155039,-85.3940321,34772,,50,http://www.chamberscountyal.gov/,6,Chambers County,6542a2e8a129cb65b87a01bd,"2 Lafayette St S, La Fayette, AL 36862, USA"
65a603f5c769fa16f65912ab,AL,32.8540514,-86.7266071,45014,,50,https://chiltoncounty.org,6,Chilton County,6542a2e8a129cb65b87a01bd,"500 2nd Ave N, Clanton, AL 35045, USA"
65a603f5c769fa16f65912ac,AL,31.9909539,-88.2488894,12665,,50,https://www.choctawcountyal.org,6,Choctaw County,6542a2e8a129cb65b87a01bd,"117 S Mulberry Ave # 1, Butler, AL 36904, USA"
65a603f5c769fa16f65912ae,AL,33.2703999,-85.8635254,14236,,50,https://alabamaclaycounty.com/,6,Clay County,6542a2e8a129cb65b87a01bd,"75070 AL-9, Ashland, AL 36251, USA"
65a603f5c769fa16f65912b0,AL,33.6719637,-85.5161261,15056,,50,https://www.cleburnecounty.us/,6,Cleburne County,6542a2e8a129cb65b87a01bd,"6751 US-78, Heflin, AL 36264, USA"
65a603f5c769fa16f65912b1,AL,31.402258,-85.9896022,53465,,50,http://www.coffeecounty.us/,6,Coffee County,6542a2e8a129cb65b87a01bd,"2, County complex, New Brockton, AL 36351, USA"
65a603f5c769fa16f65912b2,AL,34.703112,-87.8014569,57227,,50,http://www.colbertcounty.org/,6,Colbert County,6542a2e8a129cb65b87a01bd,"201 N Main St, Tuscumbia, AL 35674, USA"
65a603f5c769fa16f65912b3,AL,30.6592183,-87.7460666,231767,,50,http://www.baldwincountyal.gov/,6,Baldwin County,6542a2e8a129cb65b87a01bd,"Foley, AL 36535, USA"
65a603f5c769fa16f65912b6,AL,34.1319229,-86.8692666,87866,,50,http://www.co.cullman.al.us/,6,Cullman County,6542a2e8a129cb65b87a01bd,"500 2nd Ave SW, Cullman, AL 35055, USA"
65a603f5c769fa16f65912b7,AL,31.4306536,-85.609476,49326,,50,http://www.dalecountyal.org/,6,Dale County,6542a2e8a129cb65b87a01bd,"202 AL-123, Ozark, AL 36360, USA"
65a603f5c769fa16f65912b8,AL,32.3335263,-87.11436,38462,,50,http://www.dallascounty-al.org,6,Dallas County,6542a2e8a129cb65b87a01bd,"102 Church St #104, Selma, AL 36701, USA"
65a603f5c769fa16f65912b9,AL,34.4609148,-85.8040207,71608,,50,https://dekalbcountyal.us,6,DeKalb County,6542a2e8a129cb65b87a01bd,"2401 Calvin Dr SW, 2401 Calvin Dr. S W, Fort Payne, AL 35967, USA"
65a603f5c769fa16f65912bc,AL,34.0476407,-86.0342629,103436,,50,https://etowahcounty.org,6,Etowah County,6542a2e8a129cb65b87a01bd,"801 Forrest Ave # 103, Gadsden, AL 35901, USA"
65a603f5c769fa16f65912bd,AL,33.7161568,-87.7642923,16321,,50,https://fayetteal.org/,6,Fayette County,6542a2e8a129cb65b87a01bd,"103 1st Ave NW #2, Fayette, AL 35555, USA"
65a603f5c769fa16f65912bf,AL,31.0923822,-85.8210224,26659,,50,https://genevacountyal.gov,6,Geneva County,6542a2e8a129cb65b87a01bd,"200 N Commerce St, Geneva, AL 36340, USA"
65a603f5c769fa16f65912c1,AL,32.7527958,-87.6230608,14785,,50,https://www.halecountyal.gov,6,Hale County,6542a2e8a129cb65b87a01bd,"1001 Main St, Greensboro, AL 36744, USA"
65a603f5c769fa16f65912c2,AL,32.5322367,-86.6464395,58805,,50,http://www.autaugaco.org/,6,Autauga County,6542a2e8a129cb65b87a01bd,"218 N Court St, Prattville, AL 36067, USA"
65a603f5c769fa16f65912c4,AL,31.8702531,-85.4051035,25223,,50,https://barbour.alacourt.gov/,6,Barbour County,6542a2e8a129cb65b87a01bd,"113 Court Sq, Clayton, AL 36016, USA"
65a603f5c769fa16f65912c5,AL,33.0158929,-87.1271475,22293,,50,https://bibbal.com/,6,Bibb County,6542a2e8a129cb65b87a01bd,"157 SW Davidson Dr, Centreville, AL 35042, USA"
65a603f5c769fa16f65912c6,AL,33.9773575,-86.56644,59134,,50,https://blountcountyal.gov/,6,Blount County,6542a2e8a129cb65b87a01bd,"306 2nd Ave, Hayden, AL 35079, USA"
65a603f5c769fa16f65912c7,AL,32.9314453,-86.2434818,10387,,50,https://www.coosacountyal.com/,6,Coosa County,6542a2e8a129cb65b87a01bd,"100 Main St, Rockford, AL 35136, USA"
65a603f5c769fa16f65912c8,AL,31.4309257,-86.9887221,11597,,50,https://www.conecuhcounty.us/,6,Conecuh County,6542a2e8a129cb65b87a01bd,"Conecuh County Government Center, 111 Court St, Evergreen, AL 36401, USA"
65a603f5c769fa16f65912c9,AL,31.2439873,-86.4487206,37570,,50,http://www.covcounty.com,6,Covington County,6542a2e8a129cb65b87a01bd,"290 Hillcrest Dr, Andalusia, AL 36420, USA"
65a603f5c769fa16f65912ca,AK,56.3153069,-132.3431702,264,810,970,http://www.wpsd.us/,0,Wrangell School District,6542a2e8a129cb65b87a01ea,"350 Bennett St, Wrangell, AK, 99929"
65a603f5c769fa16f65912cb,AK,60.7200175,-146.7261132,637,800,970,https://www.chugachschooldistrict.com,0,Chugach School District,6542a2e8a129cb65b87a01ea,"9312 Vanguard Dr Ste 100, Anchorage, AK, 99507"
65a603f5c769fa16f65912cc,AL,33.7870852,-88.0874309,13972,,50,https://www.sos.alabama.gov/city-county-lookup/lamar,6,Lamar County,6542a2e8a129cb65b87a01bd,"1118 Co Rd 9, Vernon, AL 35592, USA"
65a603f5c769fa16f65912cd,AL,32.3870267,-85.692887,19532,,50,https://maconalabama.com/,6,Macon County,6542a2e8a129cb65b87a01bd,
65a603f5c769fa16f65912cf,AL,32.2475911,-87.791091,19323,,50,https://www.marengocountyal.com/,6,Marengo County,6542a2e8a129cb65b87a01bd,"101 E Coats Ave, Linden, AL 36748, USA"
65a603f5c769fa16f65912d0,AL,34.3095637,-86.3216681,97612,,50,https://www.marshallal.gov,6,Marshall County,6542a2e8a129cb65b87a01bd,"3850 Eddy Scant City Rd, Arab, AL 35016, USA"
65a603f5c769fa16f65912d1,AL,30.6845725,-88.1965682,414809,,50,https://www.mobilecountyal.gov,6,Mobile County,6542a2e8a129cb65b87a01bd,"205 Government St #8, Mobile, AL 36602, USA"
65a603f5c769fa16f65912d2,AL,31.5803324,-87.3832656,19772,,50,https://www.monroecountyal.com/,6,Monroe County,6542a2e8a129cb65b87a01bd,"160 Wilcox St, Monroeville, AL 36460, USA"
65a603f5c769fa16f65912d4,AL,34.4544844,-86.8464021,123421,,50,https://morgancounty-al.gov/,6,Morgan County,6542a2e8a129cb65b87a01bd,"302 Lee St NE, Decatur, AL 35601, USA"
65a603f5c769fa16f65912d5,AL,32.6390053,-87.2938269,8511,,50,https://www.perrycountyal.gov/,6,Perry County,6542a2e8a129cb65b87a01bd,"300 Washington St, Marion, AL 36756, USA"
65a603f5c769fa16f65912d7,AL,31.7986533,-85.9416076,33009,,50,https://www.pikecommission.com,6,Pike County,6542a2e8a129cb65b87a01bd,"900 S Franklin Dr, Troy, AL 36081, USA"
65a603f5c769fa16f65912d8,AL,33.2964614,-85.4640637,21967,,50,https://randolphcountyal.gov/,6,Randolph County,6542a2e8a129cb65b87a01bd,
65a603f5c769fa16f65912da,AL,34.9041221,-87.6509966,93564,,50,https://lauderdalecountyal.gov/,6,Lauderdale County,6542a2e8a129cb65b87a01bd,"200 S Court St # 303, Florence, AL 35630, USA"
65a603f5c769fa16f65912db,AL,34.529776,-87.3218651,33073,,50,http://www.lawrencecountyal.org,6,Lawrence County,6542a2e8a129cb65b87a01bd,"14451 Market St, Moulton, AL 35650, USA"
65a603f5c769fa16f65912dd,AL,34.8102387,-86.9813995,103570,,50,https://www.limestonecounty-al.gov,6,Limestone County,6542a2e8a129cb65b87a01bd,"310 W Washington St, Athens, AL 35611, USA"
65a603f5c769fa16f65912de,AL,32.147888,-86.6505859,10311,,50,https://www.lowndes-al.gov/,6,Lowndes County,6542a2e8a129cb65b87a01bd,"105 E Tuskeena St, Hayneville, AL 36040, USA"
65a603f5c769fa16f65912df,AL,31.1581831,-85.2964111,107202,,50,https://houstoncountyal.gov,6,Houston County,6542a2e8a129cb65b87a01bd,"462 N Oates St, Dothan, AL 36303, USA"
65a603f5c769fa16f65912e0,AL,31.1222867,-87.1684097,36757,,50,https://www.escambiacountyal.gov/,6,Escambia County,6542a2e8a129cb65b87a01bd,
65a603f5c769fa16f65912e2,AL,33.5534439,-86.8965359,674721,,50,http://www.jccal.org/,6,Jefferson County,6542a2e8a129cb65b87a01bd,"716 Richard Arrington Jr Blvd N, Birmingham, AL 35203, USA"
65a603f5c769fa16f65912e3,AL,34.764114,-85.9800556,52579,,50,https://www.jacksoncountyal.gov,6,Jackson County,6542a2e8a129cb65b87a01bd,"305 S Scott St # 21, Scottsboro, AL 35768, USA"
65a603f5c769fa16f65912e5,AL,33.7194907,-86.3113273,91103,,50,http://www.stclairco.com,6,Saint Clair County,6542a2e8a129cb65b87a01bd,"213 Fox Hollow Blvd, Pell City, AL 35125, USA"
65a603f5c769fa16f65912e6,AL,33.2630428,-86.6780894,223024,,50,http://www.shelbyal.com/,6,Shelby County,6542a2e8a129cb65b87a01bd,"200 W College St, Columbiana, AL 35051, USA"
65a603f5c769fa16f65912e8,AL,32.8633076,-85.7996176,41311,,50,https://tallaco.com,6,Tallapoosa County,6542a2e8a129cb65b87a01bd,"125 N Broadnax St, Dadeville, AL 36853, USA"
65a603f5c769fa16f65912e9,AL,33.3693135,-86.1759302,82149,,50,http://talladegacountyal.org/,6,Talladega County,6542a2e8a129cb65b87a01bd,"1 Court Sq S, Talladega, AL 35160, USA"
65a603f5c769fa16f65912ea,AL,33.7915581,-87.3010936,65342,,50,https://www.walkercountyal.us,6,Walker County,6542a2e8a129cb65b87a01bd,"1801 3rd Ave #113, Jasper, AL 35501, USA"
65a603f5c769fa16f65912eb,AL,33.2902197,-87.5227834,227036,,50,http://www.tuscco.com/,6,Tuscaloosa County,6542a2e8a129cb65b87a01bd,
65a603f5c769fa16f65912ec,AL,34.1545665,-87.3653458,23540,,50,https://www.sos.alabama.gov/city-county-lookup/winston,6,Winston County,6542a2e8a129cb65b87a01bd,
65a603f5c769fa16f65912ee,AL,31.9900824,-87.3049349,10600,,50,https://wilcoxcountyal.org/,6,Wilcox County,6542a2e8a129cb65b87a01bd,"Wilcox County Courthouse Annex, 12 Water St # 200, Camden, AL 36726, USA"
65a603f5c769fa16f6591309,AL,32.4325631,-86.6587521,795,3220,160,https://autaugavilleal.com/,43,Town of Autaugaville,65a603f5c769fa16f65912c2,"109 N Taylor St, Autaugaville, AL 36003, USA"
65a603f5c769fa16f6591313,AL,34.2554809,-87.7133988,1047,4852,160,,43,Town of Bear Creek,65b98e57c8974c409c5c61e2,"340 Main St, Bear Creek, AL 35543, USA"
65a603f5c769fa16f6591314,AL,34.1953957,-86.7436181,476,5812,160,https://berlinal.gov,43,Town of Berlin,65a603f5c769fa16f65912b6,"461 Co Rd 1615, Cullman, AL 35058, USA"
65a603f5c769fa16f659131b,AL,31.6635156,-85.5035265,84,7672,160,http://www.alapark.com/BlueSprings/,43,Town of Blue Springs,65a603f5c769fa16f65912c4,"2571 AL-10, Clio, AL 36017, USA"
65a603f5c769fa16f6591322,AL,31.5819924,-86.2567836,825,9016,160,http://www.townofbrantley.org/,43,Town of Brantley,6542a314a129cb65b87a565b,"10 Martin Luther King Dr, Brantley, AL 36009, USA"
65a603f5c769fa16f659132d,AL,33.6472903,-86.9306366,52,12040,160,,43,Town of Cardiff,65a603f5c769fa16f65912e2,"4828 Main St, Adamsville, AL 35005, USA"
65a603f5c769fa16f65913a8,AL,34.3679473,-86.2523225,8553,32416,160,https://guntersvilleal.org,25,City of Guntersville,65a603f5c769fa16f65912d0,"341 Gunter Ave, Guntersville, AL 35976, USA"
65a603f5c769fa16f65913ae,AL,34.1387129,-87.9708334,7042,32848,160,http://www.hamiltoncityal.org,25,City of Hamilton,65b98e57c8974c409c5c61e2,"736 Military St S, Hamilton, AL 35570, USA"
65a603f5c769fa16f65913b3,AL,34.4404338,-86.9403642,15455,33448,160,https://www.hartselle.org/,25,City of Hartselle,65a603f5c769fa16f65912d4,"611 Chestnut St NW, Hartselle, AL 35640, USA"
65a603f5c769fa16f65913b7,AL,33.4585496,-86.8096502,26414,35800,160,https://www.cityofhomewood.com/,25,City of Homewood,65a603f5c769fa16f65912e2,"2850 19th St S, Homewood, AL 35209, USA"
65a603f5c769fa16f65913b8,AL,33.3769487,-86.8055789,92606,35896,160,http://www.hooveral.org/,25,City of Hoover,65a603f5c769fa16f65912e2,"100 Municipal Dr, Hoover, AL 35216, USA"
65a603f5c769fa16f65913ba,AL,33.4086036,-87.0165645,16776,36448,160,https://www.hueytownal.gov/,25,City of Hueytown,65a603f5c769fa16f65912e2,"1322 Hueytown Rd, Hueytown, AL 35023, USA"
65a603f5c769fa16f65913c0,AL,33.5399144,-86.6590824,13497,37864,160,https://cityofirondaleal.gov/,25,City of Irondale,65a603f5c769fa16f65912e2,"101 20th St S, Irondale, AL 35210, USA"
65a603f5c769fa16f65913c3,AL,33.8100663,-85.7552174,14385,38272,160,https://www.jacksonville-al.org/,25,City of Jacksonville,65b98e47c8974c409c5c61ce,"320 Church Ave SE, Jacksonville, AL 36265, USA"
65a603f5c769fa16f65913c4,AL,33.2834239,-86.8791769,20914,34024,160,https://www.cityofhelena.org/,25,City of Helena,65a603f5c769fa16f65912e6,"816 Hwy 52 W, Helena, AL 35080, USA"
65a603f5c769fa16f65913c5,AL,33.8560346,-87.2702683,14572,38416,160,https://www.jaspercity.com/,25,City of Jasper,65a603f5c769fa16f65912ea,"400 19th St W, Jasper, AL 35501, USA"
65a603f5c769fa16f65913db,AL,32.8577677,-85.2077611,6970,41296,160,http://www.cityoflanett.com,25,City of Lanett,65a603f5c769fa16f65912a9,"401 N Lanier Ave, Lanett, AL 36863, USA"
65a603f5c769fa16f65913dd,AL,33.546847,-86.5714476,12324,41968,160,https://www.leedsalabama.gov/,25,City of Leeds,65a603f5c769fa16f65912e2,"1400 9th St NE, Leeds, AL 35094, USA"
65a603f5c769fa16f65913e4,AL,33.5801687,-86.1278758,6845,43120,160,http://www.lincolnalabama.com/,25,City of Lincoln,65a603f5c769fa16f65912e9,"150 Magnolia St, Lincoln, AL 35096, USA"
65a603f5c769fa16f6591403,AL,32.5014739,-86.3739136,16564,48712,160,https://cityofmillbrook.org/,25,City of Millbrook,6542a31ba129cb65b87a6a23,
65a603f5c769fa16f6591405,AL,31.6211991,-88.3279562,450,48832,160,https://millryal.wordpress.com/,43,Town of Millry,65b98a36f5107303ca83c405,"105 2ND Ave, Rail Road Rd, Millry, AL 36558, USA"
65a603f5c769fa16f6591406,AL,30.668426,-88.1002261,187041,50000,160,http://www.cityofmobile.org,25,City of Mobile,65a603f5c769fa16f65912d1,"Mobile Government Plaza, 205 Government St, Mobile, AL 36602, USA"
65a603f5c769fa16f6591407,AL,31.5162233,-87.3277136,5951,50192,160,https://www.monroevilleal.gov/,25,City of Monroeville,65a603f5c769fa16f65912d2,"125 E Claiborne St, Monroeville, AL 36460, USA"
65a603f5c769fa16f6591408,AL,33.1260535,-86.847702,7229,50312,160,http://www.cityofmontevallo.com,25,City of Montevallo,65a603f5c769fa16f65912e6,"541 Main St, Montevallo, AL 35115, USA"
65a603f5c769fa16f6591409,AL,32.3485029,-86.2673072,200603,51000,160,http://www.montgomeryal.gov/,25,City of Montgomery,65b98a2ef5107303ca83c3fc,"103 N Perry St, Montgomery, AL 36104, USA"
65a603f5c769fa16f659140a,AL,33.6034288,-86.493786,13170,51096,160,https://www.moodyalabama.gov/,25,City of Moody,65a603f5c769fa16f65912e5,"670 Park Ave, Moody, AL 35004, USA"
65a603f5c769fa16f6591412,AL,33.4914885,-86.7344699,22461,51696,160,http://www.mtnbrook.org,25,City of Mountain Brook,65a603f5c769fa16f65912e2,"56 Church St, Mountain Brook, AL 35213, USA"
65a603f5c769fa16f6591413,AL,34.7431698,-87.6337614,16275,53016,160,https://www.cityofmuscleshoals.com/,25,City of Muscle Shoals,65a603f5c769fa16f65912b2,"2010 E Avalon Ave, Muscle Shoals, AL 35661, USA"
65a603f5c769fa16f6591421,AL,33.2575649,-87.5963958,31125,55200,160,http://www.cityofnorthport.org/,25,City of Northport,65a603f5c769fa16f65912eb,"3500 McFarland Blvd, Northport, AL 35476, USA"
65a603f5c769fa16f659142a,AL,33.9470381,-86.4897933,6938,57000,160,http://www.cityofoneonta.us/,25,City of Oneonta,65a603f5c769fa16f65912c6,"202 3rd Ave E, Oneonta, AL 35121, USA"
65a603f5c769fa16f659142c,AL,32.6613899,-85.3763247,30995,57048,160,https://www.opelika-al.gov/,25,City of Opelika,65b98a1df5107303ca83c3e4,"204 S 7th St, Opelika, AL 36801, USA"
65a603f5c769fa16f659142d,AL,31.2843753,-86.2574417,6771,57120,160,http://www.cityofopp.com/,25,City of Opp,65a603f5c769fa16f65912c9,"101 N Main St, Opp, AL 36467, USA"
65a603f5c769fa16f659142e,AL,30.2939866,-87.5953711,8095,57144,160,https://www.orangebeachal.gov/,25,City of Orange Beach,65a603f5c769fa16f65912b3,"4099 Orange Beach Blvd, Orange Beach, AL 36561, USA"
65a603f5c769fa16f6591431,AL,33.5973661,-85.8681325,22069,57576,160,https://www.oxfordal.gov/,25,City of Oxford,65a603f5c769fa16f65912e9,"145 Hamric Dr E, Oxford, AL 36203, USA"
65a603f5c769fa16f6591432,AL,31.4516146,-85.6450347,14368,57648,160,https://www.ozarkal.gov/,25,City of Ozark,65a603f5c769fa16f65912b7,"275 N Union Ave, Ozark, AL 36360, USA"
65a603f5c769fa16f6591435,AL,33.5603118,-86.2636337,12939,58896,160,https://pell-city.com/,25,City of Pell City,65a603f5c769fa16f65912e5,
65a603f5c769fa16f6591436,AL,33.3218302,-86.7421974,24318,58848,160,https://pelhamalabama.gov/,25,City of Pelham,65a603f5c769fa16f65912e6,"3162 Pelham Pkwy, Pelham, AL 35124, USA"
65a603f5c769fa16f659143a,AL,32.4616695,-85.0250208,38816,59472,160,https://phenixcityal.us,25,City of Phenix City,65b98a1df5107303ca83c3e4,"601 12th St, Phenix City, AL 36867, USA"
65a603f5c769fa16f659143b,AL,34.3515467,-87.7073592,992,59496,160,https://www.philcampbellal.com/,43,Town of Phil Campbell,65b98a37f5107303ca83c407,"580 Railroad St, Phil Campbell, AL 35581, USA"
65a603f5c769fa16f659143e,AL,32.2736095,-86.1189274,9439,59760,160,http://www.pikeroad.us,43,Town of Pike Road,65b98a2ef5107303ca83c3fc,"9575 Vaughn Rd, Pike Rd, AL 36064, USA"
65a603f5c769fa16f6591443,AL,33.7032913,-86.6697408,7215,60648,160,http://www.thecityofpinson.com/,25,City of Pinson,65a603f5c769fa16f65912e2,"4410 Main St, Pinson, AL 35126, USA"
65a603f5c769fa16f6591445,AL,33.4939687,-86.9781455,9544,61008,160,http://www.cityofpg.com,25,City of Pleasant Grove,65a603f5c769fa16f65912e2,"501 Park Rd, Pleasant Grove, AL 35127, USA"
65a603f5c769fa16f6591446,AL,34.7376193,-86.1976368,426,61038,160,,43,Town of Pleasant Groves,65a603f5c769fa16f65912e3,"501 Park Rd, Pleasant Grove, AL 35127, USA"
65a603f5c769fa16f6591449,AL,32.4490416,-86.4494009,37781,62328,160,https://prattvilleal.gov,25,City of Prattville,65a603f5c769fa16f65912c2,"101 W Main St, Prattville, AL 36067, USA"
65a603f5c769fa16f659144b,AL,30.7733374,-88.1314164,19322,62496,160,https://thecityofprichard.org/,25,City of Prichard,65a603f5c769fa16f65912d1,"216 E Prichard Ave, Mobile, AL 36610, USA"
65a603f5c769fa16f659144e,AL,33.9287768,-86.0842282,10191,63288,160,https://www.rbcalabama.com/,25,City of Rainbow City,65a603f5c769fa16f65912bc,"3700 Rainbow Dr, Rainbow City, AL 35906, USA"
65a603f5c769fa16f659145d,AL,30.557139,-87.7047227,6708,65208,160,http://www.robertsdale.org,25,City of Robertsdale,65a603f5c769fa16f65912b3,
65a603f5c769fa16f6591461,AL,32.4169832,-87.0357021,17971,69120,160,https://selma-al.gov/,25,City of Selma,65a603f5c769fa16f65912b8,"222 Broad St, Selma, AL 36701, USA"
65a603f5c769fa16f6591462,AL,30.8223579,-88.2201359,4941,69240,160,https://cityofsemmesal.gov,25,City of Semmes,65a603f5c769fa16f65912d1,"1 Main St, Semmes, AL 36575, USA"
65a603f5c769fa16f6591463,AL,34.757028,-87.6981825,9403,69648,160,http://www.sheffieldalabama.org/,25,City of Sheffield,65a603f5c769fa16f65912b2,"600 N Montgomery Ave, Sheffield, AL 35660, USA"
65a603f5c769fa16f6591466,AL,34.5057191,-87.7281226,10855,67056,160,https://www.russellvilleal.org/,25,City of Russellville,65b98a37f5107303ca83c407,"304 N Jackson Ave, Russellville, AL 35653, USA"
65a603f5c769fa16f659146b,AL,32.5071588,-85.0810754,5384,71190,160,https://www.smithsstational.gov,25,City of Smiths Station,65b98a1df5107303ca83c3e4,"2336 Lee Rd #430, Smiths Station, AL 36877, USA"
65a603f5c769fa16f659146e,AL,33.8908407,-86.0180201,9426,71832,160,https://cityofsouthside.com,25,City of Southside,65a603f5c769fa16f65912bc,"2255 AL-77, Southside, AL 35907, USA"
65a603f5c769fa16f6591470,AL,30.7229675,-87.8659165,10049,71976,160,https://www.cityofspanishfort.com/,25,City of Spanish Fort,65a603f5c769fa16f65912b3,"7361 Spanish Fort Blvd, Spanish Fort, AL 36527, USA"
65a603f5c769fa16f659147a,AL,33.1886699,-86.2747992,12578,74352,160,http://www.cityofsylacauga.net/,25,City of Sylacauga,65a603f5c769fa16f65912e9,"301 N Broadway Ave, Sylacauga, AL 35150, USA"
65a603f5c769fa16f659147d,AL,33.4317569,-86.0994543,15861,74592,160,https://www.talladega.com/,25,City of Talladega,65a603f5c769fa16f65912e9,"203 South St W, Talladega, AL 35160, USA"
65a603f5c769fa16f659147e,AL,33.1204519,-86.4377611,144,74616,160,http://www.talladega.com/,43,Town of Talladega Springs,65a603f5c769fa16f65912e9,
65a603f5c769fa16f6591480,AL,33.5928973,-86.7662525,6124,74976,160,https://www.cityoftarrant.com,25,City of Tarrant,65a603f5c769fa16f65912e2,"1133 E Lake Blvd, Birmingham, AL 35217, USA"
65a603f5c769fa16f6591486,AL,30.85401,-88.0972017,16171,68160,160,https://saraland.org/,25,City of Saraland,65a603f5c769fa16f65912d1,"943 Saraland Blvd S, Saraland, AL 36571, USA"
65a603f5c769fa16f659148a,AL,31.8019595,-85.9671296,17727,76920,160,https://www.troyal.gov/,25,City of Troy,65a603f5c769fa16f65912d7,"306 E Academy St, Troy, AL 36081, USA"
65a603f5c769fa16f659148b,AL,33.6552328,-86.5632391,26123,76944,160,https://trussville.org,25,City of Trussville,65a603f5c769fa16f65912e5,
65a603f5c769fa16f659148c,AL,33.2344041,-87.5283003,99600,77256,160,http://www.tuscaloosa.com,25,City of Tuscaloosa,65a603f5c769fa16f65912eb,"2201 University Blvd, Tuscaloosa, AL 35401, USA"
65a603f5c769fa16f659148d,AL,34.7185022,-87.7025864,9054,77280,160,https://cityoftuscumbia.org,25,City of Tuscumbia,65a603f5c769fa16f65912b2,"116 E 6th St, Tuscumbia, AL 35674, USA"
65a603f5c769fa16f659148e,AL,32.4187228,-85.6825088,9395,77304,160,http://www.tuskegeealabama.gov/,25,City of Tuskegee,65a603f5c769fa16f65912cd,"101 Fonville St, Tuskegee, AL 36083, USA"
65a603f5c769fa16f6591494,AL,32.801427,-85.2044375,10529,78204,160,https://cityofvalley.com/,25,City of Valley,65a603f5c769fa16f65912a9,"20 Fob James Dr, Valley, AL 36854, USA"
65a603f5c769fa16f6591495,AL,34.6446199,-86.0481547,15578,68736,160,https://cityofscottsboro.com/,25,City of Scottsboro,65a603f5c769fa16f65912e3,"316 S Broad St, Scottsboro, AL 35768, USA"
65a603f5c769fa16f6591497,AL,30.8578741,-88.0633829,6749,68352,160,https://cityofsatsuma.com,25,City of Satsuma,65a603f5c769fa16f65912d1,
65a603f5c769fa16f659149a,AL,34.5562044,-85.6230436,577,78240,160,,43,Town of Valley Head,65a603f5c769fa16f65912b9,
65a603f5c769fa16f659149d,AL,32.4868717,-87.0327731,4190,78232,160,https://cityofvalley.com,25,City of Valley Grande,65a603f5c769fa16f65912b8,"5914 AL-22, Valley Grande, AL 36701, USA"
65a603f5c769fa16f65914a1,AL,33.4624959,-86.7395079,39102,78552,160,vhal.org,25,City of Vestavia Hills,65a603f5c769fa16f65912e2,"1032 Montgomery Hwy, Vestavia Hills, AL 35216, USA"
65a603f5c769fa16f65914b3,AL,32.5403765,-86.2069992,7220,81720,160,http://www.cityofwetumpka.com,25,City of Wetumpka,6542a31ba129cb65b87a6a23,"408 S Main St, Wetumpka, AL 36092, USA"
65a603f5c769fa16f65914ba,AL,31.3646765,-85.7254175,4480,1,970,https://www.dodea.edu/americas/southeast/fort-novosel-schools,0,Fort Rucker School District,6542a2e8a129cb65b87a01bd,
65a603f5c769fa16f65914bc,AL,34.3598046,-86.3394968,5951,6,970,https://www.marshallk12.org/,0,Marshall County School District,6542a2e8a129cb65b87a01bd,"12380 US Highway 431 S, Guntersville, AL, 35976"
65a603f5c769fa16f65914be,AL,32.3805982,-86.3469905,2124,3,970,https://maxwellafbems.dodea.edu/,0,Maxwell AFB School District,6542a2e8a129cb65b87a01bd,
65a603f5c769fa16f65914bf,AL,34.2002987,-86.1560019,2471,12,970,https://www.boazk12.org/,0,Boaz City School District,6542a2e8a129cb65b87a01bd,"126 Newt Parker Dr, Boaz, AL, 35957"
65a603f5c769fa16f65914c0,AL,34.7914142,-86.9606292,4840,120,970,https://www.acs-k12.org/,0,Athens City School District,6542a2e8a129cb65b87a01bd,"455 US Highway 31 North, Athens, AL, 35611"
65a603f5c769fa16f65914c1,AL,33.3853186,-86.802373,13557,7,970,https://www.hoovercityschools.net/,0,Hoover City School District,6542a2e8a129cb65b87a01bd,"2810 Metropolitan Way, Hoover, AL, 35243"
65a603f5c769fa16f65914c2,AL,30.8347541,-88.0970819,3354,185,970,https://www.saralandboe.org/,0,Saraland City School District,6542a2e8a129cb65b87a01bd,"4010 Lil Spartan Drive, Saraland, AL, 36571"
65a603f5c769fa16f65914c3,AL,30.7648397,-88.0836878,2654,188,970,https://www.chickasawschools.com/,0,Chickasaw City School District,6542a2e8a129cb65b87a01bd,"201 N Craft HWY, Chickasaw, AL, 36611"
65a603f5c769fa16f65914c4,AL,30.8551328,-88.0557122,1502,189,970,https://www.satsumaschools.com/,0,Satsuma City School District,6542a2e8a129cb65b87a01bd,"220 Baker Road, Satsuma, AL, 36572"
65a603f5c769fa16f65914c5,AL,33.2284871,-86.8234468,6425,190,970,https://www.acsboe.org/,0,Alabaster City School District,6542a2e8a129cb65b87a01bd,"10111 Highway 119, Alabaster, AL, 35007"
65a603f5c769fa16f65914c6,AL,33.305749,-86.7875315,3425,194,970,https://www.pelhamcityschools.org/,0,Pelham City School District,6542a2e8a129cb65b87a01bd,"3160 Pelham Parkway, Pelham, AL, 35124"
65a603f5c769fa16f65914c7,AL,32.32988,-86.0880737,2695,195,970,https://www.pikeroadschools.org/,0,Pike Road City School District,6542a2e8a129cb65b87a01bd,"9045 Vaughn Road, Montgomery, AL, 36117"
65a603f5c769fa16f65914c8,AL,32.6011992,-85.4872562,9492,210,970,https://www.auburnschools.org/,0,Auburn City School District,6542a2e8a129cb65b87a01bd,"855 E Samford Ave, Auburn, AL, 36830"
65a603f5c769fa16f65914c9,AL,32.5165176,-86.5614831,9202,240,970,https://www.acboe.net/,0,Autauga County School District,6542a2e8a129cb65b87a01bd,"153 W 4th St, Prattville, AL, 36067"
65a603f5c769fa16f65914ca,AL,30.5625225,-87.7555207,31517,270,970,https://www.bcbe.org/,0,Baldwin County School District,6542a2e8a129cb65b87a01bd,"2600 North Hand Ave, Bay Minette, AL, 36507"
65a603f5c769fa16f65914cb,AL,31.8141795,-85.4231615,715,300,970,https://www.barbourcountyschools.org/,0,Barbour County School District,6542a2e8a129cb65b87a01bd,"168 Western Bypass, Clayton, AL, 36016"
65a603f5c769fa16f65914cc,AL,33.3918493,-86.9585359,3246,330,970,https://www.bessk12.org/,0,Bessemer City School District,6542a2e8a129cb65b87a01bd,"1621 5th Ave N, Bessemer, AL, 35020"
65a603f5c769fa16f65914cd,AL,34.7123015,-86.7570537,12473,8,970,https://www.madisoncity.k12.al.us/,0,Madison City School District,6542a2e8a129cb65b87a01bd,"211 Celtic Drive, Madison, AL, 35758"
65a603f5c769fa16f65914cf,AL,33.9661998,-86.5980146,7798,420,970,https://www.blountboe.net/,0,Blount County School District,6542a2e8a129cb65b87a01bd,"204 2nd Ave East, Oneonta, AL, 35121"
65a603f5c769fa16f65914d0,AL,31.1158616,-87.0730792,1224,450,970,https://www.brewtoncityschools.org/,0,Brewton City School District,6542a2e8a129cb65b87a01bd,"811 Belleville Ave, Brewton, AL, 36426"
65a603f5c769fa16f65914d1,AL,32.0974751,-85.7044614,1397,480,970,https://www.bullockco.org/,0,Bullock County School District,6542a2e8a129cb65b87a01bd,"108 Hardaway Avenue, Union Springs, AL, 36089"
65a603f5c769fa16f65914d2,AL,31.7419758,-86.6645193,2900,510,970,https://www.butlerco.k12.al.us/,0,Butler County School District,6542a2e8a129cb65b87a01bd,"211 School Highlands Road, Greenville, AL, 36037"
65a603f5c769fa16f65914d3,AL,33.7449969,-85.8488488,8050,540,970,https://www.calhouncountyschools.com/,0,Calhoun County School District,6542a2e8a129cb65b87a01bd,"4400 McClellan Blvd, Anniston, AL, 36206"
65a603f5c769fa16f65914d4,AL,32.8721554,-85.3222296,3158,600,970,https://www.chambersk12.org/,0,Chambers County School District,6542a2e8a129cb65b87a01bd,"1298  AVC Drive, Lafayette, AL, 36862"
65a603f5c769fa16f65914d5,AL,34.1882916,-85.6315137,3886,630,970,https://www.cherokeek12.org/,0,Cherokee County School District,6542a2e8a129cb65b87a01bd,"130 E Main St, Centre, AL, 35960"
65a603f5c769fa16f65914d6,AL,32.8608254,-86.6839515,7858,660,970,https://chiltoncsal.schoolinsites.com/,0,Chilton County School District,6542a2e8a129cb65b87a01bd,"1705 Lay Dam Rd, Clanton, AL, 35045"
65a603f5c769fa16f65914d7,AL,32.0317832,-88.2589753,1097,690,970,https://www.choctawal.org/,0,Choctaw County School District,6542a2e8a129cb65b87a01bd,"107 Tom Orr Dr, Butler, AL, 36904"
65a603f5c769fa16f65914d8,AL,31.6300389,-87.8371938,2171,720,970,https://www.clarkecountyschools.org/,0,Clarke County School District,6542a2e8a129cb65b87a01bd,"155 W Cobb St, Grove Hill, AL, 36451"
65a603f5c769fa16f65914d9,AL,33.2705962,-85.8265259,1784,750,970,https://www.claycoboe.org/,0,Clay County School District,6542a2e8a129cb65b87a01bd,"62 Court Square, Ashland, AL, 36251"
65a603f5c769fa16f65914da,AL,33.6423072,-85.501768,2507,780,970,https://www.cleburneschools.net/,0,Cleburne County School District,6542a2e8a129cb65b87a01bd,"141 Davenport Drive, Heflin, AL, 36264"
65a603f5c769fa16f65914db,AL,31.3817704,-85.9795268,2846,810,970,https://www.coffeecountyschools.org/,0,Coffee County School District,6542a2e8a129cb65b87a01bd,"400 Reddoch Hill Rd, Elba, AL, 36323"
65a603f5c769fa16f65914dc,AL,34.7039919,-87.7563852,2621,840,970,https://www.colbertk12.org/,0,Colbert County School District,6542a2e8a129cb65b87a01bd,"425 Highway 72 West, Tuscumbia, AL, 35674"
65a603f5c769fa16f65914dd,AL,31.4190203,-86.9888137,1487,870,970,http://www.conecuh.k12.al.us/,0,Conecuh County School District,6542a2e8a129cb65b87a01bd,"1455 Ted Bates Road, Evergreen, AL, 36401"
65a603f5c769fa16f65914de,AL,32.9547804,-86.2285714,805,900,970,https://www.coosaschools.org/,0,Coosa County School District,6542a2e8a129cb65b87a01bd,"73 Nixburg Road, Rockford, AL, 35136"
65a603f5c769fa16f65914df,AL,33.0347368,-87.1360927,3098,360,970,https://www.bibbed.org/,0,Bibb County School District,6542a2e8a129cb65b87a01bd,"721 Walnut Street, Centreville, AL, 35042"
65a603f5c769fa16f65914e0,AL,31.2423864,-86.4313404,3040,930,970,https://www.cov.k12.al.us/,0,Covington County School District,6542a2e8a129cb65b87a01bd,"807 C C Baker Ave, Andalusia, AL, 36421"
65a603f5c769fa16f65914e1,AL,31.7132178,-86.2935031,2240,960,970,https://www.crenshaw-schools.org/,0,Crenshaw County School District,6542a2e8a129cb65b87a01bd,"183 Votec Drive, Luverne, AL, 36049"
65a603f5c769fa16f65914e2,AL,34.1794338,-86.8435052,3226,990,970,https://www.cullmancats.net/,0,Cullman City School District,6542a2e8a129cb65b87a01bd,"301 1st St N E, Cullman, AL, 35055"
65a603f5c769fa16f65914e3,AL,34.1592153,-86.822049,9846,1020,970,https://www.ccboe.org/,0,Cullman County School District,6542a2e8a129cb65b87a01bd,"402 Arnold St NE, Cullman, AL, 35055"
65a603f5c769fa16f65914e4,AL,31.430169,-85.5550603,3270,1050,970,https://www.dalecountyboe.org/,0,Dale County School District,6542a2e8a129cb65b87a01bd,"202 S Hwy 123 Suite E, Ozark, AL, 36360"
65a603f5c769fa16f65914e5,AL,31.2907535,-85.7344838,1154,1080,970,https://www.daleville.k12.al.us/,0,Daleville City School District,6542a2e8a129cb65b87a01bd,"626 N Daleville Ave, Daleville, AL, 36322"
65a603f5c769fa16f65914e6,AL,32.3874229,-87.0831673,2488,1110,970,https://www.dallask12.org/,0,Dallas County School District,6542a2e8a129cb65b87a01bd,"429 Lauderdale St, Selma, AL, 36701"
65a603f5c769fa16f65914e7,AL,34.4637041,-85.8239929,8717,1140,970,https://www.dekalbk12.org/,0,DeKalb County School District,6542a2e8a129cb65b87a01bd,"306 Main St W, Rainsville, AL, 35986"
65a603f5c769fa16f65914e8,AL,34.5816684,-86.9862055,8745,1170,970,https://www.dcs.edu/,0,Decatur City School District,6542a2e8a129cb65b87a01bd,"212 4th Ave SE, Decatur, AL, 35601"
65a603f5c769fa16f65914e9,AL,32.5095182,-87.832259,2064,1200,970,https://www.dcsedu.com/,0,Demopolis City School District,6542a2e8a129cb65b87a01bd,"609 South Cedar Avenue, Demopolis, AL, 36732"
65a603f5c769fa16f65914ea,AL,31.2275103,-85.4099632,8254,1230,970,https://www.dothan.k12.al.us/,0,Dothan City School District,6542a2e8a129cb65b87a01bd,"1665 Honeysuckle Road, DOTHAN, AL, 36301"
65a603f5c769fa16f65914eb,AL,31.4174725,-86.0877672,685,1260,970,https://www.elbaed.com/,0,Elba City School District,6542a2e8a129cb65b87a01bd,"131 Tiger Dr, Elba, AL, 36323"
65a603f5c769fa16f65914ec,AL,32.5729275,-86.2546922,11971,1290,970,https://www.elmoreco.com/,0,Elmore County School District,6542a2e8a129cb65b87a01bd,"100 H H Robison Drive, Wetumpka, AL, 36092"
65a603f5c769fa16f65914ed,AL,31.0949486,-87.2605309,4208,1350,970,https://www.escambiak12.net/,0,Escambia County School District,6542a2e8a129cb65b87a01bd,"301 Belleville Ave, Brewton, AL, 36426"
65a603f5c769fa16f65914ee,AL,33.999424,-86.0206453,8702,1380,970,https://www.ecboe.org,0,Etowah County School District,6542a2e8a129cb65b87a01bd,"401 Broad Street, Gadsden, AL, 35901"
65a603f5c769fa16f65914ef,AL,31.8871498,-85.1551553,6289,1410,970,https://www.eufaulacityschools.org/,0,Eufaula City School District,6542a2e8a129cb65b87a01bd,"333 State Docks Road, Eufaula, AL, 36027"
65a603f5c769fa16f65914f0,AL,33.4806403,-86.915845,1476,1440,970,https://www.fairfieldschoolsystem.com/,0,Fairfield City School District,6542a2e8a129cb65b87a01bd,"6405 Ave D, Fairfield, AL, 35064"
65a603f5c769fa16f65914f1,AL,33.7161568,-87.7642923,2163,1470,970,https://www.fayette.k12.al.us/,0,Fayette County School District,6542a2e8a129cb65b87a01bd,"103 First Ave NW, Fayette, AL, 35555"
65a603f5c769fa16f65914f2,AL,34.8230286,-87.6616133,4645,1530,970,https://www.florencek12.org/,0,Florence City School District,6542a2e8a129cb65b87a01bd,"102 S Court Street, Florence, AL, 35630"
65a603f5c769fa16f65914f3,AL,34.4532729,-85.7057412,3515,1560,970,https://www.fpcsk12.com/,0,Fort Payne City School District,6542a2e8a129cb65b87a01bd,"205 45th St NE, Fort Payne, AL, 35967"
65a603f5c769fa16f65914f4,AL,34.4302426,-87.8592119,3637,1590,970,https://www.franklin.k12.al.us/,0,Franklin County School District,6542a2e8a129cb65b87a01bd,"500 Coffee Ave NE, Russellville, AL, 35653"
65a603f5c769fa16f65914f5,AL,34.009889,-86.009445,4939,1620,970,https://www.gcs.k12.al.us/,0,Gadsden City School District,6542a2e8a129cb65b87a01bd,"1026 Chestnut St, Gadsden, AL, 35901"
65a603f5c769fa16f65914f6,AL,31.0432403,-85.8739156,1252,1640,970,https://www.gck12.com/,0,Geneva City School District,6542a2e8a129cb65b87a01bd,"511 Panther Drive, Geneva, AL, 36340"
65a603f5c769fa16f65914f7,AL,31.0976041,-85.7850934,2784,1660,970,https://www.genevacountyschools.com/,0,Geneva County School District,6542a2e8a129cb65b87a01bd,"606 S Academy St, Geneva, AL, 36340"
65a603f5c769fa16f65914f8,AL,32.822447,-87.9215702,913,1680,970,https://greenecoboe.greene.k12.al.us/,0,Greene County School District,6542a2e8a129cb65b87a01bd,"220 Main St, Eutaw, AL, 35462"
65a603f5c769fa16f65914f9,AL,34.3469516,-86.2989269,1851,1690,970,https://www.guntersvilleboe.com/,0,Guntersville City School District,6542a2e8a129cb65b87a01bd,"4200 Highway 79 South, Guntersville, AL, 35976"
65a603f5c769fa16f65914fa,AL,32.7805971,-87.6302656,2318,1710,970,https://www.halek12.org/,0,Hale County School District,6542a2e8a129cb65b87a01bd,"1115 Powers St, Greensboro, AL, 36744"
65a603f5c769fa16f65914fb,AL,34.2304639,-87.6097358,1644,1720,970,https://www.haley-k12.us/,0,Haleyville City School District,6542a2e8a129cb65b87a01bd,"2011 20th St, Haleyville, AL, 35565"
65a603f5c769fa16f65914fc,AL,34.4397934,-86.9389027,3638,1730,970,https://www.hartselletigers.org/,0,Hartselle City School District,6542a2e8a129cb65b87a01bd,"305 College St NE, Hartselle, AL, 35640"
65a603f5c769fa16f65914fd,AL,31.4830214,-85.2633632,2530,1740,970,https://www.henrycountyboe.org/,0,Henry County School District,6542a2e8a129cb65b87a01bd,"300 N Trawick Street, Abbeville, AL, 36310"
65a603f5c769fa16f65914fe,AL,33.4690453,-86.8029317,4371,1760,970,https://www.homewood.k12.al.us/,0,Homewood City School District,6542a2e8a129cb65b87a01bd,"450 Dale Avenue, Homewood, AL, 35209"
65a603f5c769fa16f65914ff,AL,31.3258099,-85.8412301,6651,1320,970,https://www.enterpriseschools.net/,0,Enterprise City School District,6542a2e8a129cb65b87a01bd,"220 Hutchinson St, Enterprise, AL, 36330"
65a603f5c769fa16f6591500,AR,34.8955256,-92.4446262,3011524,,40,https://portal.arkansas.gov/,0,Arkansas,,
65a603f5c769fa16f6591501,AR,34.2895697,-91.3765466,17149,,50,https://www.arcounties.org/counties/arkansas/,6,Arkansas County,65a603f5c769fa16f6591500,"305 S College St, Stuttgart, AR 72160, USA"
65a603f5c769fa16f6591502,AR,33.1908354,-91.7722672,19062,,50,https://www.ashleycountyar.com/,6,Ashley County,65a603f5c769fa16f6591500,"205 E Jefferson St # 5, Hamburg, AR 71646, USA"
65a603f5c769fa16f6591503,AR,36.2802684,-92.3299488,41627,,50,https://www.baxtercountyar.gov,6,Baxter County,65a603f5c769fa16f6591500,"720 Hickory St, Mountain Home, AR 72653, USA"
65a603f5c769fa16f6591504,AR,36.3378189,-94.2562984,284333,,50,https://bentoncountyar.gov,6,Benton County,65a603f5c769fa16f6591500,"215 E Central Ave, Bentonville, AR 72712, USA"
65a603f5c769fa16f6591505,AR,36.3042991,-93.0792364,37373,,50,https://www.boonecountyar.com,6,Boone County,65a603f5c769fa16f6591500,"100 N Main St, Harrison, AR 72601, USA"
65a603f5c769fa16f6591506,AR,33.4665491,-92.1691559,10545,,50,https://portal.arkansas.gov/counties/bradley/,6,Bradley County,65a603f5c769fa16f6591500,"1479 S Main St, Warren, AR 71671, USA"
65a603f5c769fa16f6591509,AR,33.2671393,-91.2971578,10208,,50,https://www.arcounties.org/counties/chicot/,6,Chicot County,65a603f5c769fa16f6591500,"108 Main St #2, Lake Village, AR 71653, USA"
65a603f5c769fa16f659150a,AR,34.0533162,-93.1762085,21446,,50,https://clarkcountyar.gov/,6,Clark County,65a603f5c769fa16f6591500,"401 Clay St #2, Arkadelphia, AR 71923, USA"
65a603f5c769fa16f659150b,AR,36.3673021,-90.4187041,14552,,50,https://www.claycountyarkansas.org/,6,Clay County,65a603f5c769fa16f6591500,"187 N 2nd Ave, Piggott, AR 72454, USA"
65a603f5c769fa16f659150c,AR,35.5663146,-92.0599504,24711,,50,https://www.cleburnecountyar.com/,6,Cleburne County,65a603f5c769fa16f6591500,"301 W Main St, Heber Springs, AR 72543, USA"
65a603f5c769fa16f659150d,AR,33.2230377,-93.2328433,22801,,50,https://www.countyofcolumbia.org/,6,Columbia County,65a603f5c769fa16f6591500,"203 US-371, Magnolia, AR 71753, USA"
65a603f5c769fa16f659150e,AR,35.265702,-92.6892479,20715,,50,https://conwaycountyar.com/,6,Conway County,65a603f5c769fa16f6591500,
65a603f5c769fa16f659150f,AR,35.8277285,-90.6314213,111231,,50,https://craigheadcountyar.gov,6,Craighead County,65a603f5c769fa16f6591500,
65a603f5c769fa16f6591510,AR,35.5830114,-94.2362187,60133,,50,http://www.crawford-county.org,6,Crawford County,65a603f5c769fa16f6591500,"3703 Pointer Trail E, Van Buren, AR 72956, USA"
65a603f5c769fa16f6591511,AR,35.1975594,-90.3051195,48163,,50,https://www.crittendencountyar.org/,6,Crittenden County,65a603f5c769fa16f6591500,"350 Afco Rd, West Memphis, AR 72301, USA"
65a603f5c769fa16f6591512,AR,35.2856921,-90.7639835,16833,,50,https://www.crosscountyar.org/,6,Cross County,65a603f5c769fa16f6591500,"21 Co Rd 215, Cherry Valley, AR 72324, USA"
65a603f5c769fa16f6591516,AR,35.1465478,-92.3369277,123498,,50,https://www.faulknercountyar.gov,6,Faulkner County,65a603f5c769fa16f6591500,
65a603f5c769fa16f6591517,AR,35.5085579,-93.8876647,17097,,50,https://www.arcounties.org/counties/franklin/,6,Franklin County,65a603f5c769fa16f6591500,"211 W Commercial St, Ozark, AR 72949, USA"
65a603f5c769fa16f6591518,AR,36.3813225,-91.8192849,12075,,50,https://www.fultoncountyar.gov/,6,Fulton County,65a603f5c769fa16f6591500,"131 N Pickren St, Salem, AR 72576, USA"
65a603f5c769fa16f6591519,AR,34.5788522,-93.1469323,100180,,50,http://www.garlandcounty.org/,6,Garland County,65a603f5c769fa16f6591500,"151 Centennial Dr, Hot Springs, AR 71913, USA"
65a603f5c769fa16f659151b,AR,36.1206072,-90.5663459,45736,,50,,6,Greene County,65a603f5c769fa16f6591500,
65a603f5c769fa16f659151d,AR,34.3151767,-92.9441474,33040,,50,https://hotspringcounty.org/,6,Hot Spring County,65a603f5c769fa16f6591500,
65a603f5c769fa16f659151e,AR,34.0830639,-93.9909315,12785,,50,https://www.arcounties.org/counties/howard/,6,Howard County,65a603f5c769fa16f6591500,"421 N Main St #3, Nashville, AR 71852, USA"
65a603f5c769fa16f659151f,AR,33.8932006,-92.1887141,7550,,50,https://local.arkansas.gov,6,Cleveland County,65a603f5c769fa16f6591500,
65a603f5c769fa16f6591520,AR,35.7374992,-91.5599423,37938,,50,http://www.independencecounty.com,6,Independence County,65a603f5c769fa16f6591500,
65a603f5c769fa16f6591521,AR,36.0948792,-91.9136252,13577,,50,https://www.izardcountyar.org/,6,Izard County,65a603f5c769fa16f6591500,"87 E Main St, Melbourne, AR 72556, USA"
65a603f5c769fa16f6591522,AR,35.5964674,-91.2232051,16755,,50,https://jacksoncountyar.com/,6,Jackson County,65a603f5c769fa16f6591500,"208 Main St, Newport, AR 72112, USA"
65a603f5c769fa16f6591523,AR,34.277239,-91.929673,67260,,50,https://www.jeffersoncountyar.gov/,6,Jefferson County,65a603f5c769fa16f6591500,"105 S Main St, Pine Bluff, AR 71601, USA"
65a603f5c769fa16f6591524,AR,35.5733586,-93.4663223,25749,,50,http://johnsoncounty.arkansas.gov/,6,Johnson County,65a603f5c769fa16f6591500,"1697 AR-21, Clarksville, AR 72830, USA"
65a603f5c769fa16f6591526,AR,36.0410983,-91.1011529,16216,,50,https://www.lawrencecountyarkansas.com/,6,Lawrence County,65a603f5c769fa16f6591500,"315 W Main St Room 2, Walnut Ridge, AR 72476, USA"
65a603f5c769fa16f6591528,AR,33.9563846,-91.742355,12941,,50,https://portal.arkansas.gov/counties/lincoln/,6,Lincoln County,65a603f5c769fa16f6591500,
65a603f5c769fa16f659152a,AR,35.2186538,-93.7209102,21131,,50,https://www.logancountyark.org/,6,Logan County,65a603f5c769fa16f6591500,"366 N Broadway Ave, Booneville, AR 72927, USA"
65a603f5c769fa16f659152c,AR,36.0125452,-93.7240531,16521,,50,https://madisoncogov.com/,6,Madison County,65a603f5c769fa16f6591500,"Huntsville, AR 72740, USA"
65a603f5c769fa16f659152d,AR,33.3055054,-93.9015018,42600,,50,https://millercountyar.com/,6,Miller County,65a603f5c769fa16f6591500,"400 Laurel St # 104, Texarkana, AR 71854, USA"
65a603f5c769fa16f659152e,AR,35.7669437,-90.0522072,40685,,50,https://www.mississippicountyar.org/,6,Mississippi County,65a603f5c769fa16f6591500,"200 W Walnut St Apt 204, Blytheville, AR 72315, USA"
65a603f5c769fa16f659152f,AR,34.6795117,-91.2033099,6799,,50,https://monroecounty.arkansas.gov/,6,Monroe County,65a603f5c769fa16f6591500,
65a603f5c769fa16f6591531,AR,33.6666991,-93.3050716,8310,,50,https://nevadacounty.arkansas.gov/,6,Nevada County,65a603f5c769fa16f6591500,"303 E 3rd St S, Prescott, AR 71857, USA"
65a603f5c769fa16f6591534,AR,34.9463629,-92.9268773,10019,,50,https://perrycoarkansas.org,6,Perry County,65a603f5c769fa16f6591500,"713 Aplin Ave, Perryville, AR 72126, USA"
65a603f5c769fa16f6591535,AR,34.4236874,-90.8555931,16568,,50,https://portal.arkansas.gov/counties/phillips/,6,Phillips County,65a603f5c769fa16f6591500,
65a603f5c769fa16f6591536,AR,34.1581907,-93.6586589,10171,,50,https://pikecountyar.org/,6,Pike County,65a603f5c769fa16f6591500,"306 S School St, Murfreesboro, AR 71958, USA"
65a603f5c769fa16f6591537,AR,36.2666636,-92.6785765,16826,,50,https://marioncounty.arkansas.gov/,6,Marion County,65a603f5c769fa16f6591500,"500 W Old Main St, Yellville, AR 72687, USA"
65a603f5c769fa16f6591538,AR,34.4909149,-94.2308841,19221,,50,https://portal.arkansas.gov/counties/polk/,6,Polk County,65a603f5c769fa16f6591500,"507 Church Ave, Mena, AR 71953, USA"
65a603f5c769fa16f6591539,AR,35.456557,-93.0268181,63381,,50,http://www.popecountyar.gov,6,Pope County,65a603f5c769fa16f6591500,"4 Emergency Ln, Russellville, AR 72801, USA"
65a603f5c769fa16f659153a,AR,34.8311162,-91.5536205,8282,,50,https://prairiecounty.arkansas.gov,6,Prairie County,65a603f5c769fa16f6591500,"208 W Courthouse Square, Des Arc, AR 72040, USA"
65a603f5c769fa16f659153c,AR,35.5688702,-90.6811037,22965,,50,https://www.poinsettar.gov,6,Poinsett County,65a603f5c769fa16f6591500,"401 Market St, Harrisburg, AR 72432, USA"
65a603f5c769fa16f659153d,AR,36.3412985,-91.0284409,18571,,50,https://www.arcounties.org/counties/randolph/,6,Randolph County,65a603f5c769fa16f6591500,
65a603f5c769fa16f659153e,AR,34.6485246,-92.674463,123416,,50,http://www.salinecounty.org/,6,Saline County,65a603f5c769fa16f6591500,"200 N Main St, Benton, AR 72015, USA"
65a603f5c769fa16f659153f,AR,35.0228383,-90.7515058,23090,,50,https://www.arcounties.org/counties/st-francis/,6,Saint Francis County,65a603f5c769fa16f6591500,"Fluerland, Forrest City, AR 72335, USA"
65a603f5c769fa16f6591540,AL,33.6309234,-86.5939754,5065,13,970,https://www.trussvillecityschools.com/,0,Trussville City School District,6542a2e8a129cb65b87a01bd,"476 Main Street, Trussville, AL, 35173"
65a603f5c769fa16f6591543,AR,35.1969808,-94.2749889,127799,,50,http://www.sebastiancountyar.gov/,6,Sebastian County,65a603f5c769fa16f6591500,"35 S 6th St room g-6, Fort Smith, AR 72901, USA"
65a603f5c769fa16f6591544,AR,33.9948773,-94.2432792,15839,,50,https://www.seviercountyar.org/,6,Sevier County,65a603f5c769fa16f6591500,"2852, 115 N 3rd St # 108, De Queen, AR 71832, USA"
65a603f5c769fa16f6591546,AR,35.8570011,-92.1404819,12359,,50,https://www.stonecountyar.gov/,6,Stone County,65a603f5c769fa16f6591500,"845 00083, 000C, Mountain View, AR 72560, USA"
65a603f5c769fa16f6591548,AR,35.5829532,-92.5159757,15796,,50,http://www.vanburencountyar.com/,6,Van Buren County,65a603f5c769fa16f6591500,
65a603f5c769fa16f659154a,AR,35.2551175,-91.7530339,76822,,50,http://www.whitecountyar.org/,6,White County,65a603f5c769fa16f6591500,"411 N Spruce St # 102, Searcy, AR 72143, USA"
65a603f5c769fa16f659154b,AR,35.1927768,-91.2445353,6269,,50,https://woodruffcounty.arkansas.gov,6,Woodruff County,65a603f5c769fa16f6591500,
65a603f5c769fa16f659154c,AR,34.9977133,-93.4083032,20263,,50,http://yellcounty.net/,6,Yell County,65a603f5c769fa16f6591500,
65a603f5c769fa16f6591550,AR,35.4923884,-94.2137451,5825,970,160,http://www.cityofalma.org,25,City of Alma,65a603f5c769fa16f6591510,"804 Fayetteville Ave Suite B, Alma, AR 72921, USA"
65a603f5c769fa16f6591552,AL,34.2662362,-86.2102835,5900,5,970,https://www.albertk12.org/,0,Albertville City School District,6542a2e8a129cb65b87a01bd,"8379 US Highway 431, Albertville, AL, 35950"
65a603f5c769fa16f6591557,AR,34.2661902,-93.4634233,681,1360,160,https://amityarkansas.us/,25,City of Amity,65a603f5c769fa16f659150a,"121 E Thompson St, Amity, AR 71921, USA"
65a603f5c769fa16f659155a,AR,33.6088763,-91.2048964,376,1990,160,http://arkansascityusa.com/,25,City of Arkansas City,65a603f5c769fa16f6591514,"606 Sprague St, Arkansas City, AR 71630, USA"
65a603f5c769fa16f659155b,AR,34.1273801,-93.0708515,10380,1870,160,https://arkadelphia.gov/,25,City of Arkadelphia,65a603f5c769fa16f659150a,"700 Clay St, Arkadelphia, AR 71923, USA"
65a603f5c769fa16f659155c,AR,33.6745291,-94.1266267,4261,2380,160,http://www.ashdownarkansas.org/,25,City of Ashdown,65a603f5c769fa16f6591529,"250 N 2nd St, Ashdown, AR 71822, USA"
65a603f5c769fa16f659155d,AR,35.2408635,-92.9496435,2859,2590,160,https://atkinscity.org/,25,City of Atkins,65a603f5c769fa16f6591539,"310 NE 1st St, Atkins, AR 72823, USA"
65a603f5c769fa16f659155f,AR,36.2364599,-91.6066765,1137,2470,160,https://www.ash-flat.com/,25,City of Ash Flat,65a603f5c769fa16f6591545,"897 Ash Flat Dr, Ash Flat, AR 72513, USA"
65a603f5c769fa16f6591560,AR,35.2865503,-91.3608596,1998,2740,160,https://local.arkansas.gov/local.php?agency=Augusta,25,City of Augusta,65a603f5c769fa16f659154b,"210 Main St, Augusta, AR 72006, USA"
65a603f5c769fa16f6591561,AL,33.6684031,-85.8213507,1892,90,970,https://www.annistonschools.com/,0,Anniston City School District,6542a2e8a129cb65b87a01bd,"4804 McClellan Boulevard, Anniston, AL, 36206"
65a603f5c769fa16f6591562,AL,32.9188824,-85.9513726,2899,30,970,https://www.alexcityschools.net/,0,Alexander City City School District,6542a2e8a129cb65b87a01bd,"375 Lee Street, Alexander City, AL, 35010"
65a603f5c769fa16f6591563,AL,31.3094906,-86.4755961,1871,60,970,https://andalusiacityschools.schoolinsites.com/,0,Andalusia City School District,6542a2e8a129cb65b87a01bd,"1201 C C Baker Avenue, Andalusia, AL, 36421"
65a603f5c769fa16f6591564,AL,34.3289306,-86.4965038,2653,100,970,https://www.arabcityschools.org/,0,Arab City School District,6542a2e8a129cb65b87a01bd,"750 Arabian Dr NE, Arab, AL, 35016"
65a603f5c769fa16f6591566,AL,33.5457112,-86.5560966,2223,11,970,https://www.leedsk12.org/,0,Leeds City School District,6542a2e8a129cb65b87a01bd,"1517 Hurst Avenue, Leeds, AL, 35094"
65a603f5c769fa16f6591567,AR,36.3946968,-94.0657701,487,3040,160,https://www.avocaarkansas.info/mayorsoffice.aspx,43,Town of Avoca,65a603f5c769fa16f6591504,"222 Old Wire Rd, Avoca, AR 72711, USA"
65a603f5c769fa16f6591568,AR,34.6185624,-92.4512194,3385,580,160,http://www.cityofalexander.org/,25,City of Alexander,65a603f5c769fa16f659153e,"15605 Alexander Rd, Alexander, AR 72002, USA"
65a603f5c769fa16f6591569,AL,34.0107903,-86.0984098,1538,180,970,https://www.attalla.k12.al.us/,0,Attalla City School District,6542a2e8a129cb65b87a01bd,"101 Case Ave, Attalla, AL, 35954"
65a603f5c769fa16f659156b,AR,35.3125387,-91.5712535,2522,3280,160,https://local.arkansas.gov/local.php?agency=Bald%20Knob,25,City of Bald Knob,65a603f5c769fa16f659154a,"3713 AR-367, Bald Knob, AR 72010, USA"
65a603f5c769fa16f659156e,AR,35.768572,-91.6226517,11191,4030,160,https://www.batesvillearkansas.gov,25,City of Batesville,65a603f5c769fa16f6591520,"Batesville Municipal Building, 500 E Main St #100, Batesville, AR 72501, USA"
65a603f5c769fa16f6591573,AR,35.0724334,-91.9010587,8437,4600,160,http://www.beebeark.org/,25,City of Beebe,65a603f5c769fa16f659154a,"321 Elm St N, Beebe, AR 72012, USA"
65a603f5c769fa16f6591575,AR,36.4666414,-94.266317,30104,4840,160,https://www.bellavistaar.gov/,25,City of Bella Vista,65a603f5c769fa16f6591504,"101 NE Towncenter, Bella Vista, AR 72714, USA"
65a603f5c769fa16f6591579,AR,34.5774242,-92.5725829,35014,5290,160,http://www.bentonar.org/,25,City of Benton,65a603f5c769fa16f659153e,"114 S East St, Benton, AR 72015, USA"
65a603f5c769fa16f659157a,AR,36.3530398,-94.250259,54164,5320,160,http://www.bentonvillear.com/,25,City of Bentonville,65a603f5c769fa16f6591504,"305 SW A St, Bentonville, AR 72712, USA"
65a603f5c769fa16f659157c,AR,36.3710276,-93.5703871,5682,5560,160,https://berryvillear.gov/,25,City of Berryville,65b98a3ff5107303ca83c410,"305 E Madison Ave, Berryville, AR 72616, USA"
65a603f5c769fa16f6591589,AR,35.934066,-89.9051333,13406,7330,160,https://www.cityofblytheville.com,25,City of Blytheville,65a603f5c769fa16f659152e,"124 W Walnut St, Blytheville, AR 72315, USA"
65a603f5c769fa16f659158c,AR,35.9111018,-90.8008215,2409,7630,160,http://bonoar.com/,25,City of Bono,65a603f5c769fa16f659150f,"241 E College St, Bono, AR 72416, USA"
65a603f5c769fa16f6591592,AR,34.8897807,-91.1898188,2700,8950,160,https://cityofbrinkley.org/,25,City of Brinkley,65a603f5c769fa16f659152f,"233 W Cedar St, Brinkley, AR 72021, USA"
65a603f5c769fa16f6591594,AR,34.6150589,-92.4913378,20663,9460,160,https://www.cityofbryant.com/,25,City of Bryant,65a603f5c769fa16f659153e,"210 SW 3rd St, Bryant, AR 72022, USA"
65a603f5c769fa16f6591598,AR,34.9751059,-92.0282877,26569,10300,160,http://www.cabotar.gov/,25,City of Cabot,65a603f5c769fa16f659152b,"101 N 2nd St Suite A, Cabot, AR 72023, USA"
65a603f5c769fa16f659159e,AR,33.5676724,-92.8490636,10612,10720,160,https://www.explorecamden.com/,25,City of Camden,65a603f5c769fa16f6591533,"206 Van Buren St NE, Camden, AR 71701, USA"
65a603f5c769fa16f65915a2,AR,34.7954255,-91.7404936,2033,11500,160,https://www.carlislear.org/,25,City of Carlisle,65a603f5c769fa16f659152b,"120 W Main St, Carlisle, AR 72024, USA"
65a603f5c769fa16f65915a8,AR,36.2684299,-94.2195028,5495,12340,160,https://www.cavespringsar.gov/,25,City of Cave Springs,65a603f5c769fa16f6591504,"134 N Main St, Cave Springs, AR 72718, USA"
65a603f5c769fa16f65915aa,AR,36.3551478,-94.2976921,17792,12820,160,https://www.centertonar.us/,25,City of Centerton,65a603f5c769fa16f6591504,"200 Municipal Dr, Centerton, AR 72719, USA"
65a603f5c769fa16f65915b3,AR,35.4539181,-93.4815577,9381,14140,160,http://www.clarksvillear.gov/,25,City of Clarksville,65a603f5c769fa16f6591524,"205 Walnut St, Clarksville, AR 72830, USA"
65a603f5c769fa16f65915c7,AR,36.3411032,-94.4513441,1773,17740,160,http://decaturarkansas.com/city-office/,25,City of Decatur,65a603f5c769fa16f6591504,"310 East Avenue, Decatur, AR 72722, USA"
65a603f5c769fa16f65915cc,AR,34.0422445,-94.3421327,6105,18490,160,http://www.cityofdequeen.com,25,City of De Queen,65a603f5c769fa16f6591544,"220 N 2nd St, De Queen, AR 71832, USA"
65a603f5c769fa16f65915db,AR,33.608437,-92.744456,798,20440,160,,43,Town of East Camden,65a603f5c769fa16f6591533,
65a603f5c769fa16f65915df,AR,36.017217,-94.0234965,3602,21190,160,https://elkins.arkansas.gov/,25,City of Elkins,65b9900a042b68ae279f7ad3,"1874 Stokenbury Rd, Elkins, AR 72727, USA"
65a603f5c769fa16f65915e0,AR,36.2062238,-94.2379037,2361,21430,160,http://www.elmsprings.net/,25,City of Elm Springs,65b9900a042b68ae279f7ad3,"289 Jayroe Ave, Springdale, AR 72762, USA"
65a603f5c769fa16f65915e1,AR,33.2189825,-92.6640713,17756,21070,160,https://www.goeldorado.com/,25,City of El Dorado,65b98e4cc8974c409c5c61d5,"204 N West Ave, El Dorado, AR 71730, USA"
65a603f5c769fa16f65915e3,AR,34.5454313,-91.9674419,2477,21730,160,http://www.cityofengland.org/contacts.html,25,City of England,65a603f5c769fa16f659152b,"110 NW 2nd St, England, AR 72046, USA"
65a603f5c769fa16f65915eb,AR,35.6011005,-92.2662083,2108,22660,160,https://www.fairfieldbayar.com/,25,City of Fairfield Bay,65a603f5c769fa16f659150c,
65a603f5c769fa16f65915ed,AR,36.0365815,-94.2524659,7584,23170,160,http://www.cityoffarmingtonar.com/,25,City of Farmington,65b9900a042b68ae279f7ad3,"354 W Main St, Farmington, AR 72730, USA"
65a603f5c769fa16f65915ee,AR,36.0714549,-94.1665644,93949,23290,160,https://www.fayetteville-ar.gov/,25,City of Fayetteville,65b9900a042b68ae279f7ad3,"113 W Mountain St, Fayetteville, AR 72701, USA"
65a603f5c769fa16f65915f5,AR,35.0135987,-90.7932073,13015,24430,160,https://www.cityofforrestcityar.com/,25,City of Forrest City,65a603f5c769fa16f659153f,"401 Cleveland Ave, Forrest City, AR 72335, USA"
65a603f5c769fa16f65915f6,AR,35.3492757,-94.370883,89142,24550,160,http://www.fortsmithar.gov/,25,City of Fort Smith,65a603f5c769fa16f6591543,"623 Garrison Ave, Fort Smith, AR 72901, USA"
65a603f5c769fa16f6591602,AR,36.2849489,-92.4868301,2171,26050,160,https://www.cityofgassville.org/,25,City of Gassville,65a603f5c769fa16f6591503,"204 S School St, Gassville, AR 72635, USA"
65a603f5c769fa16f659160c,AR,35.9649365,-89.968577,2910,27700,160,https://cityofgosnell.com/,25,City of Gosnell,65a603f5c769fa16f659152e,"201 S Air Base Hwy, Gosnell, AR 72315, USA"
65a603f5c769fa16f6591610,AR,36.4282963,-94.3685289,3547,28360,160,https://www.gravettear.com/,25,City of Gravette,65a603f5c769fa16f6591504,"202 Main St NE, Gravette, AR 72736, USA"
65a603f5c769fa16f6591611,AR,35.2288429,-92.3835676,5707,28510,160,https://www.gogreenbrier.com/,25,City of Greenbrier,65a603f5c769fa16f6591516,"11 Wilson Farm Rd, Greenbrier, AR 72058, USA"
65a603f5c769fa16f6591612,AR,36.3347102,-93.4309624,2972,28600,160,https://www.greenforestar.net/,25,City of Green Forest,65b98a3ff5107303ca83c410,"203 S Springfield Ave, Green Forest, AR 72638, USA"
65a603f5c769fa16f659161e,AR,33.2247552,-91.7972469,2536,29500,160,http://www.cityofhamburg.com/,25,City of Hamburg,65a603f5c769fa16f6591502,"305 E Adams St, Hamburg, AR 71646, USA"
65a603f5c769fa16f6591622,AR,35.5637723,-90.7216146,2212,30400,160,https://local.arkansas.gov/local.php?agency=Harrisburg,25,City of Harrisburg,65a603f5c769fa16f659153c,"202 East St, Harrisburg, AR 72432, USA"
65a603f5c769fa16f6591623,AR,36.2425922,-93.1176503,13069,30460,160,https://www.cityofharrison.com,25,City of Harrison,65a603f5c769fa16f6591505,"118 Industrial Park Rd, Harrison, AR 72601, USA"
65a603f5c769fa16f6591625,AR,34.5092384,-92.6418606,3956,30640,160,https://cityofhaskell.org/,25,City of Haskell,65a603f5c769fa16f659153e,
65a603f5c769fa16f659162d,AR,34.5313255,-90.6200574,9519,31190,160,https://www.hwh.ar.gov/,25,City of Helena-West Helena,65a603f5c769fa16f6591535,"P O Box 248,, Helena, AR 72342, USA"
65a603f5c769fa16f6591637,AR,33.6681635,-93.5888848,8952,33190,160,http://www.hopearkansas.net/,25,City of Hope,65a603f5c769fa16f659151c,"206 W Avenue A, Hope, AR 71801, USA"
65a603f5c769fa16f6591639,AR,36.2187259,-91.7383236,2440,33370,160,https://www.horseshoebend.org/,25,City of Horseshoe Bend,65a603f5c769fa16f6591518,"704 Commerce St, Horseshoe Bend, AR 72512, USA"
65a603f5c769fa16f659163b,AR,34.4894422,-93.0502538,37930,33400,160,http://www.cityhs.net/,25,City of Hot Springs,65a603f5c769fa16f6591519,
65a603f5c769fa16f659163d,AR,36.0360407,-90.9735877,2598,33580,160,https://www.hereinhoxie.com/,25,City of Hoxie,65a603f5c769fa16f6591526,"126 SW Texas St, Hoxie, AR 72433, USA"
65a603f5c769fa16f6591642,AR,36.0986565,-93.7332436,2879,33970,160,https://huntsvillearkansas.org/,25,City of Huntsville,65a603f5c769fa16f659152c,"208 E War Eagle Ave, Huntsville, AR 72740, USA"
65a603f5c769fa16f6591648,AR,34.8805118,-92.1305903,29477,34750,160,http://www.cityofjacksonville.net/,25,City of Jacksonville,65b98a32f5107303ca83c401,"1 Municipal Dr, Jacksonville, AR 72076, USA"
65a603f5c769fa16f659164c,AR,35.8197553,-90.6790329,78576,35710,160,http://www.jonesboro.org/,25,City of Jonesboro,65a603f5c769fa16f659150f,"300 S Church St, Jonesboro, AR 72401, USA"
65a603f5c769fa16f659164d,AR,36.1338542,-94.1742691,3609,35500,160,http://cityofjohnson.com/,25,City of Johnson,65b9900a042b68ae279f7ad3,"2904 Main Dr, Fayetteville, AR 72704, USA"
65a603f5c769fa16f659165b,AR,35.3301993,-94.1828847,2450,38890,160,http://www.cityoflavaca.com/,25,City of Lavaca,65a603f5c769fa16f6591543,"808 W Main St, Lavaca, AR 72941, USA"
65a603f5c769fa16f659165c,AR,33.3291797,-91.284794,2065,38170,160,http://lakevillagear.gov/,25,City of Lake Village,65a603f5c769fa16f6591509,"210 Main St, Lake Village, AR 71653, USA"